{
  "type": "FeatureCollection",
  "features": [
    {
      "type": "Feature",
      "geometry": {
        "geodesic": false,
        "type": "MultiPolygon",
        "coordinates": [
          [
            [
              [
                86.92202902321105,
                27.898863130414714
              ],
              [
                86.92202889380874,
                27.899043678851083
              ],
              [
                86.9219272823486,
                27.899043621331955
              ],
              [
                86.92192734713511,
                27.89895334711377
              ],
              [
                86.92172412438553,
                27.898953231841954
              ],
              [
                86.92172418934271,
                27.898862957632755
              ],
              [
                86.92202902321105,
                27.898863130414714
              ]
            ]
          ],
          [
            [
              [
                86.92243540400455,
                27.898953633963806
              ],
              [
                86.92253701538382,
                27.898953691114627
              ],
              [
                86.92253695110038,
                27.89904396533281
              ],
              [
                86.92243533964026,
                27.89904390818199
              ],
              [
                86.92243540400455,
                27.898953633963806
              ]
            ]
          ],
          [
            [
              [
                86.9223338570794,
                27.89886330252294
              ],
              [
                86.92202902321105,
                27.898863130414714
              ],
              [
                86.92202915261338,
                27.898682581978345
              ],
              [
                86.92213076373214,
                27.898682639416627
              ],
              [
                86.92213089296378,
                27.898502090971274
              ],
              [
                86.922435725826,
                27.898502262854922
              ],
              [
                86.92243585455458,
                27.89832171440957
              ],
              [
                86.92253746534097,
                27.898321771551405
              ],
              [
                86.92253727249962,
                27.898592594223924
              ],
              [
                86.9224356614617,
                27.898592537082088
              ],
              [
                86.92243553273313,
                27.89877308552744
              ],
              [
                86.92233392153351,
                27.898773028304756
              ],
              [
                86.9223338570794,
                27.89886330252294
              ]
            ]
          ],
          [
            [
              [
                86.9223338570794,
                27.89886330252294
              ],
              [
                86.92243546836883,
                27.898863359745622
              ],
              [
                86.92243540400455,
                27.898953633963806
              ],
              [
                86.92233379263425,
                27.898953576741125
              ],
              [
                86.9223338570794,
                27.89886330252294
              ]
            ]
          ]
        ]
      },
      "id": "+16724+12481",
      "properties": {
        "area_m2": 2205.1653974064243,
        "count": 22,
        "image_id": "COPERNICUS/S1_GRD/S1A_IW_GRDH_1SDV_20251203T001123_20251203T001148_062143_07C6FE_4954",
        "lake_id": "imja-tsho",
        "observed_at": "2025-12-03T00:11:23Z",
        "water": 1
      }
    }
  ]
}
