{
  "type": "FeatureCollection",
  "features": [
    {
      "type": "Feature",
      "geometry": {
        "geodesic": false,
        "type": "MultiPolygon",
        "coordinates": [
          [
            [
              [
                86.92223598952788,
                27.898720752373933
              ],
              [
                86.92233760068257,
                27.898720809659498
              ],
              [
                86.92233753623744,
                27.898811083886667
              ],
              [
                86.92243914748197,
                27.898811141100367
              ],
              [
                86.92243908311768,
                27.89890141531855
              ],
              [
                86.9223374717923,
                27.89890135810485
              ],
              [
                86.92233740734716,
                27.898991632323032
              ],
              [
                86.92223579594094,
                27.898991575028486
              ],
              [
                86.92223598952788,
                27.898720752373933
              ]
            ]
          ],
          [
            [
              [
                86.92223598952788,
                27.898720752373933
              ],
              [
                86.92213437837317,
                27.898720694998534
              ],
              [
                86.9221347014343,
                27.898269323880665
              ],
              [
                86.92223631217577,
                27.89826938124708
              ],
              [
                86.92223624764081,
                27.89835965547425
              ],
              [
                86.92264269093009,
                27.898359884194303
              ],
              [
                86.92264262673649,
                27.89845015842147
              ],
              [
                86.92274423763966,
                27.89845021541059
              ],
              [
                86.92274417353588,
                27.898540489637757
              ],
              [
                86.92243934056586,
                27.89854031843683
              ],
              [
                86.92243927620156,
                27.898630592655014
              ],
              [
                86.92223605405387,
                27.898630478146767
              ],
              [
                86.92223598952788,
                27.898720752373933
              ]
            ]
          ]
        ]
      },
      "id": "+7033+4661",
      "properties": {
        "area_m2": 2004.6959018215928,
        "count": 20,
        "image_id": "COPERNICUS/S1_GRD/S1A_IW_GRDH_1SDV_20251113T121355_20251113T121420_061859_07BBE8_2D36",
        "lake_id": "imja-tsho",
        "observed_at": "2025-11-13T12:13:55Z",
        "water": 1
      }
    }
  ]
}
