{
  "type": "FeatureCollection",
  "features": [
    {
      "type": "Feature",
      "geometry": {
        "geodesic": false,
        "type": "MultiPolygon",
        "coordinates": [
          [
            [
              [
                86.92122053661667,
                27.89950236571388
              ],
              [
                86.92122047123728,
                27.89959263992308
              ],
              [
                86.9211188592741,
                27.899592581802082
              ],
              [
                86.92111892473433,
                27.89950230759288
              ],
              [
                86.92122053661667,
                27.89950236571388
              ]
            ]
          ],
          [
            [
              [
                86.92122079811625,
                27.899141268868092
              ],
              [
                86.92122086348665,
                27.899050994658893
              ],
              [
                86.92132247494678,
                27.899051052699043
              ],
              [
                86.92132240965722,
                27.899141326908243
              ],
              [
                86.92122079811625,
                27.899141268868092
              ]
            ]
          ],
          [
            [
              [
                86.92142330393835,
                27.90013440115977
              ],
              [
                86.92132169146313,
                27.900134343191485
              ],
              [
                86.92132182204224,
                27.89995379479105
              ],
              [
                86.92162665897384,
                27.899953968471326
              ],
              [
                86.92162659392683,
                27.900044242671544
              ],
              [
                86.92142336914706,
                27.900044126959553
              ],
              [
                86.92142330393835,
                27.90013440115977
              ]
            ]
          ],
          [
            [
              [
                86.921525697876,
                27.899051168554763
              ],
              [
                86.92142408641588,
                27.899051110667326
              ],
              [
                86.92142421682432,
                27.89887056223096
              ],
              [
                86.92152582811376,
                27.898870620118394
              ],
              [
                86.921525697876,
                27.899051168554763
              ]
            ]
          ],
          [
            [
              [
                86.92162756947926,
                27.8986901294976
              ],
              [
                86.92142434722376,
                27.898690013794592
              ],
              [
                86.92142441243247,
                27.898599739576408
              ],
              [
                86.92132280138557,
                27.898599681608122
              ],
              [
                86.92132286667513,
                27.898509407389938
              ],
              [
                86.92152608858926,
                27.89850952324566
              ],
              [
                86.92152602347039,
                27.898599797463845
              ],
              [
                86.9216276345173,
                27.898599855279414
              ],
              [
                86.92162756947926,
                27.8986901294976
              ]
            ]
          ],
          [
            [
              [
                86.92315199150806,
                27.898329890848338
              ],
              [
                86.92315205527946,
                27.89823961662117
              ],
              [
                86.923253665985,
                27.898239673233
              ],
              [
                86.92325360230343,
                27.898329947460166
              ],
              [
                86.92315199150806,
                27.898329890848338
              ]
            ]
          ],
          [
            [
              [
                86.92355716599887,
                27.900135601210174
              ],
              [
                86.92376039096729,
                27.900135713778063
              ],
              [
                86.9237602644306,
                27.90031626218748
              ],
              [
                86.92386187708549,
                27.90031631835914
              ],
              [
                86.92386181389799,
                27.900406592559353
              ],
              [
                86.92376020116225,
                27.9004065363877
              ],
              [
                86.92376013789391,
                27.900496810587917
              ],
              [
                86.92365852506835,
                27.9004967543444
              ],
              [
                86.92365846171914,
                27.900587028544614
              ],
              [
                86.92355684881274,
                27.900586972220246
              ],
              [
                86.92355697569079,
                27.900406423819813
              ],
              [
                86.92365858842652,
                27.90040648014418
              ],
              [
                86.92365865177571,
                27.900316205943962
              ],
              [
                86.9235570391298,
                27.900316149619595
              ],
              [
                86.92355716599887,
                27.900135601210174
              ]
            ]
          ],
          [
            [
              [
                86.924268767619,
                27.89968462283575
              ],
              [
                86.92426883046514,
                27.899594348626547
              ],
              [
                86.92447205441846,
                27.89959446014341
              ],
              [
                86.92447192906754,
                27.899775008561807
              ],
              [
                86.92437031691571,
                27.899774952848293
              ],
              [
                86.924370379681,
                27.89968467863011
              ],
              [
                86.924268767619,
                27.89968462283575
              ]
            ]
          ],
          [
            [
              [
                86.92122079811625,
                27.899141268868092
              ],
              [
                86.92122073273686,
                27.899231543086277
              ],
              [
                86.92132234436767,
                27.899231601126427
              ],
              [
                86.92132227907811,
                27.899321875335627
              ],
              [
                86.92152550251939,
                27.89932199120033
              ],
              [
                86.921525697876,
                27.899051168554763
              ],
              [
                86.92162730934513,
                27.899051226370336
              ],
              [
                86.92162724430709,
                27.89914150058852
              ],
              [
                86.92172885585705,
                27.899141558332225
              ],
              [
                86.92172911565882,
                27.89878046145949
              ],
              [
                86.92162750445021,
                27.898780403715783
              ],
              [
                86.92162756947926,
                27.8986901294976
              ],
              [
                86.92183079173476,
                27.898690244904163
              ],
              [
                86.92183066200906,
                27.898870793349516
              ],
              [
                86.92193227330748,
                27.898870850940508
              ],
              [
                86.92193220852099,
                27.898961125158692
              ],
              [
                86.92213543128852,
                27.898961240116098
              ],
              [
                86.92213549589536,
                27.898870965897917
              ],
              [
                86.92223710719378,
                27.89887102326433
              ],
              [
                86.92223717172875,
                27.898780749046146
              ],
              [
                86.92213556051118,
                27.898780691679733
              ],
              [
                86.92213568973384,
                27.89860014323438
              ],
              [
                86.92223730078074,
                27.898600200600793
              ],
              [
                86.92223736530671,
                27.898509926373627
              ],
              [
                86.92264380915296,
                27.898510155093682
              ],
              [
                86.92264387334657,
                27.898419880866516
              ],
              [
                86.92274548422279,
                27.898419937855635
              ],
              [
                86.92274567654312,
                27.898149115174135
              ],
              [
                86.92264406591842,
                27.898149058185012
              ],
              [
                86.92264413010305,
                27.898058783957847
              ],
              [
                86.92284735119074,
                27.898058897864225
              ],
              [
                86.9228472871678,
                27.89814917209139
              ],
              [
                86.9229488977925,
                27.8981492289278
              ],
              [
                86.92294908960078,
                27.897878406237314
              ],
              [
                86.9231523103471,
                27.897878519694537
              ],
              [
                86.92315224657571,
                27.897968793921702
              ],
              [
                86.9234570779557,
                27.89796896355058
              ],
              [
                86.92345695092494,
                27.898149512013894
              ],
              [
                86.92305050841719,
                27.898149285701326
              ],
              [
                86.92305044456494,
                27.89823955992849
              ],
              [
                86.92284722314487,
                27.89823944631856
              ],
              [
                86.92284709509902,
                27.898419994772894
              ],
              [
                86.92305031686044,
                27.898420108382826
              ],
              [
                86.9230503807127,
                27.89832983415566
              ],
              [
                86.92315199150806,
                27.898329890848338
              ],
              [
                86.92315186396526,
                27.898510439302672
              ],
              [
                86.92345669686341,
                27.898510608931545
              ],
              [
                86.92345663334355,
                27.89860088314973
              ],
              [
                86.92325341124975,
                27.898600770141666
              ],
              [
                86.92325334755918,
                27.898691044368835
              ],
              [
                86.9228469030392,
                27.89869081744541
              ],
              [
                86.92284683901627,
                27.89878109167258
              ],
              [
                86.92264361658111,
                27.8987809777662
              ],
              [
                86.92264368077473,
                27.89869070353903
              ],
              [
                86.92254206964698,
                27.898690646478045
              ],
              [
                86.92254200536354,
                27.89878092069623
              ],
              [
                86.92244039415493,
                27.898780863554396
              ],
              [
                86.92244032979065,
                27.898871137772577
              ],
              [
                86.92274516368593,
                27.898871308973504
              ],
              [
                86.92274503546939,
                27.899051857409873
              ],
              [
                86.92264342400927,
                27.89905180042075
              ],
              [
                86.9226434881939,
                27.89896152620257
              ],
              [
                86.9222370426678,
                27.898961297482515
              ],
              [
                86.92223691360684,
                27.89914184591888
              ],
              [
                86.9223385251568,
                27.89914190321343
              ],
              [
                86.92233846071166,
                27.899232177422633
              ],
              [
                86.92244007235145,
                27.899232234645314
              ],
              [
                86.92244000798716,
                27.899322508854514
              ],
              [
                86.92264323142844,
                27.899322623066322
              ],
              [
                86.92264329562205,
                27.89923234885712
              ],
              [
                86.92274490725285,
                27.89923240584624
              ],
              [
                86.92274497136562,
                27.899142131628057
              ],
              [
                86.92284658291557,
                27.899142188545312
              ],
              [
                86.92284651889264,
                27.899232462763496
              ],
              [
                86.92315135380302,
                27.899232633075094
              ],
              [
                86.92315141757443,
                27.89914235885691
              ],
              [
                86.92345625224226,
                27.899142528485783
              ],
              [
                86.92345606168264,
                27.89941335113135
              ],
              [
                86.9236592852946,
                27.899413463851953
              ],
              [
                86.92365934865278,
                27.89932318963377
              ],
              [
                86.92355773692316,
                27.8993231333094
              ],
              [
                86.92355780036218,
                27.899232859100202
              ],
              [
                86.92376102364176,
                27.899232971659107
              ],
              [
                86.92376096037341,
                27.89932324587729
              ],
              [
                86.92386257209405,
                27.899323302048945
              ],
              [
                86.92386238254953,
                27.899594124694513
              ],
              [
                86.92376077057736,
                27.89959406852286
              ],
              [
                86.92376070730901,
                27.89968434273206
              ],
              [
                86.92386231937101,
                27.899684398903716
              ],
              [
                86.92386225618351,
                27.899774673112915
              ],
              [
                86.92406548047819,
                27.899774785231646
              ],
              [
                86.924065543495,
                27.899684511022446
              ],
              [
                86.924268767619,
                27.89968462283575
              ],
              [
                86.92426864192673,
                27.899865171263134
              ],
              [
                86.92416702969405,
                27.89986511538792
              ],
              [
                86.92416696676706,
                27.899955389597125
              ],
              [
                86.92396374213104,
                27.899955277631108
              ],
              [
                86.92396367903336,
                27.900045551840307
              ],
              [
                86.92386206663899,
                27.900045495740518
              ],
              [
                86.92386212981751,
                27.899955221531318
              ],
              [
                86.92365890519045,
                27.899955109116142
              ],
              [
                86.92365896853964,
                27.899864834906943
              ],
              [
                86.92355735631595,
                27.899864778591557
              ],
              [
                86.92355754662405,
                27.89959395595497
              ],
              [
                86.92335432267073,
                27.89959384309064
              ],
              [
                86.92335406824988,
                27.89995493992744
              ],
              [
                86.92325245593635,
                27.899954883387476
              ],
              [
                86.9232523922458,
                27.900045157587694
              ],
              [
                86.92304916745705,
                27.900045044274204
              ],
              [
                86.92304910359582,
                27.900135318483407
              ],
              [
                86.92294749111161,
                27.90013526170988
              ],
              [
                86.9229475550537,
                27.900044987509663
              ],
              [
                86.92284594265932,
                27.900044930664272
              ],
              [
                86.92284581460447,
                27.900225479064705
              ],
              [
                86.92294742716953,
                27.9002255359101
              ],
              [
                86.92294736322745,
                27.9003158101193
              ],
              [
                86.92284575058154,
                27.900315753273908
              ],
              [
                86.92284568654964,
                27.900406027474126
              ],
              [
                86.9227440738139,
                27.900405970547887
              ],
              [
                86.92274400970113,
                27.900496244748105
              ],
              [
                86.92264239688456,
                27.900496187749997
              ],
              [
                86.92264233269094,
                27.900586461950216
              ],
              [
                86.92254071978454,
                27.900586404880247
              ],
              [
                86.92254059122664,
                27.9007669532717
              ],
              [
                86.92213413894521,
                27.900766724237233
              ],
              [
                86.92213407432939,
                27.900856998428466
              ],
              [
                86.92193084802248,
                27.90085688346208
              ],
              [
                86.92193097759548,
                27.900676335070624
              ],
              [
                86.92203259058275,
                27.900676392598736
              ],
              [
                86.92203265528839,
                27.900586118398518
              ],
              [
                86.92182942948455,
                27.900586003279415
              ],
              [
                86.92182949436088,
                27.90049572908818
              ],
              [
                86.9217278815443,
                27.90049567141634
              ],
              [
                86.92172794650148,
                27.900405397216122
              ],
              [
                86.92152472103899,
                27.90040528164786
              ],
              [
                86.92152478616684,
                27.900315007456626
              ],
              [
                86.92142317352095,
                27.900314949560205
              ],
              [
                86.92142330393835,
                27.90013440115977
              ],
              [
                86.92152491641359,
                27.90013445905619
              ],
              [
                86.9215248512947,
                27.900224733256408
              ],
              [
                86.9218296889719,
                27.900224906487527
              ],
              [
                86.92182988358293,
                27.89995408387789
              ],
              [
                86.92172827127838,
                27.899954026215035
              ],
              [
                86.92172833623556,
                27.89986375200583
              ],
              [
                86.92162672401187,
                27.899863694262127
              ],
              [
                86.9216267890499,
                27.89977342006191
              ],
              [
                86.92152517690705,
                27.899773362237354
              ],
              [
                86.92152543739154,
                27.899412265409534
              ],
              [
                86.92132221378856,
                27.89941214954483
              ],
              [
                86.921322148499,
                27.89950242375403
              ],
              [
                86.92122053661667,
                27.89950236571388
              ],
              [
                86.92122060198707,
                27.89941209150468
              ],
              [
                86.92101737839309,
                27.899411975190816
              ],
              [
                86.92101757501634,
                27.899141152563214
              ],
              [
                86.92122079811625,
                27.899141268868092
              ]
            ],
            [
              [
                86.92254091263486,
                27.900315582279593
              ],
              [
                86.92254104119276,
                27.900135033879156
              ],
              [
                86.92264265367696,
                27.900135090949128
              ],
              [
                86.92264252528075,
                27.900315639349564
              ],
              [
                86.92254091263486,
                27.900315582279593
              ]
            ],
            [
              [
                86.92243923561568,
                27.900405799337975
              ],
              [
                86.92254084835142,
                27.90040585647981
              ],
              [
                86.92254078406798,
                27.90049613068003
              ],
              [
                86.92243917125138,
                27.900496073538193
              ],
              [
                86.92243923561568,
                27.900405799337975
              ]
            ],
            [
              [
                86.92223613922313,
                27.900225136420307
              ],
              [
                86.92223626829308,
                27.90004458801089
              ],
              [
                86.92193143110995,
                27.900044415678085
              ],
              [
                86.92193149589644,
                27.899954141477867
              ],
              [
                86.92203310820099,
                27.899954198996994
              ],
              [
                86.92203323760332,
                27.899773650587576
              ],
              [
                86.9218300133266,
                27.899773535468473
              ],
              [
                86.92183007819395,
                27.899683261268255
              ],
              [
                86.92162685408792,
                27.89968314585271
              ],
              [
                86.92162691912594,
                27.899592871643506
              ],
              [
                86.92172853108913,
                27.899592929387214
              ],
              [
                86.92172859604631,
                27.89950265517801
              ],
              [
                86.92183020792864,
                27.899502712849852
              ],
              [
                86.92183027280497,
                27.89941243863167
              ],
              [
                86.92203349640795,
                27.899412553750775
              ],
              [
                86.92203356110461,
                27.89932227953259
              ],
              [
                86.92213517282525,
                27.899322336979854
              ],
              [
                86.92213523744107,
                27.89923206276167
              ],
              [
                86.92223684907187,
                27.899232120128083
              ],
              [
                86.92223672001091,
                27.899412668555467
              ],
              [
                86.92233833182138,
                27.899412725850016
              ],
              [
                86.92233826737625,
                27.899503000059216
              ],
              [
                86.9225414911499,
                27.899503114423734
              ],
              [
                86.922541362592,
                27.89968366285112
              ],
              [
                86.922642974654,
                27.899683719912108
              ],
              [
                86.92264303884761,
                27.899593445702905
              ],
              [
                86.92274465081977,
                27.89959350270101
              ],
              [
                86.92274471493253,
                27.89950322849181
              ],
              [
                86.92294793870619,
                27.89950334225446
              ],
              [
                86.92294806659035,
                27.89932279382707
              ],
              [
                86.92304967831099,
                27.899322850591616
              ],
              [
                86.92304961445873,
                27.8994131248098
              ],
              [
                86.92315122626022,
                27.899413181502478
              ],
              [
                86.92315116248882,
                27.899503455711677
              ],
              [
                86.92325277438013,
                27.89950351233249
              ],
              [
                86.92325271068958,
                27.899593786550675
              ],
              [
                86.92315109871741,
                27.89959372992986
              ],
              [
                86.92315090739423,
                27.899864552557464
              ],
              [
                86.92274445849047,
                27.899864325328615
              ],
              [
                86.92274452259424,
                27.89977405111941
              ],
              [
                86.9226429104514,
                27.899773994121308
              ],
              [
                86.92264278206419,
                27.89995454253971
              ],
              [
                86.92254116975066,
                27.89995448546974
              ],
              [
                86.9225411054762,
                27.900044759669957
              ],
              [
                86.92233788068745,
                27.90004464530544
              ],
              [
                86.92233775178819,
                27.900225193714856
              ],
              [
                86.92223613922313,
                27.900225136420307
              ]
            ],
            [
              [
                86.92203265528839,
                27.900586118398518
              ],
              [
                86.92203278469071,
                27.900405570007067
              ],
              [
                86.92193117196396,
                27.90040551248794
              ],
              [
                86.92193123675045,
                27.90031523828772
              ],
              [
                86.92203284939636,
                27.90031529580685
              ],
              [
                86.922032914102,
                27.90022502160663
              ],
              [
                86.92223613922313,
                27.900225136420307
              ],
              [
                86.92223607468816,
                27.900315410620525
              ],
              [
                86.92243929997997,
                27.900315525137756
              ],
              [
                86.92243923561568,
                27.900405799337975
              ],
              [
                86.92233762288893,
                27.900405742115293
              ],
              [
                86.92233749398967,
                27.900586290515726
              ],
              [
                86.92203265528839,
                27.900586118398518
              ]
            ]
          ],
          [
            [
              [
                86.9235572294379,
                27.900045327000974
              ],
              [
                86.92355716599887,
                27.900135601210174
              ],
              [
                86.92345555352365,
                27.900135544813942
              ],
              [
                86.92345561704353,
                27.900045270604743
              ],
              [
                86.9235572294379,
                27.900045327000974
              ]
            ]
          ],
          [
            [
              [
                86.92365890519045,
                27.899955109116142
              ],
              [
                86.92365884184126,
                27.90004538332534
              ],
              [
                86.9235572294379,
                27.900045327000974
              ],
              [
                86.92355729287692,
                27.899955052800756
              ],
              [
                86.92365890519045,
                27.899955109116142
              ]
            ]
          ]
        ]
      },
      "id": "+7044+4664",
      "properties": {
        "area_m2": 30872.311631636738,
        "count": 308,
        "image_id": "COPERNICUS/S1_GRD/S1A_IW_GRDH_1SDV_20251207T121353_20251207T121418_062209_07C996_4818",
        "lake_id": "imja-tsho",
        "observed_at": "2025-12-07T12:13:53Z",
        "water": 1
      }
    }
  ]
}
