{
  "type": "FeatureCollection",
  "features": [
    {
      "type": "Feature",
      "geometry": {
        "geodesic": false,
        "type": "MultiPolygon",
        "coordinates": [
          [
            [
              [
                86.91946779750863,
                27.899551919668543
              ],
              [
                86.91936618558138,
                27.89955186025397
              ],
              [
                86.91936631940341,
                27.89937131184455
              ],
              [
                86.91926470764685,
                27.899371252367096
              ],
              [
                86.9192647746432,
                27.899280978157897
              ],
              [
                86.91916316296748,
                27.899280918599594
              ],
              [
                86.91916323005366,
                27.89919064439039
              ],
              [
                86.91926484163955,
                27.899190703948694
              ],
              [
                86.91926497563226,
                27.89901015553029
              ],
              [
                86.91936658705644,
                27.89901021500775
              ],
              [
                86.91936652014094,
                27.899100489225933
              ],
              [
                86.91946813164598,
                27.899100548631523
              ],
              [
                86.91946819848064,
                27.89901027442232
              ],
              [
                86.91956980989585,
                27.899010333756046
              ],
              [
                86.91956987664068,
                27.89892005953786
              ],
              [
                86.91967148797504,
                27.898920118799722
              ],
              [
                86.91967182126798,
                27.898468747717786
              ],
              [
                86.9194685994347,
                27.898468629131184
              ],
              [
                86.91946853260902,
                27.898558903349368
              ],
              [
                86.91936692160702,
                27.89855884394378
              ],
              [
                86.91936712233557,
                27.898288021289225
              ],
              [
                86.91946873308603,
                27.898288080694815
              ],
              [
                86.91946879991171,
                27.89819780646765
              ],
              [
                86.91957041057233,
                27.89819786580137
              ],
              [
                86.91957047731717,
                27.898107591583187
              ],
              [
                86.91967208788796,
                27.898107650836064
              ],
              [
                86.91967195457796,
                27.898288199281417
              ],
              [
                86.91987517607888,
                27.898288317571573
              ],
              [
                86.9198752425632,
                27.898198043344404
              ],
              [
                86.91997685322382,
                27.898198102381688
              ],
              [
                86.91997665401342,
                27.898468925045222
              ],
              [
                86.91977343218014,
                27.89846880690778
              ],
              [
                86.91977323246668,
                27.898739629553347
              ],
              [
                86.91987484363037,
                27.89873968866249
              ],
              [
                86.91987464416843,
                27.899010511308063
              ],
              [
                86.91967142132005,
                27.899010393008922
              ],
              [
                86.91967122134608,
                27.89928121564551
              ],
              [
                86.91956960967036,
                27.899281156383648
              ],
              [
                86.91956947618071,
                27.89946170480205
              ],
              [
                86.91946786433431,
                27.899461645459343
              ],
              [
                86.91946779750863,
                27.899551919668543
              ]
            ]
          ],
          [
            [
              [
                86.91997506023142,
                27.900635505976208
              ],
              [
                86.91997492740653,
                27.900816054349693
              ],
              [
                86.91987331430249,
                27.900815995312414
              ],
              [
                86.91987344728908,
                27.900635446938928
              ],
              [
                86.91997506023142,
                27.900635505976208
              ]
            ]
          ],
          [
            [
              [
                86.92007707112745,
                27.90009391976727
              ],
              [
                86.92017868356673,
                27.900093978651835
              ],
              [
                86.92017861732496,
                27.900184252852053
              ],
              [
                86.92007700480482,
                27.900184193967487
              ],
              [
                86.92007707112745,
                27.90009391976727
              ]
            ]
          ],
          [
            [
              [
                86.92028128831204,
                27.89873992434449
              ],
              [
                86.92017967713937,
                27.898739865540772
              ],
              [
                86.92017980961393,
                27.898559317104404
              ],
              [
                86.92007819861195,
                27.898559258219837
              ],
              [
                86.92007833124819,
                27.89837870978347
              ],
              [
                86.92028155291979,
                27.898378827471756
              ],
              [
                86.92028161907173,
                27.898288553253572
              ],
              [
                86.92048484056366,
                27.89828867063643
              ],
              [
                86.92048464261988,
                27.898559493299963
              ],
              [
                86.9203830316179,
                27.89855943464896
              ],
              [
                86.92038296555579,
                27.898649708867143
              ],
              [
                86.92028135446398,
                27.898649650126305
              ],
              [
                86.92028128831204,
                27.89873992434449
              ]
            ]
          ],
          [
            [
              [
                86.92078908124746,
                27.899101314130892
              ],
              [
                86.92068746974242,
                27.89910125569548
              ],
              [
                86.92068766718315,
                27.898830433049913
              ],
              [
                86.92078927843666,
                27.898830491485324
              ],
              [
                86.92078908124746,
                27.899101314130892
              ]
            ]
          ],
          [
            [
              [
                86.92150049210136,
                27.89892117264033
              ],
              [
                86.92119565808031,
                27.89892099869056
              ],
              [
                86.92119585425439,
                27.898650176036007
              ],
              [
                86.92139907643804,
                27.898650292080376
              ],
              [
                86.92139894598468,
                27.898830840516744
              ],
              [
                86.92150055724719,
                27.89883089843113
              ],
              [
                86.92150049210136,
                27.89892117264033
              ]
            ]
          ],
          [
            [
              [
                86.92210899669043,
                27.900546454266312
              ],
              [
                86.9222106095609,
                27.900546511659677
              ],
              [
                86.92221054499898,
                27.900636785859895
              ],
              [
                86.92210893205663,
                27.90063672846653
              ],
              [
                86.92210899669043,
                27.900546454266312
              ]
            ]
          ],
          [
            [
              [
                86.91967048806929,
                27.90027423186587
              ],
              [
                86.91946726286731,
                27.9002741132613
              ],
              [
                86.91946719603266,
                27.90036438746152
              ],
              [
                86.91936558334183,
                27.900364328046944
              ],
              [
                86.91936544951082,
                27.900544876429414
              ],
              [
                86.9191622238058,
                27.900544757384672
              ],
              [
                86.91916235797817,
                27.90036420899322
              ],
              [
                86.91895913260551,
                27.900364089652037
              ],
              [
                86.91895919986237,
                27.90027381545182
              ],
              [
                86.91906081246336,
                27.900273875171816
              ],
              [
                86.9190608796304,
                27.9001836009716
              ],
              [
                86.91926410466169,
                27.900183720169057
              ],
              [
                86.91926417165804,
                27.90009344597782
              ],
              [
                86.91936578409734,
                27.90009350546426
              ],
              [
                86.91936571718183,
                27.900183779655492
              ],
              [
                86.91967055473326,
                27.90018395766565
              ],
              [
                86.91967048806929,
                27.90027423186587
              ]
            ]
          ],
          [
            [
              [
                86.91946779750863,
                27.899551919668543
              ],
              [
                86.91956940943588,
                27.89955197900227
              ],
              [
                86.91956934269106,
                27.899642253202487
              ],
              [
                86.91967095469916,
                27.899642312464344
              ],
              [
                86.91967082138018,
                27.899822860873762
              ],
              [
                86.91977243355896,
                27.899822920054774
              ],
              [
                86.9197725001331,
                27.899732645854556
              ],
              [
                86.91987411223104,
                27.8997327049637
              ],
              [
                86.91987424521763,
                27.899552156554282
              ],
              [
                86.91977263329038,
                27.899552097445138
              ],
              [
                86.91977289959596,
                27.899191000617318
              ],
              [
                86.92048418073311,
                27.899191412809284
              ],
              [
                86.92048437868587,
                27.8989205901727
              ],
              [
                86.92058599002921,
                27.89892064876082
              ],
              [
                86.92058572642757,
                27.899281745606608
              ],
              [
                86.9206873381033,
                27.899281804113883
              ],
              [
                86.92068720647316,
                27.899462352532286
              ],
              [
                86.92058559462676,
                27.89946229402501
              ],
              [
                86.92058566052717,
                27.89937201981581
              ],
              [
                86.92028082523949,
                27.899371843835844
              ],
              [
                86.92028069293562,
                27.899552392254247
              ],
              [
                86.92038230486287,
                27.8995524509861
              ],
              [
                86.92038217272069,
                27.899732999395518
              ],
              [
                86.92048378481861,
                27.899733058055507
              ],
              [
                86.92048365284712,
                27.899913606464924
              ],
              [
                86.92058526511573,
                27.89991366505305
              ],
              [
                86.92058519921532,
                27.900003939253267
              ],
              [
                86.92068681156478,
                27.90000399776054
              ],
              [
                86.92068700902347,
                27.899733175150903
              ],
              [
                86.92058539691655,
                27.89973311664363
              ],
              [
                86.92058552872635,
                27.89955256823421
              ],
              [
                86.92078875258983,
                27.899552685176896
              ],
              [
                86.92078868685113,
                27.899642959386096
              ],
              [
                86.92099191088529,
                27.899643076032337
              ],
              [
                86.9209917797582,
                27.899823624441755
              ],
              [
                86.92089016757045,
                27.899823566159057
              ],
              [
                86.92089010192156,
                27.899913840359275
              ],
              [
                86.921296550996,
                27.899914073058866
              ],
              [
                86.92129648568847,
                27.900004347259085
              ],
              [
                86.92139809803794,
                27.900004405254318
              ],
              [
                86.92139803281127,
                27.900094679454536
              ],
              [
                86.92149964525055,
                27.900094737368924
              ],
              [
                86.9214997755422,
                27.899914188959507
              ],
              [
                86.92160138781081,
                27.899914246802027
              ],
              [
                86.92160158298778,
                27.899643424183406
              ],
              [
                86.92180480702194,
                27.899643539625906
              ],
              [
                86.92180474213663,
                27.899733813835105
              ],
              [
                86.92190635423455,
                27.899733871453048
              ],
              [
                86.92190641903902,
                27.89964359724385
              ],
              [
                86.92210964308217,
                27.899643712237186
              ],
              [
                86.92210977234973,
                27.899463163818783
              ],
              [
                86.9223129960605,
                27.89946327851568
              ],
              [
                86.9223130605236,
                27.89937300430648
              ],
              [
                86.92241467228916,
                27.89937306154713
              ],
              [
                86.92241473667141,
                27.899282787328946
              ],
              [
                86.92251634835613,
                27.899282844488745
              ],
              [
                86.92251621976229,
                27.899463392916132
              ],
              [
                86.92261783160869,
                27.899463450004067
              ],
              [
                86.92261789582925,
                27.899373175794867
              ],
              [
                86.9227195075948,
                27.899373232801956
              ],
              [
                86.92271957172554,
                27.899282958592753
              ],
              [
                86.92282118341024,
                27.899283015527978
              ],
              [
                86.92282131150101,
                27.89910246710059
              ],
              [
                86.92261808847296,
                27.8991023531493
              ],
              [
                86.9226180242524,
                27.899192627367484
              ],
              [
                86.92251641265753,
                27.899192570279546
              ],
              [
                86.92251647694995,
                27.89910229606136
              ],
              [
                86.92231325392191,
                27.89910218166091
              ],
              [
                86.9223131894588,
                27.899192455879096
              ],
              [
                86.92221157786393,
                27.89919239856658
              ],
              [
                86.92221144875806,
                27.899372946993964
              ],
              [
                86.92170338993029,
                27.899372659308494
              ],
              [
                86.92170345489644,
                27.899282385099294
              ],
              [
                86.92150023153603,
                27.899282269504084
              ],
              [
                86.92149997097069,
                27.899643366340886
              ],
              [
                86.92139835895361,
                27.899643308426498
              ],
              [
                86.92139829372694,
                27.8997335826357
              ],
              [
                86.9211950695221,
                27.899733466591332
              ],
              [
                86.92119526570517,
                27.89946264396373
              ],
              [
                86.92129687756055,
                27.899462702030828
              ],
              [
                86.92129694286808,
                27.89937242782163
              ],
              [
                86.92139855463363,
                27.89937248580788
              ],
              [
                86.92139868508697,
                27.899191937380497
              ],
              [
                86.92150029668184,
                27.8991919952859
              ],
              [
                86.92150049210136,
                27.89892117264033
              ],
              [
                86.92170371478805,
                27.898921288244523
              ],
              [
                86.92170384473833,
                27.898740739799173
              ],
              [
                86.921805455911,
                27.89874079748898
              ],
              [
                86.92180578033756,
                27.89828942637111
              ],
              [
                86.92200900184746,
                27.898289541517165
              ],
              [
                86.92200919600035,
                27.89801871883566
              ],
              [
                86.92211080649928,
                27.89801877629191
              ],
              [
                86.92211067724068,
                27.898199324746244
              ],
              [
                86.9223138985799,
                27.89819943944314
              ],
              [
                86.92231383411679,
                27.898289713670305
              ],
              [
                86.92272027713659,
                27.898289942156797
              ],
              [
                86.92272034126732,
                27.89819966792963
              ],
              [
                86.92261873058872,
                27.898199610922543
              ],
              [
                86.9226187948003,
                27.898109336686392
              ],
              [
                86.92251718421154,
                27.89810927960744
              ],
              [
                86.92251724851296,
                27.89801900537129
              ],
              [
                86.92261885901188,
                27.898019062459227
              ],
              [
                86.92261892322345,
                27.897928788223076
              ],
              [
                86.92272053364154,
                27.897928845239147
              ],
              [
                86.92272066189402,
                27.897748296766846
              ],
              [
                86.9229238823978,
                27.897748410556442
              ],
              [
                86.92292381843775,
                27.897838684792593
              ],
              [
                86.92282220810051,
                27.897838627938217
              ],
              [
                86.92282208001872,
                27.898019176401537
              ],
              [
                86.92292369052663,
                27.898019233264893
              ],
              [
                86.92292343469542,
                27.898380330182544
              ],
              [
                86.923126656376,
                27.8983804436757
              ],
              [
                86.92312672016537,
                27.89829016944853
              ],
              [
                86.92332994168426,
                27.89829028264524
              ],
              [
                86.92333000530294,
                27.89820000840909
              ],
              [
                86.92343161597255,
                27.898200064895153
              ],
              [
                86.92343167951039,
                27.898109790667988
              ],
              [
                86.92333006892163,
                27.898109734181922
              ],
              [
                86.923330196159,
                27.897929185718606
              ],
              [
                86.92343180658607,
                27.897929242204672
              ],
              [
                86.92343174304823,
                27.898019516431837
              ],
              [
                86.92353335355614,
                27.89801957284604
              ],
              [
                86.92353329009914,
                27.898109847073204
              ],
              [
                86.92373651128565,
                27.89810995966804
              ],
              [
                86.92373644799935,
                27.89820023390419
              ],
              [
                86.92363483732075,
                27.898200177642707
              ],
              [
                86.92363464721927,
                27.898471000333192
              ],
              [
                86.92373625814939,
                27.898471056594676
              ],
              [
                86.92373619486308,
                27.898561330821845
              ],
              [
                86.92343136183017,
                27.898561161812808
              ],
              [
                86.92343129829233,
                27.898651436030992
              ],
              [
                86.92353290938415,
                27.89865149244519
              ],
              [
                86.92353278247914,
                27.898832040890543
              ],
              [
                86.92363439374165,
                27.898832097232876
              ],
              [
                86.92363426700733,
                27.899012645678226
              ],
              [
                86.9237358784405,
                27.899012701939714
              ],
              [
                86.92373575186788,
                27.899193250376083
              ],
              [
                86.92393897507559,
                27.899193362674474
              ],
              [
                86.92393922753811,
                27.898832265792755
              ],
              [
                86.9240408388096,
                27.898832321829662
              ],
              [
                86.9240409018354,
                27.898742047602497
              ],
              [
                86.92414251301705,
                27.89874210356754
              ],
              [
                86.92414276480584,
                27.89838100665887
              ],
              [
                86.92434598650438,
                27.898381118355392
              ],
              [
                86.92434586094686,
                27.898561666809726
              ],
              [
                86.92444747195782,
                27.89856172255019
              ],
              [
                86.9244474092644,
                27.898651996777357
              ],
              [
                86.9243457981636,
                27.898651941036892
              ],
              [
                86.92434567260607,
                27.898832489491227
              ],
              [
                86.92444728387756,
                27.89883254523169
              ],
              [
                86.92444715848173,
                27.89901309367704
              ],
              [
                86.92434554704855,
                27.89901303793658
              ],
              [
                86.92434560982282,
                27.898922763718396
              ],
              [
                86.92414238712715,
                27.89892265201289
              ],
              [
                86.92414207237543,
                27.89937402311279
              ],
              [
                86.92424368414997,
                27.899374078996985
              ],
              [
                86.92424362128587,
                27.89946435321517
              ],
              [
                86.92414200943048,
                27.899464297330976
              ],
              [
                86.92414194647655,
                27.899554571540175
              ],
              [
                86.9239387225951,
                27.899554459538226
              ],
              [
                86.92393865947946,
                27.89964473375641
              ],
              [
                86.92373543542733,
                27.899644621449035
              ],
              [
                86.92373549871365,
                27.899554347239835
              ],
              [
                86.92363388677741,
                27.899554290978347
              ],
              [
                86.92363369665797,
                27.89982511360595
              ],
              [
                86.9233288600857,
                27.89982494436335
              ],
              [
                86.92332879645802,
                27.899915218572552
              ],
              [
                86.92322718418043,
                27.899915162014622
              ],
              [
                86.92322724788896,
                27.89982488780542
              ],
              [
                86.92302402351343,
                27.899824774447016
              ],
              [
                86.92302389575504,
                27.900005322865415
              ],
              [
                86.92312550811347,
                27.90000537957606
              ],
              [
                86.92312538051677,
                27.90018592798548
              ],
              [
                86.92302376799664,
                27.900185871274836
              ],
              [
                86.92302357635005,
                27.900456693884472
              ],
              [
                86.92292196356941,
                27.90045663709298
              ],
              [
                86.92292209149848,
                27.900276088692543
              ],
              [
                86.92282047888851,
                27.9002760318202
              ],
              [
                86.9228205429384,
                27.900185757619983
              ],
              [
                86.92261731788015,
                27.900185643668692
              ],
              [
                86.92261744632127,
                27.90000509525927
              ],
              [
                86.92241422160438,
                27.900004981011534
              ],
              [
                86.92241441476014,
                27.899734158383932
              ],
              [
                86.92231280265322,
                27.899734101152266
              ],
              [
                86.92231286711633,
                27.899643826943066
              ],
              [
                86.92221125509924,
                27.89964376963055
              ],
              [
                86.9222111905463,
                27.89973404383975
              ],
              [
                86.92200796634147,
                27.89973392899014
              ],
              [
                86.92200790161785,
                27.89982420319036
              ],
              [
                86.92210951380561,
                27.89982426065559
              ],
              [
                86.92210944917183,
                27.899914534864788
              ],
              [
                86.92221106144044,
                27.899914592249168
              ],
              [
                86.9222109968875,
                27.90000486645837
              ],
              [
                86.92231260924595,
                27.900004923770886
              ],
              [
                86.92231254477386,
                27.9000951979711
              ],
              [
                86.92221093233456,
                27.90009514065859
              ],
              [
                86.92221086778163,
                27.900185414858804
              ],
              [
                86.92251570536001,
                27.900185586580754
              ],
              [
                86.92251557674821,
                27.90036613498119
              ],
              [
                86.92210912597595,
                27.90036590587486
              ],
              [
                86.92210899669043,
                27.900546454266312
              ],
              [
                86.92190577096743,
                27.90054633926399
              ],
              [
                86.92190570616296,
                27.900636613464208
              ],
              [
                86.92170248026929,
                27.90063649815646
              ],
              [
                86.92170254524443,
                27.90054622396522
              ],
              [
                86.92160093238293,
                27.900546166194566
              ],
              [
                86.92160099744791,
                27.900455892003333
              ],
              [
                86.92149938466726,
                27.900455834160812
              ],
              [
                86.92149944981308,
                27.900365559960594
              ],
              [
                86.92139783712226,
                27.90036550205519
              ],
              [
                86.92139790234893,
                27.900275227854973
              ],
              [
                86.92119467713798,
                27.900275111801623
              ],
              [
                86.92119461174063,
                27.900365386001837
              ],
              [
                86.92129622443144,
                27.900365444059954
              ],
              [
                86.92129602849091,
                27.900636266651624
              ],
              [
                86.92139764143326,
                27.900636324637876
              ],
              [
                86.9213975761976,
                27.900726598829113
              ],
              [
                86.92149918922978,
                27.900726656743498
              ],
              [
                86.92149912408397,
                27.900816930943716
              ],
              [
                86.9212958978579,
                27.900816815034094
              ],
              [
                86.9212958325414,
                27.900907089225328
              ],
              [
                86.92119421934753,
                27.90090703115823
              ],
              [
                86.92119435014223,
                27.90072648277576
              ],
              [
                86.92109273711904,
                27.900726424636794
              ],
              [
                86.92109286808443,
                27.900545876254327
              ],
              [
                86.92088964236143,
                27.900545759751818
              ],
              [
                86.9208894454058,
                27.900816582325522
              ],
              [
                86.92099105851882,
                27.900816640617197
              ],
              [
                86.92099099295079,
                27.900906914808434
              ],
              [
                86.9206861533602,
                27.9009067397178
              ],
              [
                86.92068621917974,
                27.900816465526567
              ],
              [
                86.92027976673663,
                27.900816231021363
              ],
              [
                86.92027983289755,
                27.900725956830126
              ],
              [
                86.92017821987436,
                27.900725898017427
              ],
              [
                86.92017828611613,
                27.90063562382619
              ],
              [
                86.91997506023142,
                27.900635505976208
              ],
              [
                86.91997519305633,
                27.900454957584756
              ],
              [
                86.919771967513,
                27.900454839438332
              ],
              [
                86.91977190092986,
                27.900545113629565
              ],
              [
                86.91967028807736,
                27.900545054439572
              ],
              [
                86.91967048806929,
                27.90027423186587
              ],
              [
                86.91977210067027,
                27.90027429104688
              ],
              [
                86.91977203408715,
                27.900364565247095
              ],
              [
                86.92007687215062,
                27.90036474235894
              ],
              [
                86.92007680582799,
                27.900455016550172
              ],
              [
                86.92017841859966,
                27.90045507543474
              ],
              [
                86.9201783523579,
                27.900545349634957
              ],
              [
                86.9202799652194,
                27.90054540844766
              ],
              [
                86.92028036215797,
                27.90000376326432
              ],
              [
                86.92038197450742,
                27.900003822005154
              ],
              [
                86.9203821066496,
                27.899823273595736
              ],
              [
                86.92017888228305,
                27.89982315605118
              ],
              [
                86.92017894852484,
                27.899732881850966
              ],
              [
                86.91997572432896,
                27.899732764000984
              ],
              [
                86.9199756579255,
                27.8998230382012
              ],
              [
                86.92007727010429,
                27.899823097166614
              ],
              [
                86.92007707112745,
                27.90009391976727
              ],
              [
                86.91997545869714,
                27.900093860801853
              ],
              [
                86.91997552510061,
                27.900003586601635
              ],
              [
                86.91987391275114,
                27.900003527573336
              ],
              [
                86.91987397924444,
                27.89991325337312
              ],
              [
                86.91977236698482,
                27.899913194254992
              ],
              [
                86.91977223382754,
                27.900093742655425
              ],
              [
                86.91956900895795,
                27.900093624212555
              ],
              [
                86.91956907570277,
                27.900003350012337
              ],
              [
                86.91926423866339,
                27.900003171777602
              ],
              [
                86.91926437265609,
                27.89982262337717
              ],
              [
                86.91906114829854,
                27.899822504179713
              ],
              [
                86.91906121546556,
                27.899732229979495
              ],
              [
                86.91936605175037,
                27.89973240866339
              ],
              [
                86.91936611866588,
                27.89964213446317
              ],
              [
                86.91946773067397,
                27.89964219386876
              ],
              [
                86.91946779750863,
                27.899551919668543
              ]
            ],
            [
              [
                86.92068681156478,
                27.90000399776054
              ],
              [
                86.92089003627268,
                27.900004114559493
              ],
              [
                86.9208899706238,
                27.90009438875971
              ],
              [
                86.92068674574521,
                27.900094271960757
              ],
              [
                86.92068681156478,
                27.90000399776054
              ]
            ],
            [
              [
                86.92170371478805,
                27.898921288244523
              ],
              [
                86.92190693747473,
                27.898921403534306
              ],
              [
                86.92190674307032,
                27.89919222618886
              ],
              [
                86.9217035198716,
                27.89919211089009
              ],
              [
                86.92170371478805,
                27.898921288244523
              ]
            ],
            [
              [
                86.92231325392191,
                27.89910218166091
              ],
              [
                86.92221164240789,
                27.899102124348396
              ],
              [
                86.92221177151376,
                27.898921575921012
              ],
              [
                86.9223133828571,
                27.898921633224543
              ],
              [
                86.92231325392191,
                27.89910218166091
              ]
            ],
            [
              [
                86.92261783160869,
                27.899463450004067
              ],
              [
                86.92271944346408,
                27.89946350702014
              ],
              [
                86.92271937933334,
                27.89955378122934
              ],
              [
                86.92261776739711,
                27.89955372422225
              ],
              [
                86.92261783160869,
                27.899463450004067
              ]
            ],
            [
              [
                86.92302376799664,
                27.900185871274836
              ],
              [
                86.92292215546752,
                27.900185814483343
              ],
              [
                86.92292221942756,
                27.900095540283125
              ],
              [
                86.92302383187584,
                27.900095597074618
              ],
              [
                86.92302376799664,
                27.900185871274836
              ]
            ],
            [
              [
                86.92353278247914,
                27.898832040890543
              ],
              [
                86.92353265557415,
                27.899012589335893
              ],
              [
                86.92343104414097,
                27.89901253292169
              ],
              [
                86.92343117121665,
                27.898831984485323
              ],
              [
                86.92353278247914,
                27.898832040890543
              ]
            ],
            [
              [
                86.91997585714489,
                27.899552215591562
              ],
              [
                86.9199759899608,
                27.899371667182145
              ],
              [
                86.92017921348292,
                27.899371785023146
              ],
              [
                86.92017914724116,
                27.899462059232345
              ],
              [
                86.92007753539475,
                27.89946200034778
              ],
              [
                86.92007746907214,
                27.899552274556978
              ],
              [
                86.91997585714489,
                27.899552215591562
              ]
            ],
            [
              [
                86.92068641664741,
                27.900545642952864
              ],
              [
                86.92068648246698,
                27.900455368752645
              ],
              [
                86.92078809523863,
                27.900455427188056
              ],
              [
                86.92078802950891,
                27.90054570138827
              ],
              [
                86.92068641664741,
                27.900545642952864
              ]
            ],
            [
              [
                86.92180435278881,
                27.900275459054377
              ],
              [
                86.92180441767412,
                27.90018518485416
              ],
              [
                86.92190603020325,
                27.9001852424721
              ],
              [
                86.92190609500771,
                27.900094968271883
              ],
              [
                86.92210931989527,
                27.900095083274206
              ],
              [
                86.92210919060975,
                27.900275631674642
              ],
              [
                86.92200757799976,
                27.900275574209413
              ],
              [
                86.92200751327616,
                27.90036584840963
              ],
              [
                86.92190590058533,
                27.900365790872538
              ],
              [
                86.92190596539878,
                27.90027551667232
              ],
              [
                86.92180435278881,
                27.900275459054377
              ]
            ],
            [
              [
                86.9219070022792,
                27.898831129316125
              ],
              [
                86.92190706708367,
                27.89874085509794
              ],
              [
                86.92200867825633,
                27.898740912635034
              ],
              [
                86.92200861354169,
                27.89883118685322
              ],
              [
                86.9219070022792,
                27.898831129316125
              ]
            ],
            [
              [
                86.9229229869751,
                27.89901224973678
              ],
              [
                86.92292305093514,
                27.898921975518597
              ],
              [
                86.92302466228746,
                27.89892203231009
              ],
              [
                86.92302472615768,
                27.898831758082924
              ],
              [
                86.92312633742017,
                27.898831814793567
              ],
              [
                86.92312627363081,
                27.898922089020733
              ],
              [
                86.92322788498313,
                27.898922145659512
              ],
              [
                86.9232277575661,
                27.89910269409588
              ],
              [
                86.92312614605207,
                27.8991026374571
              ],
              [
                86.92312608225372,
                27.899192911675286
              ],
              [
                86.92302447065885,
                27.899192854964642
              ],
              [
                86.92302459840826,
                27.899012306528274
              ],
              [
                86.9229229869751,
                27.89901224973678
              ]
            ],
            [
              [
                86.92312569949955,
                27.89973455695744
              ],
              [
                86.92312582708726,
                27.899554008530057
              ],
              [
                86.92322743902349,
                27.899554065168836
              ],
              [
                86.92322750273202,
                27.899463790959633
              ],
              [
                86.9233291145874,
                27.899463847517563
              ],
              [
                86.92332892371337,
                27.89973467015415
              ],
              [
                86.92312569949955,
                27.89973455695744
              ]
            ],
            [
              [
                86.92353233829817,
                27.89946396042681
              ],
              [
                86.92353246520317,
                27.899283411990446
              ],
              [
                86.92363407689686,
                27.89928346833278
              ],
              [
                86.92363395015356,
                27.899464016760163
              ],
              [
                86.92353233829817,
                27.89946396042681
              ]
            ],
            [
              [
                86.92241512296496,
                27.898741142028825
              ],
              [
                86.92271995650091,
                27.89874131328365
              ],
              [
                86.92271982823947,
                27.89892186172002
              ],
              [
                86.92251660555277,
                27.898921747624993
              ],
              [
                86.9225166698452,
                27.89883147340681
              ],
              [
                86.9224150585827,
                27.89883141624701
              ],
              [
                86.92241512296496,
                27.898741142028825
              ]
            ],
            [
              [
                86.92241512296496,
                27.898741142028825
              ],
              [
                86.9223135117923,
                27.898741084788174
              ],
              [
                86.9223136407185,
                27.898560536342824
              ],
              [
                86.92221202971652,
                27.89856047903031
              ],
              [
                86.92221209426047,
                27.898470204812124
              ],
              [
                86.92211048333934,
                27.898470147427744
              ],
              [
                86.92211041870554,
                27.89856042164593
              ],
              [
                86.92200880769458,
                27.89856036418968
              ],
              [
                86.92200874297994,
                27.898650638407865
              ],
              [
                86.92190713188813,
                27.898650580879757
              ],
              [
                86.92190726148807,
                27.898470032434403
              ],
              [
                86.92200887241819,
                27.898470089962515
              ],
              [
                86.92200893713283,
                27.89837981574433
              ],
              [
                86.922415380485,
                27.89838004512914
              ],
              [
                86.92241531611172,
                27.898470319356306
              ],
              [
                86.92272014888412,
                27.898470490611132
              ],
              [
                86.92272021300586,
                27.898380216383966
              ],
              [
                86.92282182385513,
                27.898380273319187
              ],
              [
                86.92282175980526,
                27.898470547546356
              ],
              [
                86.92292337073538,
                27.898470604409713
              ],
              [
                86.92292324281529,
                27.898651152855063
              ],
              [
                86.92261840953084,
                27.898650982049396
              ],
              [
                86.92261847374242,
                27.898560707822227
              ],
              [
                86.92251686274044,
                27.898560650743274
              ],
              [
                86.92251679843903,
                27.89865092496146
              ],
              [
                86.92241518734721,
                27.898650867801656
              ],
              [
                86.92241512296496,
                27.898741142028825
              ]
            ]
          ],
          [
            [
              [
                86.91936544951082,
                27.900544876429414
              ],
              [
                86.91967028807736,
                27.900545054439572
              ],
              [
                86.9196701547494,
                27.90072560282204
              ],
              [
                86.919466928703,
                27.900725484226456
              ],
              [
                86.91946699553766,
                27.900635210035222
              ],
              [
                86.91936538259532,
                27.900635150620648
              ],
              [
                86.91936544951082,
                27.900544876429414
              ]
            ]
          ],
          [
            [
              [
                86.92028128831204,
                27.89873992434449
              ],
              [
                86.92048451065737,
                27.898740041736332
              ],
              [
                86.92048437868587,
                27.8989205901727
              ],
              [
                86.92028115600816,
                27.89892047278086
              ],
              [
                86.92028128831204,
                27.89873992434449
              ]
            ]
          ],
          [
            [
              [
                86.92078908124746,
                27.899101314130892
              ],
              [
                86.92099230426653,
                27.89910143077713
              ],
              [
                86.92099236983456,
                27.899011156558945
              ],
              [
                86.92109398125876,
                27.89901121476978
              ],
              [
                86.92109391578056,
                27.899101488987963
              ],
              [
                86.9211955272856,
                27.899101547117944
              ],
              [
                86.92119559268295,
                27.89901127290874
              ],
              [
                86.92129720410715,
                27.89901133096686
              ],
              [
                86.92129713879962,
                27.89910160517606
              ],
              [
                86.92139875031364,
                27.899101663162313
              ],
              [
                86.92139868508697,
                27.899191937380497
              ],
              [
                86.92099223870748,
                27.899191704986332
              ],
              [
                86.9209921075804,
                27.899372253413716
              ],
              [
                86.92089049581485,
                27.899372195122037
              ],
              [
                86.92089062711261,
                27.899191646703635
              ],
              [
                86.92078901551774,
                27.89919158834009
              ],
              [
                86.92078908124746,
                27.899101314130892
              ]
            ]
          ],
          [
            [
              [
                86.92190641903902,
                27.89964359724385
              ],
              [
                86.92180480702194,
                27.899643539625906
              ],
              [
                86.92180487191624,
                27.899553265416703
              ],
              [
                86.92190648384349,
                27.899553323034645
              ],
              [
                86.92190641903902,
                27.89964359724385
              ]
            ]
          ]
        ]
      },
      "id": "+7040+4666",
      "properties": {
        "area_m2": 70966.22117645334,
        "count": 708,
        "image_id": "COPERNICUS/S1_GRD/S1A_IW_GRDH_1SDV_20241212T121403_20241212T121428_056959_06FF45_D112",
        "lake_id": "imja-tsho",
        "observed_at": "2024-12-12T12:14:03Z",
        "water": 1
      }
    }
  ]
}
