{
  "type": "FeatureCollection",
  "features": [
    {
      "type": "Feature",
      "geometry": {
        "geodesic": false,
        "type": "MultiPolygon",
        "coordinates": [
          [
            [
              [
                86.92214094061124,
                27.898455004823443
              ],
              [
                86.92224255151442,
                27.898455062189857
              ],
              [
                86.92224242247143,
                27.89863561063521
              ],
              [
                86.92214081138859,
                27.898635553277778
              ],
              [
                86.92214094061124,
                27.898455004823443
              ]
            ]
          ],
          [
            [
              [
                86.92214094061124,
                27.898455004823443
              ],
              [
                86.92183610788376,
                27.89845483229301
              ],
              [
                86.92183617274213,
                27.898364558065843
              ],
              [
                86.92203939438677,
                27.89836467316698
              ],
              [
                86.92203945908344,
                27.89827439893981
              ],
              [
                86.92214106982492,
                27.898274456378093
              ],
              [
                86.92214094061124,
                27.898455004823443
              ]
            ]
          ]
        ]
      },
      "id": "+17729+5112",
      "properties": {
        "area_m2": 601.4087788111217,
        "count": 6,
        "image_id": "COPERNICUS/S1_GRD/S1A_IW_GRDH_1SDV_20211212T001137_20211212T001202_040968_04DDB7_C7E7",
        "lake_id": "imja-tsho",
        "observed_at": "2021-12-12T00:11:37Z",
        "water": 1
      }
    }
  ]
}
