{
  "type": "FeatureCollection",
  "features": [
    {
      "type": "Feature",
      "geometry": {
        "geodesic": false,
        "type": "MultiPolygon",
        "coordinates": [
          [
            [
              [
                86.92298121269059,
                27.89514935784844
              ],
              [
                86.92287960486864,
                27.89514930103898
              ],
              [
                86.92287973284263,
                27.894968752494812
              ],
              [
                86.9229813404939,
                27.894968809313255
              ],
              [
                86.92298121269059,
                27.89514935784844
              ]
            ]
          ],
          [
            [
              [
                86.92501355587135,
                27.89487965552779
              ],
              [
                86.92491194830093,
                27.89487960020954
              ],
              [
                86.92491182369561,
                27.895060148762685
              ],
              [
                86.92481021595451,
                27.895060093372564
              ],
              [
                86.9248102783425,
                27.89496981910048
              ],
              [
                86.92460706302201,
                27.894969708095662
              ],
              [
                86.9246071255717,
                27.89487943382358
              ],
              [
                86.9245055179923,
                27.89487937820888
              ],
              [
                86.92450558063182,
                27.894789103936798
              ],
              [
                86.92430236565268,
                27.89478899248282
              ],
              [
                86.9243024284539,
                27.894698718210737
              ],
              [
                86.92440403586262,
                27.894698773969168
              ],
              [
                86.924404098583,
                27.8946084996881
              ],
              [
                86.92460731322078,
                27.894608610989366
              ],
              [
                86.9246071881214,
                27.894789159542515
              ],
              [
                86.92470879561097,
                27.89478921508535
              ],
              [
                86.92470873314213,
                27.894879489357432
              ],
              [
                86.92481034072152,
                27.894879544819418
              ],
              [
                86.92481040310952,
                27.894789270547335
              ],
              [
                86.92501361808867,
                27.894789381246728
              ],
              [
                86.92501355587135,
                27.89487965552779
              ]
            ]
          ],
          [
            [
              [
                86.92298121269059,
                27.89514935784844
              ],
              [
                86.92308282051253,
                27.89514941458603
              ],
              [
                86.92308275669622,
                27.895239688858116
              ],
              [
                86.92318436460799,
                27.895239745514857
              ],
              [
                86.92318442834346,
                27.89514947125176
              ],
              [
                86.92338764398737,
                27.895149584349653
              ],
              [
                86.92338770755215,
                27.89505931007757
              ],
              [
                86.92348931529325,
                27.895059366509738
              ],
              [
                86.9234892518183,
                27.89514964078182
              ],
              [
                86.92369246746219,
                27.895149753430555
              ],
              [
                86.92369253077545,
                27.895059479158473
              ],
              [
                86.92389574625766,
                27.895059591510766
              ],
              [
                86.92389568311508,
                27.895149865782848
              ],
              [
                86.92379407529313,
                27.895149809647126
              ],
              [
                86.92379388560487,
                27.895420632454393
              ],
              [
                86.9239971017698,
                27.895420744653972
              ],
              [
                86.92399716483152,
                27.89533047039087
              ],
              [
                86.92440359681102,
                27.895330693891715
              ],
              [
                86.9244036595314,
                27.895240419619633
              ],
              [
                86.92491169909928,
                27.895240697306853
              ],
              [
                86.92491176139745,
                27.895150423034767
              ],
              [
                86.92521658489025,
                27.89515058875597
              ],
              [
                86.92521664693689,
                27.895060314474907
              ],
              [
                86.92582629341942,
                27.89506064388712
              ],
              [
                86.92582635496301,
                27.894970369606057
              ],
              [
                86.92704564693993,
                27.894971020336662
              ],
              [
                86.92704558641145,
                27.895061294608748
              ],
              [
                86.92714719416153,
                27.89506134835495
              ],
              [
                86.92714725460917,
                27.894971074073883
              ],
              [
                86.92836654663101,
                27.89497171311741
              ],
              [
                86.92836660607253,
                27.894881438827362
              ],
              [
                86.92989071988936,
                27.894882222463718
              ],
              [
                86.92989077806426,
                27.89479194817367
              ],
              [
                86.93009399307034,
                27.89479205138111
              ],
              [
                86.93009393507512,
                27.89488232567116
              ],
              [
                86.93050036543765,
                27.894882531196714
              ],
              [
                86.93050042310051,
                27.894792256906666
              ],
              [
                86.93100846064718,
                27.894792512118038
              ],
              [
                86.9310085751195,
                27.894611963537937
              ],
              [
                86.93111018246535,
                27.894612014355634
              ],
              [
                86.93111023961616,
                27.894521740065585
              ],
              [
                86.93141506139318,
                27.894521892069513
              ],
              [
                86.9314150044849,
                27.894612166359565
              ],
              [
                86.9316182191676,
                27.894612267321218
              ],
              [
                86.9316182759052,
                27.89452199303117
              ],
              [
                86.93171988316121,
                27.894522043399707
              ],
              [
                86.93171982651344,
                27.894612317689756
              ],
              [
                86.93192304119614,
                27.894612418202254
              ],
              [
                86.93192298471907,
                27.894702692501284
              ],
              [
                86.93212619957245,
                27.89470279271734
              ],
              [
                86.93212625588784,
                27.894612518418306
              ],
              [
                86.9322278632247,
                27.894612568418534
              ],
              [
                86.93222791945922,
                27.894522294119504
              ],
              [
                86.93243113397125,
                27.894522393886398
              ],
              [
                86.93243107791638,
                27.894612668176446
              ],
              [
                86.93283750729076,
                27.894612866811922
              ],
              [
                86.93283756301325,
                27.89452259251289
              ],
              [
                86.93293917027825,
                27.894522641983112
              ],
              [
                86.93293894772064,
                27.894883739161276
              ],
              [
                86.93314216291537,
                27.894883837877142
              ],
              [
                86.93314171914763,
                27.895606032188553
              ],
              [
                86.93293850259643,
                27.895605933463703
              ],
              [
                86.93293839131313,
                27.89578648203482
              ],
              [
                86.93273517442957,
                27.895786383013526
              ],
              [
                86.93273528605422,
                27.89560583445139
              ],
              [
                86.932532069512,
                27.895605735133653
              ],
              [
                86.93253184559794,
                27.895966832248934
              ],
              [
                86.93273506281389,
                27.895966931566672
              ],
              [
                86.93273461631526,
                27.896689125761302
              ],
              [
                86.93253139775183,
                27.896689026434583
              ],
              [
                86.93253106185378,
                27.897230672022165
              ],
              [
                86.9327342814323,
                27.897230771348884
              ],
              [
                86.93273416979866,
                27.897411319875083
              ],
              [
                86.93314060963841,
                27.89741151763021
              ],
              [
                86.93314072058934,
                27.89723096910401
              ],
              [
                86.93334394017684,
                27.897231067532417
              ],
              [
                86.93334416140495,
                27.896869970471034
              ],
              [
                86.93354738031871,
                27.896870068594012
              ],
              [
                86.9335474905959,
                27.896689520058832
              ],
              [
                86.93375070916831,
                27.896689617885364
              ],
              [
                86.9337505992235,
                27.89687016642055
              ],
              [
                86.93395381813727,
                27.89687026395064
              ],
              [
                86.93395370853382,
                27.89705081248582
              ],
              [
                86.93375048928768,
                27.897050714955732
              ],
              [
                86.93375037934287,
                27.89723126348193
              ],
              [
                86.93354715975536,
                27.897231165655395
              ],
              [
                86.93354638777016,
                27.898495005230995
              ],
              [
                86.93374960972022,
                27.898495103057527
              ],
              [
                86.93374905995128,
                27.89939784547293
              ],
              [
                86.93354583632136,
                27.899397747637412
              ],
              [
                86.93354517455045,
                27.9004810383724
              ],
              [
                86.93374840020158,
                27.90048113620792
              ],
              [
                86.93374829023881,
                27.90066168465327
              ],
              [
                86.9339515162313,
                27.900661782192344
              ],
              [
                86.93395135179469,
                27.900932604846894
              ],
              [
                86.93364651205137,
                27.90093245841252
              ],
              [
                86.93364656710911,
                27.90084218420332
              ],
              [
                86.93232559599298,
                27.900841541889925
              ],
              [
                86.93232565215565,
                27.900751267680725
              ],
              [
                86.93181758677018,
                27.900751017266355
              ],
              [
                86.93181764335506,
                27.900660743057156
              ],
              [
                86.93130957840079,
                27.90066049077429
              ],
              [
                86.93130963540787,
                27.90057021655611
              ],
              [
                86.9308015708848,
                27.900569962395764
              ],
              [
                86.9308016283051,
                27.90047968818656
              ],
              [
                86.93049678984637,
                27.900479534790243
              ],
              [
                86.9304968475272,
                27.900389260581044
              ],
              [
                86.92815975469514,
                27.900388062183538
              ],
              [
                86.92815969507396,
                27.90047833639274
              ],
              [
                86.92765163100903,
                27.900478070626164
              ],
              [
                86.9276515709746,
                27.900568344835364
              ],
              [
                86.92704189359901,
                27.900568023436122
              ],
              [
                86.92704183305256,
                27.90065829764532
              ],
              [
                86.92511118651018,
                27.900657262103394
              ],
              [
                86.92511112435574,
                27.900747536303612
              ],
              [
                86.9250095113056,
                27.900747481057223
              ],
              [
                86.9250095735319,
                27.900657206857005
              ],
              [
                86.9249079605626,
                27.900657151529767
              ],
              [
                86.92490789824647,
                27.900747425729985
              ],
              [
                86.92450144601894,
                27.90074720367543
              ],
              [
                86.92450138336146,
                27.900837477875648
              ],
              [
                86.92368847825063,
                27.900837030164293
              ],
              [
                86.9236884149194,
                27.90092730436451
              ],
              [
                86.92297712237364,
                27.900926908683576
              ],
              [
                86.92297705844952,
                27.901017182874813
              ],
              [
                86.92165608551879,
                27.901016438297205
              ],
              [
                86.92165602049873,
                27.90110671248844
              ],
              [
                86.92135118035117,
                27.901106538862063
              ],
              [
                86.92135111507959,
                27.901196813053296
              ],
              [
                86.92033498040996,
                27.901196229435822
              ],
              [
                86.92033491429395,
                27.901286503618074
              ],
              [
                86.9197252330017,
                27.90128614985253
              ],
              [
                86.91972516638263,
                27.901376424034783
              ],
              [
                86.91830257555985,
                27.901375588080548
              ],
              [
                86.918302507764,
                27.901465862262796
              ],
              [
                86.91799766662828,
                27.901465681216337
              ],
              [
                86.91799759857192,
                27.901555955389604
              ],
              [
                86.91769275718468,
                27.90155577367839
              ],
              [
                86.91769268887678,
                27.901646047851656
              ],
              [
                86.9174894611236,
                27.901645926327564
              ],
              [
                86.91748939264502,
                27.90173620050083
              ],
              [
                86.91728616472116,
                27.901736078680297
              ],
              [
                86.9172860960719,
                27.90182635284458
              ],
              [
                86.91708286797736,
                27.9018262307276
              ],
              [
                86.91708279916641,
                27.901916504891886
              ],
              [
                86.91677795678204,
                27.90191632115048
              ],
              [
                86.91677788771057,
                27.902006595314763
              ],
              [
                86.91647304507468,
                27.90200641089962
              ],
              [
                86.91647297575169,
                27.902096685063903
              ],
              [
                86.91626974715408,
                27.902096561743182
              ],
              [
                86.91626967766939,
                27.902186835907468
              ],
              [
                86.91606644891009,
                27.902186712290302
              ],
              [
                86.91606637924575,
                27.902276986445603
              ],
              [
                86.91576153585527,
                27.902276800449425
              ],
              [
                86.91576146593938,
                27.902367074613707
              ],
              [
                86.9152533932057,
                27.902366763122885
              ],
              [
                86.91525346354378,
                27.90227648896758
              ],
              [
                86.91515184908329,
                27.90227642644484
              ],
              [
                86.91515177866435,
                27.90236670060014
              ],
              [
                86.91464370593964,
                27.902366386863527
              ],
              [
                86.91464391846307,
                27.902095564388638
              ],
              [
                86.91474553275289,
                27.902095627288674
              ],
              [
                86.9147456742645,
                27.901915078960105
              ],
              [
                86.91484728838364,
                27.90191514177929
              ],
              [
                86.91484735905411,
                27.90182486762399
              ],
              [
                86.91474574501581,
                27.90182480479582
              ],
              [
                86.9147458157761,
                27.901734530631533
              ],
              [
                86.91484742972456,
                27.901734593459704
              ],
              [
                86.91484750039503,
                27.901644319286437
              ],
              [
                86.91474588652741,
                27.90164425646725
              ],
              [
                86.91474595727873,
                27.901553982302964
              ],
              [
                86.91454272971419,
                27.90155385644001
              ],
              [
                86.91454280063618,
                27.90146358226674
              ],
              [
                86.91444118693026,
                27.901463519222975
              ],
              [
                86.91444125794209,
                27.90137324505869
              ],
              [
                86.914339644326,
                27.901373181934073
              ],
              [
                86.91433978650237,
                27.901192633596523
              ],
              [
                86.91423817305696,
                27.901192570400042
              ],
              [
                86.91423845775104,
                27.90083147370697
              ],
              [
                86.91393361842094,
                27.900831283686337
              ],
              [
                86.91393368984599,
                27.900741009504085
              ],
              [
                86.91352723775321,
                27.90074075508323
              ],
              [
                86.91352730951962,
                27.900650480909963
              ],
              [
                86.91332408364391,
                27.900650353250377
              ],
              [
                86.91332415557203,
                27.90056007907711
              ],
              [
                86.91291770416196,
                27.900559822859623
              ],
              [
                86.91291755963202,
                27.900740371215143
              ],
              [
                86.91312078566942,
                27.900740499467616
              ],
              [
                86.91312071357063,
                27.900830773640884
              ],
              [
                86.91322232667468,
                27.900830837663815
              ],
              [
                86.91322225465674,
                27.900921111837082
              ],
              [
                86.91332386785062,
                27.900921175779164
              ],
              [
                86.91332350818314,
                27.901372546618557
              ],
              [
                86.91322189457604,
                27.901372482676475
              ],
              [
                86.91322167852223,
                27.90164330516933
              ],
              [
                86.91312006465462,
                27.9016432411464
              ],
              [
                86.91311999255583,
                27.901733515310685
              ],
              [
                86.912713536762,
                27.901733258482345
              ],
              [
                86.91271360920214,
                27.901642984327044
              ],
              [
                86.91261199534352,
                27.901642919926818
              ],
              [
                86.91261221291548,
                27.901372097442948
              ],
              [
                86.9125105992994,
                27.90137203297086
              ],
              [
                86.91251067191023,
                27.901281758806576
              ],
              [
                86.91240905838397,
                27.90128169426262
              ],
              [
                86.91240927645899,
                27.901010871769767
              ],
              [
                86.91251088973371,
                27.901010936304736
              ],
              [
                86.91251103494638,
                27.900830387967183
              ],
              [
                86.91261264805043,
                27.900830452430288
              ],
              [
                86.91261272057142,
                27.900740178266002
              ],
              [
                86.912409494534,
                27.90074004924996
              ],
              [
                86.91240956722568,
                27.900649775076694
              ],
              [
                86.91230795429232,
                27.900649710460875
              ],
              [
                86.91230788151081,
                27.900739984634143
              ],
              [
                86.9121046554824,
                27.900739855177928
              ],
              [
                86.91210472842559,
                27.90064958100466
              ],
              [
                86.91200311549223,
                27.90064951616426
              ],
              [
                86.91200326154032,
                27.900468967817726
              ],
              [
                86.91210487430301,
                27.900469032658123
              ],
              [
                86.9121049472462,
                27.900378758484855
              ],
              [
                86.91220655992805,
                27.900378823253387
              ],
              [
                86.91220670564377,
                27.900198274897868
              ],
              [
                86.91210509313261,
                27.900198210129336
              ],
              [
                86.91210516607582,
                27.900107935947084
              ],
              [
                86.9120035536455,
                27.90010787111567
              ],
              [
                86.91200362666956,
                27.90001759693342
              ],
              [
                86.9118004019886,
                27.900017467028047
              ],
              [
                86.91180047517436,
                27.899927192845794
              ],
              [
                86.91200369969361,
                27.899927322751168
              ],
              [
                86.91200391876575,
                27.89965650019543
              ],
              [
                86.91241036678916,
                27.899656759098878
              ],
              [
                86.91241029410648,
                27.89974703329011
              ],
              [
                86.9127151303823,
                27.899747226679427
              ],
              [
                86.91271542010695,
                27.89938612992347
              ],
              [
                86.91261380835935,
                27.899386065532234
              ],
              [
                86.91261395338337,
                27.899205517149763
              ],
              [
                86.91251234179748,
                27.899205452686658
              ],
              [
                86.91251241439933,
                27.899115178495425
              ],
              [
                86.91261402590438,
                27.89911524295853
              ],
              [
                86.91261417093737,
                27.898934694567078
              ],
              [
                86.91291900493148,
                27.898934887507234
              ],
              [
                86.91291907719196,
                27.898844613307016
              ],
              [
                86.91312229969,
                27.898844741550505
              ],
              [
                86.91312237178879,
                27.89875446735927
              ],
              [
                86.91332559411615,
                27.89875459530632
              ],
              [
                86.91332573796338,
                27.8985740468969
              ],
              [
                86.91302090497538,
                27.89857385486404
              ],
              [
                86.91302104932566,
                27.898393306463607
              ],
              [
                86.91312266015697,
                27.898393370549417
              ],
              [
                86.91312287642639,
                27.898122547921815
              ],
              [
                86.91332609757696,
                27.898122675868862
              ],
              [
                86.91332616949607,
                27.89803240165966
              ],
              [
                86.91383422196377,
                27.898032720211244
              ],
              [
                86.91383429346068,
                27.89794244600204
              ],
              [
                86.91403751427887,
                27.89794257289806
              ],
              [
                86.9140375856141,
                27.897852298679876
              ],
              [
                86.9142408062616,
                27.89785242527945
              ],
              [
                86.91424087742614,
                27.897762151061265
              ],
              [
                86.91444409791197,
                27.89776227735541
              ],
              [
                86.91444416890582,
                27.897672003137227
              ],
              [
                86.91464738922096,
                27.89767212913493
              ],
              [
                86.91464746004414,
                27.897581854916744
              ],
              [
                86.91485068019757,
                27.89758198060902
              ],
              [
                86.91485075085006,
                27.897491706390834
              ],
              [
                86.91495236083696,
                27.89749176912019
              ],
              [
                86.91495243140861,
                27.897401494902006
              ],
              [
                86.91525726113571,
                27.897401682658884
              ],
              [
                86.91525733144685,
                27.89731140843172
              ],
              [
                86.91566377074761,
                27.897311657723193
              ],
              [
                86.91566384072638,
                27.897221383496024
              ],
              [
                86.91596866995043,
                27.897221569671867
              ],
              [
                86.91596873967767,
                27.8971312954447
              ],
              [
                86.91637517830469,
                27.897131542634117
              ],
              [
                86.91637524769955,
                27.89704126840695
              ],
              [
                86.91688329556787,
                27.897041575711626
              ],
              [
                86.91688336454052,
                27.896951301475475
              ],
              [
                86.91739141199561,
                27.89695160690267
              ],
              [
                86.91739148054606,
                27.89686133266652
              ],
              [
                86.91769630877297,
                27.896861515024526
              ],
              [
                86.9176963770629,
                27.896771240788375
              ],
              [
                86.9180012050383,
                27.89677142247264
              ],
              [
                86.91800127307668,
                27.89668114823649
              ],
              [
                86.91881414702496,
                27.89668162941907
              ],
              [
                86.91881421438961,
                27.89659135518292
              ],
              [
                86.91922065103137,
                27.896591593973092
              ],
              [
                86.91922071806366,
                27.896501319727957
              ],
              [
                86.91962715437305,
                27.896501557323365
              ],
              [
                86.91962722106396,
                27.896411283078233
              ],
              [
                86.92003365704097,
                27.89641151947888
              ],
              [
                86.92003372339053,
                27.89632124523375
              ],
              [
                86.92033855012625,
                27.89632142174372
              ],
              [
                86.92033861622429,
                27.896231147489605
              ],
              [
                86.92064344270848,
                27.896231323325836
              ],
              [
                86.92064350855499,
                27.89614104907172
              ],
              [
                86.92084672604044,
                27.896141165924572
              ],
              [
                86.92084679171626,
                27.896050891670455
              ],
              [
                86.92125322636376,
                27.896051124468862
              ],
              [
                86.92125335704168,
                27.89587057596063
              ],
              [
                86.921151748546,
                27.89587051787556
              ],
              [
                86.9211518139703,
                27.895780243612464
              ],
              [
                86.92135503078201,
                27.89578035971073
              ],
              [
                86.92135522654287,
                27.895509536930415
              ],
              [
                86.92125361838855,
                27.895509478926197
              ],
              [
                86.92125368372302,
                27.895419204663096
              ],
              [
                86.92145689986098,
                27.89541932060865
              ],
              [
                86.9214567695334,
                27.89559986913485
              ],
              [
                86.92165998601274,
                27.895599984774975
              ],
              [
                86.92165992101064,
                27.895690259038076
              ],
              [
                86.92176152933565,
                27.895690316754834
              ],
              [
                86.92176146442338,
                27.89578059100895
              ],
              [
                86.92216789806477,
                27.895780821103425
              ],
              [
                86.92216796264466,
                27.89569054684931
              ],
              [
                86.92247278762866,
                27.895690718634143
              ],
              [
                86.92247285195701,
                27.89560044437104
              ],
              [
                86.92277767668949,
                27.895600615482138
              ],
              [
                86.92277774075734,
                27.895510341219037
              ],
              [
                86.92247291627639,
                27.895510170107944
              ],
              [
                86.92247304492412,
                27.89532962158174
              ],
              [
                86.92257465291675,
                27.895329678687645
              ],
              [
                86.92257471715527,
                27.895239404424544
              ],
              [
                86.92267632506706,
                27.895239461458583
              ],
              [
                86.92267626090938,
                27.895329735730666
              ],
              [
                86.922777868902,
                27.895329792692838
              ],
              [
                86.92277793296985,
                27.895239518420755
              ],
              [
                86.92287954088164,
                27.895239575311063
              ],
              [
                86.92287947689464,
                27.89532984957416
              ],
              [
                86.92298108488727,
                27.89532990638362
              ],
              [
                86.92298121269059,
                27.89514935784844
              ]
            ],
            [
              [
                86.9314150044849,
                27.894612166359565
              ],
              [
                86.93141494758561,
                27.894702440658595
              ],
              [
                86.93131334015892,
                27.894702390056494
              ],
              [
                86.93131339714805,
                27.894612115766446
              ],
              [
                86.9314150044849,
                27.894612166359565
              ]
            ],
            [
              [
                86.91393554678945,
                27.898393880531987
              ],
              [
                86.91393568962158,
                27.898213332113585
              ],
              [
                86.91413891095182,
                27.89821345886587
              ],
              [
                86.91413883970642,
                27.898303733075075
              ],
              [
                86.91403722895598,
                27.89830366973486
              ],
              [
                86.91403715762075,
                27.898393943944065
              ],
              [
                86.91393554678945,
                27.898393880531987
              ]
            ],
            [
              [
                86.92287934892065,
                27.895510398109344
              ],
              [
                86.92287941290765,
                27.895420123846243
              ],
              [
                86.92298102098111,
                27.8954201806557
              ],
              [
                86.92298095708395,
                27.895510454918803
              ],
              [
                86.92287934892065,
                27.895510398109344
              ]
            ],
            [
              [
                86.92308256524726,
                27.895510511656397
              ],
              [
                86.92308262906359,
                27.895420237393296
              ],
              [
                86.92318423713705,
                27.89542029405004
              ],
              [
                86.9231841734016,
                27.895510568322123
              ],
              [
                86.92308256524726,
                27.895510511656397
              ]
            ],
            [
              [
                86.92328584521952,
                27.895420350643903
              ],
              [
                86.92328590886515,
                27.89533007637182
              ],
              [
                86.92338751685779,
                27.895330132884837
              ],
              [
                86.92338745329299,
                27.89542040715692
              ],
              [
                86.92328584521952,
                27.895420350643903
              ]
            ],
            [
              [
                86.92348899789151,
                27.89551073786117
              ],
              [
                86.92348912485042,
                27.895330189325986
              ],
              [
                86.92369234084465,
                27.89533030197472
              ],
              [
                86.92369227753139,
                27.89542057623782
              ],
              [
                86.92359066944893,
                27.895420519949386
              ],
              [
                86.92359060605483,
                27.89551079422147
              ],
              [
                86.92348899789151,
                27.89551073786117
              ]
            ],
            [
              [
                86.93212541115706,
                27.895966632706163
              ],
              [
                86.93212552379681,
                27.895786084153013
              ],
              [
                86.9323287406714,
                27.895786184072623
              ],
              [
                86.932328628373,
                27.895966732634754
              ],
              [
                86.93212541115706,
                27.895966632706163
              ]
            ],
            [
              [
                86.93293683323917,
                27.898314161437543
              ],
              [
                86.93293694454043,
                27.898133612938295
              ],
              [
                86.93314016580779,
                27.898133711672127
              ],
              [
                86.93314005484788,
                27.898314260171375
              ],
              [
                86.93293683323917,
                27.898314161437543
              ]
            ],
            [
              [
                86.93334272331896,
                27.899217101024167
              ],
              [
                86.93334294457401,
                27.898856004070584
              ],
              [
                86.93354616719782,
                27.898856102202544
              ],
              [
                86.9335459466165,
                27.89921719916511
              ],
              [
                86.93334272331896,
                27.899217101024167
              ]
            ]
          ],
          [
            [
              [
                86.92501355587135,
                27.89487965552779
              ],
              [
                86.92521677103015,
                27.894879765921758
              ],
              [
                86.92521664693689,
                27.895060314474907
              ],
              [
                86.9251150391868,
                27.89506025931835
              ],
              [
                86.92511510132327,
                27.89496998503728
              ],
              [
                86.92501349366302,
                27.894969929799874
              ],
              [
                86.92501355587135,
                27.89487965552779
              ]
            ]
          ]
        ]
      },
      "id": "+9343+1449",
      "properties": {
        "area_m2": 1174651.6423892202,
        "count": 11719,
        "image_id": "COPERNICUS/S2_SR_HARMONIZED/20181109T045011_20181109T045010_T45RVL",
        "lake_id": "imja-tsho",
        "observed_at": "2018-11-09T05:00:59.875000Z",
        "water": 1
      }
    }
  ]
}
