{
  "type": "FeatureCollection",
  "features": [
    {
      "type": "Feature",
      "geometry": {
        "geodesic": false,
        "type": "MultiPolygon",
        "coordinates": [
          [
            [
              [
                86.92247291627639,
                27.895510170107944
              ],
              [
                86.92237130812207,
                27.89551011292119
              ],
              [
                86.92237137253127,
                27.895419838658093
              ],
              [
                86.92247298060475,
                27.895419895844842
              ],
              [
                86.92247291627639,
                27.895510170107944
              ]
            ]
          ],
          [
            [
              [
                86.92521677103015,
                27.894879765921758
              ],
              [
                86.92511516345076,
                27.8948797107652
              ],
              [
                86.92511522558722,
                27.894789436484132
              ],
              [
                86.92521683307679,
                27.894789491649675
              ],
              [
                86.92521677103015,
                27.894879765921758
              ]
            ]
          ],
          [
            [
              [
                86.92552177914472,
                27.894609108126026
              ],
              [
                86.92552184093084,
                27.89451883384496
              ],
              [
                86.92562344817786,
                27.894518888705075
              ],
              [
                86.9256233864636,
                27.894609162986143
              ],
              [
                86.92552177914472,
                27.894609108126026
              ]
            ]
          ],
          [
            [
              [
                86.93019560057789,
                27.894792102872543
              ],
              [
                86.93019565849228,
                27.894701828582495
              ],
              [
                86.93029726591897,
                27.89470188000206
              ],
              [
                86.93029720808543,
                27.89479215429211
              ],
              [
                86.93019560057789,
                27.894792102872543
              ]
            ]
          ],
          [
            [
              [
                86.93182143385928,
                27.89461236798643
              ],
              [
                86.93182149041722,
                27.89452209369638
              ],
              [
                86.93192309768222,
                27.894522143912205
              ],
              [
                86.93192304119614,
                27.894612418202254
              ],
              [
                86.93182143385928,
                27.89461236798643
              ]
            ]
          ],
          [
            [
              [
                86.9322278632247,
                27.894612568418534
              ],
              [
                86.93212625588784,
                27.894612518418306
              ],
              [
                86.93212631219423,
                27.894522244128257
              ],
              [
                86.93222791945922,
                27.894522294119504
              ],
              [
                86.9322278632247,
                27.894612568418534
              ]
            ]
          ],
          [
            [
              [
                86.93649595143292,
                27.8936215831453
              ],
              [
                86.9364960041191,
                27.8935313088283
              ],
              [
                86.93659761045883,
                27.893531355603578
              ],
              [
                86.93659755786247,
                27.893621629920577
              ],
              [
                86.93649595143292,
                27.8936215831453
              ]
            ]
          ],
          [
            [
              [
                86.92247291627639,
                27.895510170107944
              ],
              [
                86.9225745244397,
                27.89551022722283
              ],
              [
                86.92257446020118,
                27.895600501485927
              ],
              [
                86.92267606844533,
                27.895600558519966
              ],
              [
                86.92267613260302,
                27.895510284256865
              ],
              [
                86.92287934892065,
                27.895510398109344
              ],
              [
                86.92287941290765,
                27.895420123846243
              ],
              [
                86.92298102098111,
                27.8954201806557
              ],
              [
                86.92298108488727,
                27.89532990638362
              ],
              [
                86.92328590886515,
                27.89533007637182
              ],
              [
                86.92328597251978,
                27.895239802108723
              ],
              [
                86.92348918833436,
                27.895239915053903
              ],
              [
                86.92348912485042,
                27.895330189325986
              ],
              [
                86.92338751685779,
                27.895330132884837
              ],
              [
                86.92338745329299,
                27.89542040715692
              ],
              [
                86.92348906137545,
                27.895420463589087
              ],
              [
                86.92348899789151,
                27.89551073786117
              ],
              [
                86.92369221421814,
                27.895510850509904
              ],
              [
                86.92369234084465,
                27.89533030197472
              ],
              [
                86.92379394883729,
                27.89533035818231
              ],
              [
                86.92379382238144,
                27.89551090671749
              ],
              [
                86.92389543054475,
                27.895510962862197
              ],
              [
                86.92389549368733,
                27.895420688590114
              ],
              [
                86.92420031792572,
                27.895420856557106
              ],
              [
                86.92420038081679,
                27.895330582285023
              ],
              [
                86.92460681280527,
                27.895330805192977
              ],
              [
                86.92460687536395,
                27.895240530920894
              ],
              [
                86.92491169909928,
                27.895240697306853
              ],
              [
                86.92491176139745,
                27.895150423034767
              ],
              [
                86.92501336922838,
                27.895150478353024
              ],
              [
                86.92501330701107,
                27.895240752625106
              ],
              [
                86.92521652284361,
                27.895240863028054
              ],
              [
                86.92521658489025,
                27.89515058875597
              ],
              [
                86.92562301621398,
                27.89515080865457
              ],
              [
                86.92562307791925,
                27.895060534382488
              ],
              [
                86.92623272441078,
                27.89506086198909
              ],
              [
                86.92623260200634,
                27.895241410542237
              ],
              [
                86.92846797625415,
                27.895242588727648
              ],
              [
                86.92846809495754,
                27.895062040165516
              ],
              [
                86.92867131046668,
                27.895062145475016
              ],
              [
                86.92867142882871,
                27.894881596903904
              ],
              [
                86.92907785918226,
                27.89488180662459
              ],
              [
                86.92907774149397,
                27.89506235518672
              ],
              [
                86.9296873880394,
                27.895062667521962
              ],
              [
                86.92968750471259,
                27.894882118950846
              ],
              [
                86.93009393507512,
                27.89488232567116
              ],
              [
                86.93009399307034,
                27.89479205138111
              ],
              [
                86.93019560057789,
                27.894792102872543
              ],
              [
                86.9301955426635,
                27.894882377162592
              ],
              [
                86.93039875784926,
                27.894882479920877
              ],
              [
                86.93039870009657,
                27.894972754210926
              ],
              [
                86.93050030777479,
                27.894972805477778
              ],
              [
                86.93050036543765,
                27.894882531196714
              ],
              [
                86.9307035806234,
                27.89488263350584
              ],
              [
                86.93070363811559,
                27.894792359215792
              ],
              [
                86.93080524562312,
                27.894792410258066
              ],
              [
                86.93080530303445,
                27.894702135968018
              ],
              [
                86.93090691046115,
                27.894702186938428
              ],
              [
                86.93090685313067,
                27.894792461228477
              ],
              [
                86.93100846064718,
                27.894792512118038
              ],
              [
                86.93100851788783,
                27.89470223782799
              ],
              [
                86.93171976986568,
                27.89470259198879
              ],
              [
                86.93171982651344,
                27.894612317689756
              ],
              [
                86.93182143385928,
                27.89461236798643
              ],
              [
                86.93182137729238,
                27.894702642276478
              ],
              [
                86.93222780699914,
                27.894702842708583
              ],
              [
                86.9322278632247,
                27.894612568418534
              ],
              [
                86.93232947057054,
                27.894612618337916
              ],
              [
                86.93232941442582,
                27.894702892627965
              ],
              [
                86.93253262927921,
                27.894702992242145
              ],
              [
                86.93253251733115,
                27.894883540831227
              ],
              [
                86.93293894772064,
                27.894883739161276
              ],
              [
                86.93293905899495,
                27.894703190572194
              ],
              [
                86.93456477790285,
                27.894703971917846
              ],
              [
                86.93456488648222,
                27.894523423310797
              ],
              [
                86.93476810101221,
                27.894523519637147
              ],
              [
                86.9347681551357,
                27.89443324532913
              ],
              [
                86.9351745838633,
                27.894433437065544
              ],
              [
                86.93517479899184,
                27.894072339851448
              ],
              [
                86.9353780126864,
                27.8940724352705
              ],
              [
                86.93537806629786,
                27.893982160962484
              ],
              [
                86.93517485277398,
                27.893982065543433
              ],
              [
                86.93517501412039,
                27.893711242610404
              ],
              [
                86.9352766206308,
                27.89371129035586
              ],
              [
                86.9352765669385,
                27.893801564663878
              ],
              [
                86.93537817352974,
                27.89380161233747
              ],
              [
                86.93537828075266,
                27.893621063712455
              ],
              [
                86.93547988717324,
                27.893621111305198
              ],
              [
                86.93547983365161,
                27.893711385622197
              ],
              [
                86.93558144015304,
                27.893711433143075
              ],
              [
                86.93558138671226,
                27.89380170745109
              ],
              [
                86.93568299330352,
                27.893801754900103
              ],
              [
                86.93568288658366,
                27.893982303525117
              ],
              [
                86.93578449334561,
                27.893982350893282
              ],
              [
                86.93578444006653,
                27.8940726252013
              ],
              [
                86.93588604691828,
                27.894072672497597
              ],
              [
                86.93588599372904,
                27.894162946805615
              ],
              [
                86.93598760065268,
                27.894162994030047
              ],
              [
                86.93598754754427,
                27.894253268338066
              ],
              [
                86.93608915456673,
                27.894253315490634
              ],
              [
                86.93608910153918,
                27.894343589789667
              ],
              [
                86.93619070864247,
                27.894343636861386
              ],
              [
                86.93619076158019,
                27.894253362562353
              ],
              [
                86.93629236859366,
                27.894253409553226
              ],
              [
                86.93629263286903,
                27.893802038004164
              ],
              [
                86.93639423946927,
                27.893802084932155
              ],
              [
                86.93639408115916,
                27.894072907865187
              ],
              [
                86.93659729485373,
                27.894073001487605
              ],
              [
                86.93659713704668,
                27.894343824411653
              ],
              [
                86.93649552994339,
                27.894343777636376
              ],
              [
                86.93649547725718,
                27.89443405194439
              ],
              [
                86.93639387007305,
                27.894434005088264
              ],
              [
                86.93639365897793,
                27.89479510230236
              ],
              [
                86.93669848154546,
                27.89479524262819
              ],
              [
                86.93669842902996,
                27.894885516927225
              ],
              [
                86.93680003663631,
                27.894885563549785
              ],
              [
                86.93680008907097,
                27.894795289250755
              ],
              [
                86.93700330412199,
                27.8947953822713
              ],
              [
                86.93700325184902,
                27.894885656579316
              ],
              [
                86.93710485946436,
                27.8948857029773
              ],
              [
                86.93710491164748,
                27.894795428678268
              ],
              [
                86.93740973421502,
                27.894795567423063
              ],
              [
                86.93740968228342,
                27.894885841722097
              ],
              [
                86.93751128989875,
                27.894885887823637
              ],
              [
                86.93751134174053,
                27.894795613524604
              ],
              [
                86.93761294926603,
                27.8947956595453
              ],
              [
                86.9376128975051,
                27.894885933853313
              ],
              [
                86.93842575839186,
                27.894886299359836
              ],
              [
                86.93842570730467,
                27.89497657365887
              ],
              [
                86.93903535348178,
                27.894976844644656
              ],
              [
                86.93903530289765,
                27.89506711894369
              ],
              [
                86.93923851846968,
                27.8950672086764
              ],
              [
                86.93923841764277,
                27.89524775727447
              ],
              [
                86.93964484944262,
                27.89524793584158
              ],
              [
                86.93964474928944,
                27.895428484439645
              ],
              [
                86.94005118177199,
                27.895428661803013
              ],
              [
                86.94005108229257,
                27.895609210392095
              ],
              [
                86.94066073203598,
                27.895609474200345
              ],
              [
                86.94066063357165,
                27.895790022789427
              ],
              [
                86.9407622420314,
                27.895790066492467
              ],
              [
                86.94076209457295,
                27.896060889371597
              ],
              [
                86.94086370328422,
                27.89606093300277
              ],
              [
                86.94086355608628,
                27.896331755872918
              ],
              [
                86.94096516504909,
                27.896331799432225
              ],
              [
                86.94096506708782,
                27.89651234800334
              ],
              [
                86.9410666762213,
                27.8965123914818
              ],
              [
                86.94106652952642,
                27.896783214333983
              ],
              [
                86.94116813891144,
                27.896783257740577
              ],
              [
                86.94116809009698,
                27.89687353202164
              ],
              [
                86.94106648062213,
                27.896873488615046
              ],
              [
                86.94106623611867,
                27.89732486000241
              ],
              [
                86.94096462622163,
                27.897324816523952
              ],
              [
                86.94096447926623,
                27.8975956393402
              ],
              [
                86.94086286911764,
                27.897595595780892
              ],
              [
                86.9408627709767,
                27.897776144325057
              ],
              [
                86.94076116066641,
                27.897776100693886
              ],
              [
                86.94076106235478,
                27.897956649220085
              ],
              [
                86.94065945187383,
                27.897956605517045
              ],
              [
                86.94065940262819,
                27.898046879780146
              ],
              [
                86.94055779206637,
                27.898046835996258
              ],
              [
                86.94055774273988,
                27.89813711025936
              ],
              [
                86.94045613208823,
                27.898137066403606
              ],
              [
                86.9404560826809,
                27.898227340666704
              ],
              [
                86.94035447193941,
                27.898227296730106
              ],
              [
                86.94035442245124,
                27.898317570993203
              ],
              [
                86.94025281162891,
                27.898317526984737
              ],
              [
                86.94025276205089,
                27.898407801238854
              ],
              [
                86.94015115114772,
                27.898407757158523
              ],
              [
                86.94015110147987,
                27.89849803141264
              ],
              [
                86.94004949049585,
                27.898497987260445
              ],
              [
                86.94004944074715,
                27.89858826151456
              ],
              [
                86.9399478296733,
                27.898588217281517
              ],
              [
                86.93994777984375,
                27.898678491535634
              ],
              [
                86.93984616868904,
                27.89867844722174
              ],
              [
                86.93984626851882,
                27.898497898713508
              ],
              [
                86.93964304655078,
                27.898497809870126
              ],
              [
                86.93964314671294,
                27.898317261352908
              ],
              [
                86.93923670344162,
                27.898317082767832
              ],
              [
                86.9392368042865,
                27.898136534250614
              ],
              [
                86.9390335829922,
                27.898136444508918
              ],
              [
                86.93903348181495,
                27.898316993026135
              ],
              [
                86.93883026017927,
                27.898316902987993
              ],
              [
                86.93883015866066,
                27.898497451496226
              ],
              [
                86.93862693669263,
                27.898497361152657
              ],
              [
                86.93862652926174,
                27.899219555167623
              ],
              [
                86.93882975257725,
                27.89921964551119
              ],
              [
                86.93882934648484,
                27.89994183944531
              ],
              [
                86.93903257114782,
                27.899941929492435
              ],
              [
                86.93903246996159,
                27.900122477964736
              ],
              [
                86.93893085745941,
                27.900122432977106
              ],
              [
                86.93893075610251,
                27.900302981440422
              ],
              [
                86.93882914342964,
                27.90030293638093
              ],
              [
                86.93882904190205,
                27.900483484844244
              ],
              [
                86.93893065473661,
                27.90048352990374
              ],
              [
                86.93893029997393,
                27.901115449484927
              ],
              [
                86.93903191340137,
                27.901115494472556
              ],
              [
                86.93903186280825,
                27.901205768699725
              ],
              [
                86.93913347632552,
                27.901205813606506
              ],
              [
                86.93913342581325,
                27.90129608783367
              ],
              [
                86.93923503941137,
                27.901296132668588
              ],
              [
                86.93923493854852,
                27.901476681104956
              ],
              [
                86.93933655231733,
                27.901476725868005
              ],
              [
                86.93933650197573,
                27.90156700008619
              ],
              [
                86.93943811582538,
                27.901567044777376
              ],
              [
                86.93943796504315,
                27.901837867422945
              ],
              [
                86.939336350933,
                27.90183782273176
              ],
              [
                86.93933630059142,
                27.90192809694994
              ],
              [
                86.93923468640041,
                27.901928052177908
              ],
              [
                86.93923463596899,
                27.902018326396092
              ],
              [
                86.93903140741631,
                27.90201823663643
              ],
              [
                86.9390314580184,
                27.90192796242723
              ],
              [
                86.93730401682522,
                27.901927187405718
              ],
              [
                86.93730406886463,
                27.901836913196515
              ],
              [
                86.93689761245993,
                27.90183672769441
              ],
              [
                86.93689766483172,
                27.90174645348521
              ],
              [
                86.93649120876839,
                27.901746266779362
              ],
              [
                86.93649126147254,
                27.90165599257016
              ],
              [
                86.93618641968106,
                27.90165585175924
              ],
              [
                86.93618647264573,
                27.901565577550038
              ],
              [
                86.93598324494644,
                27.9015654832988
              ],
              [
                86.9359832980818,
                27.901475209089597
              ],
              [
                86.93578007055318,
                27.901475114532932
              ],
              [
                86.93578012385022,
                27.90138484032373
              ],
              [
                86.93557689650129,
                27.901384745479604
              ],
              [
                86.935576949969,
                27.90129447126142
              ],
              [
                86.93517049560349,
                27.901294280665866
              ],
              [
                86.9351705494036,
                27.901204006456663
              ],
              [
                86.93486570888773,
                27.90120386272622
              ],
              [
                86.93486576294833,
                27.901113588508036
              ],
              [
                86.93445930926553,
                27.901113395819408
              ],
              [
                86.93445936365853,
                27.901023121601224
              ],
              [
                86.9341545236547,
                27.901022976298727
              ],
              [
                86.93415457829921,
                27.900932702089523
              ],
              [
                86.93364651205137,
                27.90093245841252
              ],
              [
                86.93364656710911,
                27.90084218420332
              ],
              [
                86.93252882231785,
                27.900841641531056
              ],
              [
                86.93252887830984,
                27.900751367321856
              ],
              [
                86.93191919984727,
                27.900751067500146
              ],
              [
                86.9319192563513,
                27.90066079328196
              ],
              [
                86.93141119139703,
                27.90066054137639
              ],
              [
                86.93141124831429,
                27.900570267158205
              ],
              [
                86.9308015708848,
                27.900569962395764
              ],
              [
                86.9308016283051,
                27.90047968818656
              ],
              [
                86.93059840267193,
                27.9004795860032
              ],
              [
                86.93059846026293,
                27.900389311785016
              ],
              [
                86.92907426926286,
                27.90038853583824
              ],
              [
                86.92907432812048,
                27.900298261620055
              ],
              [
                86.92897271547457,
                27.90029820929319
              ],
              [
                86.9289726565361,
                27.900388483511374
              ],
              [
                86.92805814195941,
                27.900388009173955
              ],
              [
                86.92805808225738,
                27.90047828339214
              ],
              [
                86.92744840538484,
                27.900477963789527
              ],
              [
                86.92744834517976,
                27.900568237998726
              ],
              [
                86.9267370549157,
                27.900567861730387
              ],
              [
                86.92673699411772,
                27.900658135939587
              ],
              [
                86.9250095735319,
                27.900657206857005
              ],
              [
                86.9250095113056,
                27.900747481057223
              ],
              [
                86.92439983295982,
                27.9007471479709
              ],
              [
                86.92439977022147,
                27.900837422171115
              ],
              [
                86.92368847825063,
                27.900837030164293
              ],
              [
                86.9236884149194,
                27.90092730436451
              ],
              [
                86.92277389593198,
                27.900926794956863
              ],
              [
                86.92277383184617,
                27.901017069148097
              ],
              [
                86.92246899193218,
                27.901016898001068
              ],
              [
                86.9224690562785,
                27.900926623809834
              ],
              [
                86.92236744305767,
                27.90092656660512
              ],
              [
                86.9223673786305,
                27.901016840796352
              ],
              [
                86.92155447221712,
                27.9010163804996
              ],
              [
                86.92155440711622,
                27.901106654690835
              ],
              [
                86.92124956695967,
                27.90110648083988
              ],
              [
                86.92124950160724,
                27.901196755031112
              ],
              [
                86.92023336694659,
                27.901196170659052
              ],
              [
                86.92023330074075,
                27.90128644485029
              ],
              [
                86.9197252330017,
                27.90128614985253
              ],
              [
                86.91972516638263,
                27.901376424034783
              ],
              [
                86.9189122573372,
                27.90137594814328
              ],
              [
                86.91891232462999,
                27.90128567397001
              ],
              [
                86.91881071108577,
                27.90128561414221
              ],
              [
                86.91881064370314,
                27.901375888324463
              ],
              [
                86.91830257555985,
                27.901375588080548
              ],
              [
                86.918302507764,
                27.901465862262796
              ],
              [
                86.91799766662828,
                27.901465681216337
              ],
              [
                86.91799759857192,
                27.901555955389604
              ],
              [
                86.91769275718468,
                27.90155577367839
              ],
              [
                86.91769268887678,
                27.901646047851656
              ],
              [
                86.9174894611236,
                27.901645926327564
              ],
              [
                86.91748939264502,
                27.90173620050083
              ],
              [
                86.91718455075473,
                27.90173601765774
              ],
              [
                86.91718448202462,
                27.901826291822026
              ],
              [
                86.91698125393906,
                27.901826169552333
              ],
              [
                86.91698118503828,
                27.9019164437256
              ],
              [
                86.91667634264493,
                27.901916259750628
              ],
              [
                86.91667627349261,
                27.9020065339239
              ],
              [
                86.91647304507468,
                27.90200641089962
              ],
              [
                86.91647297575169,
                27.902096685063903
              ],
              [
                86.91626974715408,
                27.902096561743182
              ],
              [
                86.91626967766939,
                27.902186835907468
              ],
              [
                86.91596483453044,
                27.902186650360445
              ],
              [
                86.91596476478524,
                27.90227692452473
              ],
              [
                86.91565992139476,
                27.90227673830397
              ],
              [
                86.91565985139803,
                27.902367012468257
              ],
              [
                86.91464370593964,
                27.902366386863527
              ],
              [
                86.91464377678079,
                27.902276112708225
              ],
              [
                86.91454216232029,
                27.902276049736322
              ],
              [
                86.91454223324229,
                27.90218577557204
              ],
              [
                86.91464384762193,
                27.90218583854394
              ],
              [
                86.91464398930422,
                27.902005290224352
              ],
              [
                86.9147456035042,
                27.902005353124387
              ],
              [
                86.9147458157761,
                27.901734530631533
              ],
              [
                86.91484742972456,
                27.901734593459704
              ],
              [
                86.91484750039503,
                27.901644319286437
              ],
              [
                86.91464427265981,
                27.901644193576196
              ],
              [
                86.91464434349197,
                27.90155391940293
              ],
              [
                86.91454272971419,
                27.90155385644001
              ],
              [
                86.91454280063618,
                27.90146358226674
              ],
              [
                86.91444118693026,
                27.901463519222975
              ],
              [
                86.91444132894493,
                27.901282970885422
              ],
              [
                86.9143397154097,
                27.90128290776979
              ],
              [
                86.91433985759504,
                27.901102359423252
              ],
              [
                86.91423824423049,
                27.901102296235756
              ],
              [
                86.91423845775104,
                27.90083147370697
              ],
              [
                86.91403523153397,
                27.90083134709841
              ],
              [
                86.9140353028692,
                27.900741072925143
              ],
              [
                86.91352723775321,
                27.90074075508323
              ],
              [
                86.91352730951962,
                27.900650480909963
              ],
              [
                86.91332408364391,
                27.900650353250377
              ],
              [
                86.91332415557203,
                27.90056007907711
              ],
              [
                86.91301931701447,
                27.900559887026283
              ],
              [
                86.91301924483484,
                27.900650161199554
              ],
              [
                86.91291763190148,
                27.90065009703289
              ],
              [
                86.91291755963202,
                27.900740371215143
              ],
              [
                86.91312078566942,
                27.900740499467616
              ],
              [
                86.91312071357063,
                27.900830773640884
              ],
              [
                86.91322232667468,
                27.900830837663815
              ],
              [
                86.91322225465674,
                27.900921111837082
              ],
              [
                86.91332386785062,
                27.900921175779164
              ],
              [
                86.91332350818314,
                27.901372546618557
              ],
              [
                86.91322189457604,
                27.901372482676475
              ],
              [
                86.91322167852223,
                27.90164330516933
              ],
              [
                86.91312006465462,
                27.9016432411464
              ],
              [
                86.91311999255583,
                27.901733515310685
              ],
              [
                86.912713536762,
                27.901733258482345
              ],
              [
                86.91271360920214,
                27.901642984327044
              ],
              [
                86.91261199534352,
                27.901642919926818
              ],
              [
                86.91261221291548,
                27.901372097442948
              ],
              [
                86.9125105992994,
                27.90137203297086
              ],
              [
                86.91251067191023,
                27.901281758806576
              ],
              [
                86.91240905838397,
                27.90128169426262
              ],
              [
                86.91240934915066,
                27.9009205975965
              ],
              [
                86.91251096233556,
                27.90092066214045
              ],
              [
                86.91251103494638,
                27.900830387967183
              ],
              [
                86.91261264805043,
                27.900830452430288
              ],
              [
                86.91261272057142,
                27.900740178266002
              ],
              [
                86.912409494534,
                27.90074004924996
              ],
              [
                86.91240956722568,
                27.900649775076694
              ],
              [
                86.91230795429232,
                27.900649710460875
              ],
              [
                86.91230788151081,
                27.900739984634143
              ],
              [
                86.9121046554824,
                27.900739855177928
              ],
              [
                86.9121049472462,
                27.900378758484855
              ],
              [
                86.91220655992805,
                27.900378823253387
              ],
              [
                86.91220670564377,
                27.900198274897868
              ],
              [
                86.91210509313261,
                27.900198210129336
              ],
              [
                86.91210516607582,
                27.900107935947084
              ],
              [
                86.9119019412152,
                27.900107806194423
              ],
              [
                86.91190201432909,
                27.900017532021156
              ],
              [
                86.9118004019886,
                27.900017467028047
              ],
              [
                86.91180047517436,
                27.899927192845794
              ],
              [
                86.91200369969361,
                27.899927322751168
              ],
              [
                86.91200384574171,
                27.899746774386664
              ],
              [
                86.91210545783065,
                27.89974683921808
              ],
              [
                86.91210553077386,
                27.899656565035826
              ],
              [
                86.91241036678916,
                27.899656759098878
              ],
              [
                86.9124102214148,
                27.899837307472364
              ],
              [
                86.91251183359358,
                27.899837372007333
              ],
              [
                86.91251190619542,
                27.89974709782508
              ],
              [
                86.91281674247125,
                27.89974729098982
              ],
              [
                86.91281703186351,
                27.899386194233863
              ],
              [
                86.91302025537665,
                27.89938632263905
              ],
              [
                86.91302039973593,
                27.899205774256583
              ],
              [
                86.91322362290771,
                27.89920590235634
              ],
              [
                86.91322376692561,
                27.899025353964888
              ],
              [
                86.91342698976501,
                27.89902548175922
              ],
              [
                86.91342713345054,
                27.89884493336777
              ],
              [
                86.91363035594858,
                27.898845060865657
              ],
              [
                86.91363078597212,
                27.898303415646385
              ],
              [
                86.91383400746405,
                27.898303542838846
              ],
              [
                86.91383386446124,
                27.898484091248264
              ],
              [
                86.91424030812782,
                27.898484344752838
              ],
              [
                86.91424059277698,
                27.898123247916033
              ],
              [
                86.91403737161743,
                27.898123121316463
              ],
              [
                86.91403751427887,
                27.89794257289806
              ],
              [
                86.91444395592424,
                27.897942825782795
              ],
              [
                86.91444409791197,
                27.89776227735541
              ],
              [
                86.9148505388836,
                27.897762529045387
              ],
              [
                86.91485068019757,
                27.89758198060902
              ],
              [
                86.91525712049547,
                27.897582231104234
              ],
              [
                86.91525726113571,
                27.897401682658884
              ],
              [
                86.916070140411,
                27.897402180038092
              ],
              [
                86.91607027969478,
                27.897221631583758
              ],
              [
                86.91688315764054,
                27.89722212416596
              ],
              [
                86.91688329556787,
                27.897041575711626
              ],
              [
                86.9172897338805,
                27.897041820206095
              ],
              [
                86.9172898025028,
                27.896951545969944
              ],
              [
                86.9174930214974,
                27.89695166776353
              ],
              [
                86.9174929530368,
                27.89704194199968
              ],
              [
                86.91769617219312,
                27.897042063496826
              ],
              [
                86.91769630877297,
                27.896861515024526
              ],
              [
                86.91810274641186,
                27.896861757120494
              ],
              [
                86.91810288232696,
                27.896681208648193
              ],
              [
                86.91820449156825,
                27.896681268979048
              ],
              [
                86.91820442369155,
                27.8967715432152
              ],
              [
                86.91830603302266,
                27.89677160348317
              ],
              [
                86.91830610080953,
                27.896681329238035
              ],
              [
                86.91932219325834,
                27.89668192773161
              ],
              [
                86.9193222602008,
                27.896591653486478
              ],
              [
                86.91942386936124,
                27.89659171291902
              ],
              [
                86.91942393621386,
                27.89650143868287
              ],
              [
                86.92033841793017,
                27.896501970233988
              ],
              [
                86.92033855012625,
                27.89632142174372
              ],
              [
                86.92094820360667,
                27.89632177274245
              ],
              [
                86.92094833478764,
                27.896141224234217
              ],
              [
                86.92115155228207,
                27.89614134063791
              ],
              [
                86.92115161769739,
                27.896051066383794
              ],
              [
                86.92125322636376,
                27.896051124468862
              ],
              [
                86.92125329169822,
                27.895960850214745
              ],
              [
                86.92115168312169,
                27.895960792129678
              ],
              [
                86.921151748546,
                27.89587051787556
              ],
              [
                86.92135496552838,
                27.89587063397383
              ],
              [
                86.92135503078201,
                27.89578035971073
              ],
              [
                86.92145663919685,
                27.895780417652066
              ],
              [
                86.92145670436064,
                27.895690143388965
              ],
              [
                86.92155831268565,
                27.895690201249455
              ],
              [
                86.9215582476027,
                27.895780475512552
              ],
              [
                86.92196468124408,
                27.895780706208903
              ],
              [
                86.92196461650249,
                27.89587098046302
              ],
              [
                86.92206622499819,
                27.895871037955196
              ],
              [
                86.92206628965891,
                27.8957807636921
              ],
              [
                86.92226950647961,
                27.895780878442892
              ],
              [
                86.92226957097864,
                27.895690604188776
              ],
              [
                86.92247278762866,
                27.895690718634143
              ],
              [
                86.92247291627639,
                27.895510170107944
              ]
            ],
            [
              [
                86.93537817352974,
                27.89380161233747
              ],
              [
                86.935479780121,
                27.89380165993021
              ],
              [
                86.9354797265904,
                27.89389193424721
              ],
              [
                86.93537811990932,
                27.893891886645484
              ],
              [
                86.93537817352974,
                27.89380161233747
              ]
            ],
            [
              [
                86.92308256524726,
                27.895510511656397
              ],
              [
                86.92308262906359,
                27.895420237393296
              ],
              [
                86.92318423713705,
                27.89542029405004
              ],
              [
                86.9231841734016,
                27.895510568322123
              ],
              [
                86.92308256524726,
                27.895510511656397
              ]
            ],
            [
              [
                86.93801583054658,
                27.90102476700041
              ],
              [
                86.93801593343062,
                27.90084421855506
              ],
              [
                86.93821915978243,
                27.90084430980593
              ],
              [
                86.93821905723975,
                27.90102485825128
              ],
              [
                86.93801583054658,
                27.90102476700041
              ]
            ],
            [
              [
                86.93619054982032,
                27.89461445977645
              ],
              [
                86.93629215717516,
                27.894614506776307
              ],
              [
                86.93629210431828,
                27.894704781075337
              ],
              [
                86.93619049687362,
                27.894704734075482
              ],
              [
                86.93619054982032,
                27.89461445977645
              ]
            ],
            [
              [
                86.9357841736801,
                27.894523996732392
              ],
              [
                86.93588578095408,
                27.894524044028692
              ],
              [
                86.93588572775586,
                27.894614318336707
              ],
              [
                86.93578412041,
                27.894614271031426
              ],
              [
                86.9357841736801,
                27.894523996732392
              ]
            ],
            [
              [
                86.93598744132748,
                27.894433816954095
              ],
              [
                86.93629226287992,
                27.89443395816926
              ],
              [
                86.93629221003202,
                27.894524232477274
              ],
              [
                86.93619060275805,
                27.89452418547742
              ],
              [
                86.93619054982032,
                27.89461445977645
              ],
              [
                86.93598733511068,
                27.894614365552158
              ],
              [
                86.93598744132748,
                27.894433816954095
              ]
            ],
            [
              [
                86.93588588734157,
                27.894343495421644
              ],
              [
                86.93598749443588,
                27.89434354264608
              ],
              [
                86.93598744132748,
                27.894433816954095
              ],
              [
                86.93588583414333,
                27.89443376972966
              ],
              [
                86.93588588734157,
                27.894343495421644
              ]
            ],
            [
              [
                86.9357841736801,
                27.894523996732392
              ],
              [
                86.93568256641511,
                27.894523949364228
              ],
              [
                86.93568251305518,
                27.89461422366326
              ],
              [
                86.93547929835452,
                27.89461412869337
              ],
              [
                86.93547940541573,
                27.89443358008632
              ],
              [
                86.93537779823158,
                27.894433532493576
              ],
              [
                86.93537785184304,
                27.89434325818556
              ],
              [
                86.93568267314396,
                27.8943434007482
              ],
              [
                86.93568277986381,
                27.89416285214115
              ],
              [
                86.93588599372904,
                27.894162946805615
              ],
              [
                86.93588588734157,
                27.894343495421644
              ],
              [
                86.93578428023827,
                27.894343448125344
              ],
              [
                86.9357841736801,
                27.894523996732392
              ]
            ]
          ],
          [
            [
              [
                86.92267626090938,
                27.895329735730666
              ],
              [
                86.92267613260302,
                27.895510284256865
              ],
              [
                86.9225745244397,
                27.89551022722283
              ],
              [
                86.92257465291675,
                27.895329678687645
              ],
              [
                86.92267626090938,
                27.895329735730666
              ]
            ]
          ],
          [
            [
              [
                86.922777868902,
                27.895329792692838
              ],
              [
                86.92267626090938,
                27.895329735730666
              ],
              [
                86.92267632506706,
                27.895239461458583
              ],
              [
                86.92277793296985,
                27.895239518420755
              ],
              [
                86.922777868902,
                27.895329792692838
              ]
            ]
          ],
          [
            [
              [
                86.922777868902,
                27.895329792692838
              ],
              [
                86.92287947689464,
                27.89532984957416
              ],
              [
                86.92287941290765,
                27.895420123846243
              ],
              [
                86.92277780483417,
                27.89542006695594
              ],
              [
                86.922777868902,
                27.895329792692838
              ]
            ]
          ],
          [
            [
              [
                86.92521670898353,
                27.894970040202825
              ],
              [
                86.92521658489025,
                27.89515058875597
              ],
              [
                86.92511497705931,
                27.89515053359043
              ],
              [
                86.92511510132327,
                27.89496998503728
              ],
              [
                86.92521670898353,
                27.894970040202825
              ]
            ]
          ],
          [
            [
              [
                86.92521677103015,
                27.894879765921758
              ],
              [
                86.92541998618897,
                27.894879876028263
              ],
              [
                86.92541992430402,
                27.894970150300345
              ],
              [
                86.92521670898353,
                27.894970040202825
              ],
              [
                86.92521677103015,
                27.894879765921758
              ]
            ]
          ],
          [
            [
              [
                86.92552177914472,
                27.894609108126026
              ],
              [
                86.92552159375938,
                27.894879930969225
              ],
              [
                86.92541998618897,
                27.894879876028263
              ],
              [
                86.92542004806492,
                27.894789601747195
              ],
              [
                86.92531844056637,
                27.89478954673437
              ],
              [
                86.92531850253215,
                27.894699272453302
              ],
              [
                86.92542010994087,
                27.894699327466128
              ],
              [
                86.92542017181684,
                27.894609053185064
              ],
              [
                86.92552177914472,
                27.894609108126026
              ]
            ]
          ],
          [
            [
              [
                86.93578459990376,
                27.893801802277252
              ],
              [
                86.93568299330352,
                27.893801754900103
              ],
              [
                86.93568304666344,
                27.89371148059209
              ],
              [
                86.93578465317385,
                27.893711527960253
              ],
              [
                86.93578459990376,
                27.893801802277252
              ]
            ]
          ],
          [
            [
              [
                86.93578459990376,
                27.893801802277252
              ],
              [
                86.93588620649501,
                27.893801849573553
              ],
              [
                86.93588610010754,
                27.893982398189582
              ],
              [
                86.93578449334561,
                27.893982350893282
              ],
              [
                86.93578459990376,
                27.893801802277252
              ]
            ]
          ],
          [
            [
              [
                86.93649595143292,
                27.8936215831453
              ],
              [
                86.93649584606052,
                27.8938021317793
              ],
              [
                86.93639423946927,
                27.893802084932155
              ],
              [
                86.93639434500335,
                27.89362153629816
              ],
              [
                86.93649595143292,
                27.8936215831453
              ]
            ]
          ]
        ]
      },
      "id": "+9379+1460",
      "properties": {
        "area_m2": 1622701.4684829141,
        "count": 16189,
        "image_id": "COPERNICUS/S2_SR_HARMONIZED/20211113T045041_20211113T045038_T45RVL",
        "lake_id": "imja-tsho",
        "observed_at": "2021-11-13T05:01:06.281000Z",
        "water": 1
      }
    }
  ]
}
