{
  "type": "FeatureCollection",
  "features": [
    {
      "type": "Feature",
      "geometry": {
        "geodesic": false,
        "type": "MultiPolygon",
        "coordinates": [
          [
            [
              [
                86.91850952214068,
                27.896410626814003
              ],
              [
                86.91850958975688,
                27.896320352568868
              ],
              [
                86.91861119866579,
                27.89632041260328
              ],
              [
                86.91861133372748,
                27.896139864113014
              ],
              [
                86.91871294246572,
                27.89613992407556
              ],
              [
                86.91871274012918,
                27.896410746810957
              ],
              [
                86.91881434911895,
                27.896410806692653
              ],
              [
                86.91881428175428,
                27.89650108093779
              ],
              [
                86.91871267267469,
                27.896501021056093
              ],
              [
                86.91871260522917,
                27.896591295292243
              ],
              [
                86.91861099606874,
                27.896591235329698
              ],
              [
                86.91861113113045,
                27.896410686848412
              ],
              [
                86.91850952214068,
                27.896410626814003
              ]
            ]
          ],
          [
            [
              [
                86.92338770755215,
                27.89505931007757
              ],
              [
                86.92328609981105,
                27.895059253564558
              ],
              [
                86.9232862271113,
                27.89487870502039
              ],
              [
                86.92338783468173,
                27.894878761533406
              ],
              [
                86.92338770755215,
                27.89505931007757
              ]
            ]
          ],
          [
            [
              [
                86.92470885807981,
                27.894698940804282
              ],
              [
                86.92450564326236,
                27.89469882965573
              ],
              [
                86.92450570590188,
                27.894608555374667
              ],
              [
                86.92470892054865,
                27.894608666523215
              ],
              [
                86.92470885807981,
                27.894698940804282
              ]
            ]
          ],
          [
            [
              [
                86.92542029556876,
                27.894428504622933
              ],
              [
                86.92542035744471,
                27.89433823033288
              ],
              [
                86.92552196452105,
                27.894338285273847
              ],
              [
                86.92552190272595,
                27.89442855955491
              ],
              [
                86.92542029556876,
                27.894428504622933
              ]
            ]
          ],
          [
            [
              [
                86.92643636714969,
                27.89442905061896
              ],
              [
                86.9263347599925,
                27.89442899636072
              ],
              [
                86.92633488222626,
                27.894248447789604
              ],
              [
                86.92643648921278,
                27.894248502047848
              ],
              [
                86.92643636714969,
                27.89442905061896
              ]
            ]
          ],
          [
            [
              [
                86.92877309550828,
                27.894791375156313
              ],
              [
                86.92867148800973,
                27.89479132261385
              ],
              [
                86.92867160636276,
                27.89461077404274
              ],
              [
                86.92877321369961,
                27.8946108265852
              ],
              [
                86.92877309550828,
                27.894791375156313
              ]
            ]
          ],
          [
            [
              [
                86.93232975128508,
                27.894161246842753
              ],
              [
                86.93232980742978,
                27.89407097254372
              ],
              [
                86.93243141427257,
                27.894071022382253
              ],
              [
                86.9324313582087,
                27.894161296690267
              ],
              [
                86.93232975128508,
                27.894161246842753
              ]
            ]
          ],
          [
            [
              [
                86.93334570992084,
                27.894342290511354
              ],
              [
                86.93324410282652,
                27.89434224134656
              ],
              [
                86.93324421359777,
                27.894161692739512
              ],
              [
                86.93314260667415,
                27.894161643493867
              ],
              [
                86.93314255120318,
                27.89425191780188
              ],
              [
                86.9330409441987,
                27.89425186847539
              ],
              [
                86.93304105530233,
                27.894071319868342
              ],
              [
                86.93314266214512,
                27.894071369194833
              ],
              [
                86.93314271761608,
                27.89398109488682
              ],
              [
                86.93324432436904,
                27.893981144132464
              ],
              [
                86.9332442689879,
                27.89407141844048
              ],
              [
                86.9333458758217,
                27.894071467605276
              ],
              [
                86.93334570992084,
                27.894342290511354
              ]
            ]
          ],
          [
            [
              [
                86.93426028286108,
                27.8941621810637
              ],
              [
                86.93415867592846,
                27.89416213257264
              ],
              [
                86.9341586213019,
                27.894252406871672
              ],
              [
                86.93405701429742,
                27.894252358299767
              ],
              [
                86.9340571784286,
                27.8939815353847
              ],
              [
                86.93415878518155,
                27.89398158395661
              ],
              [
                86.934158730555,
                27.894071858264624
              ],
              [
                86.93426033739779,
                27.894071906764665
              ],
              [
                86.93426028286108,
                27.8941621810637
              ]
            ]
          ],
          [
            [
              [
                86.93903166041783,
                27.90156686557246
              ],
              [
                86.93923488811711,
                27.90156695532314
              ],
              [
                86.93923478726325,
                27.90174750375951
              ],
              [
                86.93903155921362,
                27.901747413999843
              ],
              [
                86.93903166041783,
                27.90156686557246
              ]
            ]
          ],
          [
            [
              [
                86.94055976486555,
                27.894435864457172
              ],
              [
                86.94066137205867,
                27.89443590824106
              ],
              [
                86.94066127359434,
                27.89461645685709
              ],
              [
                86.94055966623053,
                27.894616413082186
              ],
              [
                86.94055976486555,
                27.894435864457172
              ]
            ]
          ],
          [
            [
              [
                86.94086365421825,
                27.896151207292817
              ],
              [
                86.94086370328422,
                27.89606093300277
              ],
              [
                86.9409653120045,
                27.896060976562076
              ],
              [
                86.94096526301936,
                27.896151250852128
              ],
              [
                86.94086365421825,
                27.896151207292817
              ]
            ]
          ],
          [
            [
              [
                86.91830630416116,
                27.896410506520603
              ],
              [
                86.91850952214068,
                27.896410626814003
              ],
              [
                86.91850931929211,
                27.89668144954042
              ],
              [
                86.91881414702496,
                27.89668162941907
              ],
              [
                86.91881421438961,
                27.89659135518292
              ],
              [
                86.91911904187093,
                27.896591534387838
              ],
              [
                86.91911910898406,
                27.896501260142703
              ],
              [
                86.91922071806366,
                27.896501319727957
              ],
              [
                86.91922065103137,
                27.896591593973092
              ],
              [
                86.9193222602008,
                27.896591653486478
              ],
              [
                86.91932232713427,
                27.896501379241343
              ],
              [
                86.92033841793017,
                27.896501970233988
              ],
              [
                86.92033861622429,
                27.896231147489605
              ],
              [
                86.92044022505235,
                27.89623120617654
              ],
              [
                86.92044029106056,
                27.896140931931406
              ],
              [
                86.92033868232232,
                27.89614087324447
              ],
              [
                86.92033901280354,
                27.895689501973887
              ],
              [
                86.92044062112855,
                27.895689560660824
              ],
              [
                86.92044042308595,
                27.895960383423173
              ],
              [
                86.92054203166249,
                27.895960442038245
              ],
              [
                86.92054229537193,
                27.895599345012798
              ],
              [
                86.92064390361608,
                27.89559940354702
              ],
              [
                86.92064370608553,
                27.895870226318355
              ],
              [
                86.92074531457223,
                27.895870284780713
              ],
              [
                86.92074524881556,
                27.89596055903483
              ],
              [
                86.92084685739209,
                27.89596061741634
              ],
              [
                86.92084679171626,
                27.896050891670455
              ],
              [
                86.92094840038263,
                27.8960509499801
              ],
              [
                86.92094853156361,
                27.895870401471868
              ],
              [
                86.92084692306793,
                27.895870343162223
              ],
              [
                86.92084705441958,
                27.89568979465399
              ],
              [
                86.92094866273561,
                27.895689852963635
              ],
              [
                86.9209485971496,
                27.89578012721775
              ],
              [
                86.92105020555546,
                27.895780185455532
              ],
              [
                86.92105014005031,
                27.89587045970965
              ],
              [
                86.921151748546,
                27.89587051787556
              ],
              [
                86.92115201022524,
                27.89550942084113
              ],
              [
                86.92125361838855,
                27.895509478926197
              ],
              [
                86.92125355304509,
                27.895599753180313
              ],
              [
                86.92135516128926,
                27.895599811193513
              ],
              [
                86.92135522654287,
                27.895509536930415
              ],
              [
                86.9214568346972,
                27.89550959487175
              ],
              [
                86.92145689986098,
                27.89541932060865
              ],
              [
                86.92155850793446,
                27.89541937846914
              ],
              [
                86.92155837776858,
                27.895599926995338
              ],
              [
                86.92165998601274,
                27.895599984774975
              ],
              [
                86.92165992101064,
                27.895690259038076
              ],
              [
                86.92176152933565,
                27.895690316754834
              ],
              [
                86.92176159425689,
                27.895600042491733
              ],
              [
                86.92186320249208,
                27.89560010012764
              ],
              [
                86.92186326732349,
                27.895509825864544
              ],
              [
                86.9219648754868,
                27.895509883428584
              ],
              [
                86.92196500497894,
                27.895329334902385
              ],
              [
                86.9220666129626,
                27.89532939238558
              ],
              [
                86.9220668069448,
                27.8950585695873
              ],
              [
                86.9221684146859,
                27.895058626989645
              ],
              [
                86.92216815637534,
                27.89541972406001
              ],
              [
                86.92206654830186,
                27.89541966664868
              ],
              [
                86.92206648364112,
                27.89550994091178
              ],
              [
                86.92226969995876,
                27.895510055662577
              ],
              [
                86.9222696354687,
                27.895600329925674
              ],
              [
                86.92237124371286,
                27.89560038718429
              ],
              [
                86.92237137253127,
                27.895419838658093
              ],
              [
                86.9222697644578,
                27.895419781399475
              ],
              [
                86.92226982894785,
                27.895329507127393
              ],
              [
                86.92237143694048,
                27.89532956439499
              ],
              [
                86.9223715657499,
                27.895149015859808
              ],
              [
                86.92247317357186,
                27.89514907304656
              ],
              [
                86.92247310925248,
                27.89523934730966
              ],
              [
                86.92308275669622,
                27.895239688858116
              ],
              [
                86.92308282051253,
                27.89514941458603
              ],
              [
                86.92338764398737,
                27.895149584349653
              ],
              [
                86.92338770755215,
                27.89505931007757
              ],
              [
                86.92359092303435,
                27.895059422879022
              ],
              [
                86.92359111322567,
                27.89478860005379
              ],
              [
                86.92369272070626,
                27.894788656342225
              ],
              [
                86.92369246746219,
                27.895149753430555
              ],
              [
                86.92379407529313,
                27.895149809647126
              ],
              [
                86.92379413851656,
                27.895059535375044
              ],
              [
                86.92389574625766,
                27.895059591510766
              ],
              [
                86.92389568311508,
                27.895149865782848
              ],
              [
                86.923997290946,
                27.895149921846706
              ],
              [
                86.92399722788427,
                27.895240196118788
              ],
              [
                86.9238956199725,
                27.89524014005493
              ],
              [
                86.92389555682992,
                27.895330414327013
              ],
              [
                86.92399716483152,
                27.89533047039087
              ],
              [
                86.9239971017698,
                27.895420744653972
              ],
              [
                86.92409870985226,
                27.89542080064596
              ],
              [
                86.92409877282415,
                27.89533052637388
              ],
              [
                86.9243019888184,
                27.8953306381243
              ],
              [
                86.92430205161962,
                27.895240363852217
              ],
              [
                86.92420044370783,
                27.895240308021922
              ],
              [
                86.9242005065989,
                27.89515003374984
              ],
              [
                86.92409889877695,
                27.895149977829714
              ],
              [
                86.92409896174884,
                27.89505970355763
              ],
              [
                86.92399735400774,
                27.895059647574623
              ],
              [
                86.92399748012222,
                27.894879099021473
              ],
              [
                86.92409908769264,
                27.894879155013466
              ],
              [
                86.92409902472075,
                27.89496942928555
              ],
              [
                86.924200632381,
                27.894969485196693
              ],
              [
                86.92420075815411,
                27.894788936643543
              ],
              [
                86.92409915066455,
                27.8947888807324
              ],
              [
                86.92409921364543,
                27.894698606460317
              ],
              [
                86.92420082104518,
                27.89469866237146
              ],
              [
                86.92420088393622,
                27.894608388090393
              ],
              [
                86.924404098583,
                27.8946084996881
              ],
              [
                86.92440397314225,
                27.894789048250235
              ],
              [
                86.92450558063182,
                27.894789103936798
              ],
              [
                86.9245055179923,
                27.89487937820888
              ],
              [
                86.92481034072152,
                27.894879544819418
              ],
              [
                86.92481040310952,
                27.894789270547335
              ],
              [
                86.92470879561097,
                27.89478921508535
              ],
              [
                86.92470885807981,
                27.894698940804282
              ],
              [
                86.92501368030598,
                27.89469910696566
              ],
              [
                86.92501361808867,
                27.894789381246728
              ],
              [
                86.92511522558722,
                27.894789436484132
              ],
              [
                86.9251152877147,
                27.894699162203068
              ],
              [
                86.92531850253215,
                27.894699272453302
              ],
              [
                86.92531844056637,
                27.89478954673437
              ],
              [
                86.92542004806492,
                27.894789601747195
              ],
              [
                86.92542010994087,
                27.894699327466128
              ],
              [
                86.92572493216706,
                27.894699492055455
              ],
              [
                86.92572505541591,
                27.894518943493324
              ],
              [
                86.92562344817786,
                27.894518888705075
              ],
              [
                86.92562357158842,
                27.89433834013396
              ],
              [
                86.92592839280847,
                27.894338504274128
              ],
              [
                86.92592833135473,
                27.894428778555195
              ],
              [
                86.9262331528353,
                27.894428942021626
              ],
              [
                86.92623309163308,
                27.894519216302694
              ],
              [
                86.92643630611815,
                27.894519324909012
              ],
              [
                86.9264362450866,
                27.894609599190076
              ],
              [
                86.92633463775873,
                27.894609544931832
              ],
              [
                86.9263344544036,
                27.89488036777503
              ],
              [
                86.92623284681521,
                27.89488031343594
              ],
              [
                86.926232785613,
                27.894970587717005
              ],
              [
                86.92663921628096,
                27.894970804624215
              ],
              [
                86.92663915541111,
                27.895061078905282
              ],
              [
                86.92674076316119,
                27.895061132938945
              ],
              [
                86.9267408239412,
                27.894970858666863
              ],
              [
                86.92684243161044,
                27.89497091262866
              ],
              [
                86.92684237091127,
                27.89506118690973
              ],
              [
                86.92694397866136,
                27.89506124079966
              ],
              [
                86.9269440392707,
                27.894970966518596
              ],
              [
                86.92704564693993,
                27.894971020336662
              ],
              [
                86.92704558641145,
                27.895061294608748
              ],
              [
                86.92714719416153,
                27.89506134835495
              ],
              [
                86.92714725460917,
                27.894971074073883
              ],
              [
                86.92755368527712,
                27.894971288286147
              ],
              [
                86.92755362517084,
                27.895061562567214
              ],
              [
                86.92826487944839,
                27.89506193455059
              ],
              [
                86.92826493896177,
                27.894971660269523
              ],
              [
                86.92846815430923,
                27.894971765875468
              ],
              [
                86.92846821365194,
                27.8948814915944
              ],
              [
                86.9287730364171,
                27.894881649446365
              ],
              [
                86.92877309550828,
                27.894791375156313
              ],
              [
                86.92887470301582,
                27.89479142762691
              ],
              [
                86.92887482103647,
                27.894610879046812
              ],
              [
                86.92897642837333,
                27.89461093144554
              ],
              [
                86.92897636944386,
                27.89470120572661
              ],
              [
                86.92928119170595,
                27.894701362455674
              ],
              [
                86.92928107435904,
                27.89488191102679
              ],
              [
                86.92948428953581,
                27.894882015141533
              ],
              [
                86.92948434804309,
                27.894791740851485
              ],
              [
                86.92958595554164,
                27.894791792792073
              ],
              [
                86.92958601396806,
                27.894701518502025
              ],
              [
                86.92978922880349,
                27.894701622167606
              ],
              [
                86.92978928705922,
                27.894611347877557
              ],
              [
                86.92999250173294,
                27.894611451237715
              ],
              [
                86.929992559818,
                27.894521176947666
              ],
              [
                86.93019577432105,
                27.894521280002394
              ],
              [
                86.93019583223544,
                27.894431005712345
              ],
              [
                86.93060226091812,
                27.894431210932474
              ],
              [
                86.93060231850012,
                27.89434093663344
              ],
              [
                86.93080553267079,
                27.894341038789854
              ],
              [
                86.93080541784813,
                27.894521587378936
              ],
              [
                86.93090702510413,
                27.894521638349346
              ],
              [
                86.93090696778265,
                27.894611912648376
              ],
              [
                86.9310085751195,
                27.894611963537937
              ],
              [
                86.93100863236015,
                27.894521689247888
              ],
              [
                86.9316182759052,
                27.89452199303117
              ],
              [
                86.9316183893714,
                27.894341444433103
              ],
              [
                86.93171999646572,
                27.89434149480164
              ],
              [
                86.93171982651344,
                27.894612317689756
              ],
              [
                86.93182143385928,
                27.89461236798643
              ],
              [
                86.93182166011796,
                27.894251270799284
              ],
              [
                86.93192326712244,
                27.89425132101511
              ],
              [
                86.93192321064535,
                27.89434159531414
              ],
              [
                86.93202481773069,
                27.8943416454581
              ],
              [
                86.93202498691939,
                27.894070822561
              ],
              [
                86.93222820059597,
                27.89407092262434
              ],
              [
                86.93222814437043,
                27.894161196923374
              ],
              [
                86.93232975128508,
                27.894161246842753
              ],
              [
                86.93232963900465,
                27.89434179544082
              ],
              [
                86.93243124608998,
                27.894341845288334
              ],
              [
                86.93243130215383,
                27.8942515709893
              ],
              [
                86.93253290915831,
                27.894251620755966
              ],
              [
                86.93253279721027,
                27.894432169354033
              ],
              [
                86.93263440438542,
                27.894432219048834
              ],
              [
                86.93263429259908,
                27.894612767646898
              ],
              [
                86.93273589994492,
                27.894612817260853
              ],
              [
                86.93273601156059,
                27.89443226867177
              ],
              [
                86.93304083309506,
                27.894432417082438
              ],
              [
                86.93304077753426,
                27.894522691372487
              ],
              [
                86.93314238479925,
                27.894522740698978
              ],
              [
                86.93314232932829,
                27.89461301499801
              ],
              [
                86.93324393667413,
                27.894613064243657
              ],
              [
                86.93324399206425,
                27.894522789944624
              ],
              [
                86.93334559932026,
                27.89452283910942
              ],
              [
                86.93334570992084,
                27.894342290511354
              ],
              [
                86.93344731701515,
                27.894342339604286
              ],
              [
                86.93344720658526,
                27.894522888211334
              ],
              [
                86.93375202837125,
                27.894523035040965
              ],
              [
                86.93375208333916,
                27.894432760741932
              ],
              [
                86.93405690487363,
                27.894432906906815
              ],
              [
                86.93405685016623,
                27.894523181205845
              ],
              [
                86.93415845743122,
                27.894523229777754
              ],
              [
                86.93415851205778,
                27.89443295547872
              ],
              [
                86.93446333359225,
                27.894433100745285
              ],
              [
                86.93446338796727,
                27.89434282643727
              ],
              [
                86.93426017377864,
                27.894342729670747
              ],
              [
                86.93426028286108,
                27.8941621810637
              ],
              [
                86.9343618897847,
                27.894162229482895
              ],
              [
                86.93436183532883,
                27.89425250379091
              ],
              [
                86.93456504935575,
                27.894252600404716
              ],
              [
                86.93456510364095,
                27.894162326105686
              ],
              [
                86.9347683174972,
                27.89416242242305
              ],
              [
                86.93476820925919,
                27.8943429710301
              ],
              [
                86.93486981635351,
                27.894343019072
              ],
              [
                86.93486987038717,
                27.894252744772967
              ],
              [
                86.93497147740064,
                27.894252792743004
              ],
              [
                86.93497153135345,
                27.89416251843499
              ],
              [
                86.93486992442982,
                27.894162470464952
              ],
              [
                86.93486997846348,
                27.894072196156937
              ],
              [
                86.9347683716207,
                27.894072148115036
              ],
              [
                86.93476842573521,
                27.893981873807018
              ],
              [
                86.93466681897327,
                27.893981825684268
              ],
              [
                86.93466676476893,
                27.894072099992286
              ],
              [
                86.93456515792614,
                27.894072051797668
              ],
              [
                86.93456526650552,
                27.89389150318164
              ],
              [
                86.93446365983341,
                27.89389145491516
              ],
              [
                86.93446355108335,
                27.89407200353119
              ],
              [
                86.93436194424058,
                27.89407195518386
              ],
              [
                86.9343621076082,
                27.893801132259814
              ],
              [
                86.93446371419945,
                27.89380118059816
              ],
              [
                86.93446376857447,
                27.893710906290146
              ],
              [
                86.93436216206406,
                27.893710857942814
              ],
              [
                86.93436221651994,
                27.8936205836348
              ],
              [
                86.93426061009936,
                27.893620535215607
              ],
              [
                86.93426071918178,
                27.893439986590593
              ],
              [
                86.93466714419036,
                27.89344017981821
              ],
              [
                86.934667089995,
                27.89353045413521
              ],
              [
                86.93487030266547,
                27.89353055029986
              ],
              [
                86.93487024863181,
                27.893620824607876
              ],
              [
                86.93547988717324,
                27.893621111305198
              ],
              [
                86.93547994070384,
                27.893530836997183
              ],
              [
                86.93578475972303,
                27.89353097933524
              ],
              [
                86.93578481300212,
                27.89344070501824
              ],
              [
                86.93639445054642,
                27.89344098766416
              ],
              [
                86.93639450331345,
                27.893350713347164
              ],
              [
                86.93659771566054,
                27.893350806960598
              ],
              [
                86.93659761045883,
                27.893531355603578
              ],
              [
                86.93680082314727,
                27.89353144892057
              ],
              [
                86.93680087558194,
                27.893441174603574
              ],
              [
                86.93669926932306,
                27.89344112798101
              ],
              [
                86.93669937435408,
                27.89326057933803
              ],
              [
                86.93700419261867,
                27.89326071898114
              ],
              [
                86.93700414036368,
                27.89335099329814
              ],
              [
                86.93720735271076,
                27.893351086022243
              ],
              [
                86.93720740480407,
                27.89326081169626
              ],
              [
                86.9380202535456,
                27.893261179574335
              ],
              [
                86.93802020212604,
                27.893351453900316
              ],
              [
                86.93812180830407,
                27.893351499543716
              ],
              [
                86.93812185963381,
                27.893261225226716
              ],
              [
                86.93822346573099,
                27.893261270798252
              ],
              [
                86.93822336322422,
                27.893441819441232
              ],
              [
                86.9383249694921,
                27.8934418649409
              ],
              [
                86.93832502066013,
                27.89335159061492
              ],
              [
                86.93842662683817,
                27.893351636042723
              ],
              [
                86.93842657575098,
                27.893441910368704
              ],
              [
                86.93862978827772,
                27.893442000990753
              ],
              [
                86.9386296864447,
                27.893622549624748
              ],
              [
                86.93852808001513,
                27.893622504358643
              ],
              [
                86.9385281310125,
                27.893532230032662
              ],
              [
                86.93842652467276,
                27.893532184685704
              ],
              [
                86.9384262692458,
                27.893983556270697
              ],
              [
                86.93862948278765,
                27.893983646892742
              ],
              [
                86.93862938095462,
                27.89416419552674
              ],
              [
                86.93883259482884,
                27.894164285852344
              ],
              [
                86.93883269632948,
                27.893983737218345
              ],
              [
                86.94005197758052,
                27.893984272874768
              ],
              [
                86.94005187810109,
                27.894164821508763
              ],
              [
                86.93984866422687,
                27.894164732979792
              ],
              [
                86.93984856441506,
                27.894345281604807
              ],
              [
                86.94045820707078,
                27.894345546293405
              ],
              [
                86.9404583058675,
                27.89416499766839
              ],
              [
                86.94055991280909,
                27.89416504151516
              ],
              [
                86.94055976486555,
                27.894435864457172
              ],
              [
                86.94045815767242,
                27.894435820610404
              ],
              [
                86.94045810827406,
                27.89452609491842
              ],
              [
                86.94015328643417,
                27.894525962910986
              ],
              [
                86.94015323678428,
                27.894616237219005
              ],
              [
                86.93995002205666,
                27.894616148842747
              ],
              [
                86.93994997223609,
                27.89470642315076
              ],
              [
                86.93984836479144,
                27.89470637884585
              ],
              [
                86.93984841469285,
                27.894616104537835
              ],
              [
                86.93974680733803,
                27.89461606016106
              ],
              [
                86.93974675734678,
                27.894706334469078
              ],
              [
                86.93964514989314,
                27.894706290020437
              ],
              [
                86.93964494959579,
                27.895067387234533
              ],
              [
                86.93984816515884,
                27.89506747606893
              ],
              [
                86.93984811525742,
                27.895157750367964
              ],
              [
                86.94005133099115,
                27.895157838896935
              ],
              [
                86.94005128125143,
                27.89524811320495
              ],
              [
                86.94015288920814,
                27.895248157357145
              ],
              [
                86.94015283954926,
                27.895338431656178
              ],
              [
                86.94035605562435,
                27.89533851973599
              ],
              [
                86.94035600613616,
                27.895428794035023
              ],
              [
                86.94055922238194,
                27.895428881818393
              ],
              [
                86.94055917306441,
                27.895519156117427
              ],
              [
                86.94066078127264,
                27.89551919990131
              ],
              [
                86.94066068279932,
                27.895699748490394
              ],
              [
                86.94076229117823,
                27.895699792202414
              ],
              [
                86.94076214372876,
                27.89597061508155
              ],
              [
                86.94066053509833,
                27.89597057137851
              ],
              [
                86.94066043662501,
                27.896151119958606
              ],
              [
                86.94086365421825,
                27.896151207292817
              ],
              [
                86.94086360515226,
                27.89624148158287
              ],
              [
                86.94106682291618,
                27.896241568620635
              ],
              [
                86.94106657842171,
                27.896692940052915
              ],
              [
                86.94116818772589,
                27.89669298345951
              ],
              [
                86.94116794364464,
                27.89714435486484
              ],
              [
                86.94106633391826,
                27.897144311458245
              ],
              [
                86.94106628502297,
                27.897234585730327
              ],
              [
                86.94086306539953,
                27.897234498692562
              ],
              [
                86.94086296725858,
                27.897415047236727
              ],
              [
                86.94065974730277,
                27.89741495989353
              ],
              [
                86.94065964882945,
                27.897595508437696
              ],
              [
                86.94045642854127,
                27.89759542079806
              ],
              [
                86.94045652735595,
                27.897414872253893
              ],
              [
                86.94025330740013,
                27.89741478431781
              ],
              [
                86.94025360485028,
                27.89687313865836
              ],
              [
                86.9394407290964,
                27.896872783904673
              ],
              [
                86.93944062859289,
                27.897053332466804
              ],
              [
                86.93883097077362,
                27.8970530632507
              ],
              [
                86.938830869264,
                27.897233611794864
              ],
              [
                86.93862764965853,
                27.89723352146028
              ],
              [
                86.93862724225457,
                27.897955715601007
              ],
              [
                86.93883046320752,
                27.897955805944576
              ],
              [
                86.93883026017927,
                27.898316902987993
              ],
              [
                86.93903348181495,
                27.898316993026135
              ],
              [
                86.93903317826522,
                27.898858638559815
              ],
              [
                86.93923640091597,
                27.898858728301512
              ],
              [
                86.93923630006212,
                27.899039276800764
              ],
              [
                86.93943952304525,
                27.899039366246015
              ],
              [
                86.93943942254174,
                27.899219914745267
              ],
              [
                86.93923619921725,
                27.899219825300012
              ],
              [
                86.93923609837238,
                27.89940037379028
              ],
              [
                86.93903287471551,
                27.8994002840396
              ],
              [
                86.93903257114782,
                27.899941929492435
              ],
              [
                86.93882934648484,
                27.89994183944531
              ],
              [
                86.93882914342964,
                27.90030293638093
              ],
              [
                86.93862591808394,
                27.900302846028378
              ],
              [
                86.93862581622398,
                27.900483394491694
              ],
              [
                86.93882904190205,
                27.900483484844244
              ],
              [
                86.93882899113827,
                27.900573759071413
              ],
              [
                86.93893060406263,
                27.900573804130907
              ],
              [
                86.93893055337969,
                27.900664078367058
              ],
              [
                86.93882894037446,
                27.90066403329858
              ],
              [
                86.93882883883789,
                27.900844581752914
              ],
              [
                86.93893045202277,
                27.900844626812408
              ],
              [
                86.93893035065688,
                27.901025175266742
              ],
              [
                86.93903196400348,
                27.901025220254372
              ],
              [
                86.93903186280825,
                27.901205768699725
              ],
              [
                86.93882863577372,
                27.901205678643617
              ],
              [
                86.93882853424613,
                27.901386227079986
              ],
              [
                86.93903176161304,
                27.90138631713609
              ],
              [
                86.93903166041783,
                27.90156686557246
              ],
              [
                86.93882843270954,
                27.90156677551635
              ],
              [
                86.93882833117297,
                27.901747323943738
              ],
              [
                86.93862510313232,
                27.901747233591184
              ],
              [
                86.93862520501025,
                27.9015666851638
              ],
              [
                86.9382187496027,
                27.90156650356038
              ],
              [
                86.93821864706001,
                27.90174705198777
              ],
              [
                86.93760896294704,
                27.90174677732787
              ],
              [
                86.93760906650483,
                27.901566228900485
              ],
              [
                86.93679615571665,
                27.901565858498145
              ],
              [
                86.9367962606309,
                27.901385310070758
              ],
              [
                86.93598335120817,
                27.901384934871416
              ],
              [
                86.93598345746089,
                27.90120438644403
              ],
              [
                86.93557700343673,
                27.90120419705222
              ],
              [
                86.9355771103632,
                27.90102364861585
              ],
              [
                86.93496743033757,
                27.901023362277854
              ],
              [
                86.93496753827914,
                27.900842813841486
              ],
              [
                86.93395140660988,
                27.900842330628713
              ],
              [
                86.9339515162313,
                27.900661782192344
              ],
              [
                86.93252893430183,
                27.900661093103672
              ],
              [
                86.93252904628581,
                27.900480544667303
              ],
              [
                86.93110646677282,
                27.90047984090016
              ],
              [
                86.93110658111937,
                27.900299292463792
              ],
              [
                86.93009045460644,
                27.90029878079239
              ],
              [
                86.93009057063284,
                27.90011823235602
              ],
              [
                86.9284647709754,
                27.9001173980996
              ],
              [
                86.92846465224505,
                27.900297946526987
              ],
              [
                86.92663562467271,
                27.900296985060137
              ],
              [
                86.92663550290608,
                27.900477533469555
              ],
              [
                86.92460324679003,
                27.900476436698458
              ],
              [
                86.92460312164573,
                27.900656985098895
              ],
              [
                86.92318054006661,
                27.900656199522178
              ],
              [
                86.92318041256871,
                27.90083674791363
              ],
              [
                86.92135137615695,
                27.90083571629734
              ],
              [
                86.92135124562276,
                27.90101626467981
              ],
              [
                86.91992865945325,
                27.90101544552407
              ],
              [
                86.9199285265475,
                27.90119599388857
              ],
              [
                86.91830271116054,
                27.901195039725028
              ],
              [
                86.91830257555985,
                27.901375588080548
              ],
              [
                86.91769289380046,
                27.90137522532287
              ],
              [
                86.91769275718468,
                27.90155577367839
              ],
              [
                86.91728630201068,
                27.90155553033376
              ],
              [
                86.9172860960719,
                27.90182635284458
              ],
              [
                86.91708286797736,
                27.9018262307276
              ],
              [
                86.91708293679729,
                27.901735956554333
              ],
              [
                86.91667648094955,
                27.90173571142206
              ],
              [
                86.91667634264493,
                27.901916259750628
              ],
              [
                86.91626988614142,
                27.901916013414613
              ],
              [
                86.91626974715408,
                27.902096561743182
              ],
              [
                86.91566006138822,
                27.902096189984384
              ],
              [
                86.91565992139476,
                27.90227673830397
              ],
              [
                86.91545669246479,
                27.90227661378849
              ],
              [
                86.91545662229737,
                27.902366887943792
              ],
              [
                86.9152533932057,
                27.902366763122885
              ],
              [
                86.91525346354378,
                27.90227648896758
              ],
              [
                86.91484700570179,
                27.902276238427447
              ],
              [
                86.91484771240643,
                27.901373496784597
              ],
              [
                86.914339644326,
                27.901373181934073
              ],
              [
                86.91433978650237,
                27.901192633596523
              ],
              [
                86.91444139994778,
                27.901192696712155
              ],
              [
                86.9144416839681,
                27.90083160001908
              ],
              [
                86.91423845775104,
                27.90083147370697
              ],
              [
                86.91423860009809,
                27.90065092536043
              ],
              [
                86.91383214833768,
                27.90065067183789
              ],
              [
                86.91383229134948,
                27.90047012348237
              ],
              [
                86.91240971260004,
                27.900469226730156
              ],
              [
                86.91241000335775,
                27.900108130019117
              ],
              [
                86.91220677849714,
                27.900108000715615
              ],
              [
                86.9122070699196,
                27.89974690398661
              ],
              [
                86.91241029410648,
                27.89974703329011
              ],
              [
                86.9124101487321,
                27.899927581654616
              ],
              [
                86.91281659777061,
                27.899927839363304
              ],
              [
                86.91281732125579,
                27.89902509745994
              ],
              [
                86.91322376692561,
                27.899025353964888
              ],
              [
                86.91322391094351,
                27.898844805564455
              ],
              [
                86.91342713345054,
                27.89884493336777
              ],
              [
                86.91342742080363,
                27.898483836557915
              ],
              [
                86.91322419897932,
                27.89848370876358
              ],
              [
                86.91322448700616,
                27.89812261193576
              ],
              [
                86.91383415046685,
                27.898122994420444
              ],
              [
                86.91383400746405,
                27.898303542838846
              ],
              [
                86.91403722895598,
                27.89830366973486
              ],
              [
                86.91403708629453,
                27.898484218153264
              ],
              [
                86.91424030812782,
                27.898484344752838
              ],
              [
                86.91424073510605,
                27.89794269948865
              ],
              [
                86.91444395592424,
                27.897942825782795
              ],
              [
                86.91444409791197,
                27.89776227735541
              ],
              [
                86.9148505388836,
                27.897762529045387
              ],
              [
                86.91485068019757,
                27.89758198060902
              ],
              [
                86.91525712049547,
                27.897582231104234
              ],
              [
                86.91525740176697,
                27.89722113420455
              ],
              [
                86.91485096280756,
                27.897220883718315
              ],
              [
                86.91485117477404,
                27.8969500610458
              ],
              [
                86.9150543937417,
                27.896950186432644
              ],
              [
                86.91505432325988,
                27.897040460659813
              ],
              [
                86.91515593282456,
                27.897040523245437
              ],
              [
                86.91515600322553,
                27.89695024901827
              ],
              [
                86.91525761270937,
                27.89695031153203
              ],
              [
                86.91525747207811,
                27.897130859986365
              ],
              [
                86.91535908173262,
                27.89713092241928
              ],
              [
                86.91535929243247,
                27.896860099728794
              ],
              [
                86.91546090183546,
                27.89686016208984
              ],
              [
                86.9154604809478,
                27.897401807452844
              ],
              [
                86.91586692058992,
                27.897402056142447
              ],
              [
                86.91586706020608,
                27.897221507688112
              ],
              [
                86.91607027969478,
                27.897221631583758
              ],
              [
                86.91607034933217,
                27.89713135735659
              ],
              [
                86.9164767879682,
                27.897131604249562
              ],
              [
                86.91647685727321,
                27.897041330022397
              ],
              [
                86.91668007642055,
                27.89704145301074
              ],
              [
                86.91668021468924,
                27.896860904547424
              ],
              [
                86.9167818241012,
                27.89686096593829
              ],
              [
                86.91678168599421,
                27.897041514401607
              ],
              [
                86.91688329556787,
                27.897041575711626
              ],
              [
                86.91688336454052,
                27.896951301475475
              ],
              [
                86.91708658352614,
                27.89695142387093
              ],
              [
                86.91708651472418,
                27.89704169810708
              ],
              [
                86.9172897338805,
                27.897041820206095
              ],
              [
                86.9172898025028,
                27.896951545969944
              ],
              [
                86.91739141199561,
                27.89695160690267
              ],
              [
                86.91739148054606,
                27.89686133266652
              ],
              [
                86.9178995275969,
                27.89686163622522
              ],
              [
                86.91789959571615,
                27.89677136198907
              ],
              [
                86.9180012050383,
                27.89677142247264
              ],
              [
                86.91800127307668,
                27.89668114823649
              ],
              [
                86.91840771005081,
                27.89668138942516
              ],
              [
                86.91840784545388,
                27.896500840943876
              ],
              [
                86.91830623637429,
                27.896500780756753
              ],
              [
                86.91830630416116,
                27.896410506520603
              ]
            ],
            [
              [
                86.92084679171626,
                27.896050891670455
              ],
              [
                86.92084672604044,
                27.896141165924572
              ],
              [
                86.92064350855499,
                27.89614104907172
              ],
              [
                86.92064357439251,
                27.896050774826588
              ],
              [
                86.92084679171626,
                27.896050891670455
              ]
            ],
            [
              [
                86.92389555682992,
                27.895330414327013
              ],
              [
                86.92389549368733,
                27.895420688590114
              ],
              [
                86.92379388560487,
                27.895420632454393
              ],
              [
                86.92379394883729,
                27.89533035818231
              ],
              [
                86.92389555682992,
                27.895330414327013
              ]
            ],
            [
              [
                86.924200632381,
                27.894969485196693
              ],
              [
                86.9244038477015,
                27.89496959680338
              ],
              [
                86.92440372225177,
                27.895150145347547
              ],
              [
                86.92430211442982,
                27.895150089580135
              ],
              [
                86.92430217723104,
                27.895059815308052
              ],
              [
                86.92420056948994,
                27.895059759468776
              ],
              [
                86.924200632381,
                27.894969485196693
              ]
            ],
            [
              [
                86.92887470301582,
                27.89479142762691
              ],
              [
                86.92897631051437,
                27.894791480016657
              ],
              [
                86.92897625159387,
                27.894881754306706
              ],
              [
                86.92887464400549,
                27.894881701907977
              ],
              [
                86.92887470301582,
                27.89479142762691
              ]
            ],
            [
              [
                86.93253279721027,
                27.894432169354033
              ],
              [
                86.93253268526222,
                27.894612717952096
              ],
              [
                86.93243107791638,
                27.894612668176446
              ],
              [
                86.9324311900351,
                27.894432119587364
              ],
              [
                86.93253279721027,
                27.894432169354033
              ]
            ],
            [
              [
                86.93456504935575,
                27.894252600404716
              ],
              [
                86.93466665636923,
                27.894252648608315
              ],
              [
                86.93466654795155,
                27.89443319720638
              ],
              [
                86.9345649407764,
                27.894433149011764
              ],
              [
                86.93456504935575,
                27.894252600404716
              ]
            ],
            [
              [
                86.92105000904002,
                27.89605100821788
              ],
              [
                86.92105007454516,
                27.895960733963765
              ],
              [
                86.92115168312169,
                27.895960792129678
              ],
              [
                86.92115161769739,
                27.896051066383794
              ],
              [
                86.92105000904002,
                27.89605100821788
              ]
            ],
            [
              [
                86.92125342237615,
                27.895780301697528
              ],
              [
                86.92125348771063,
                27.89569002744341
              ],
              [
                86.92135509603563,
                27.895690085456614
              ],
              [
                86.92135503078201,
                27.89578035971073
              ],
              [
                86.92125342237615,
                27.895780301697528
              ]
            ],
            [
              [
                86.92348918833436,
                27.895239915053903
              ],
              [
                86.9234892518183,
                27.89514964078182
              ],
              [
                86.92359085964024,
                27.89514969714212
              ],
              [
                86.92359079624613,
                27.895239971414203
              ],
              [
                86.92348918833436,
                27.895239915053903
              ]
            ],
            [
              [
                86.92501349366302,
                27.894969929799874
              ],
              [
                86.92501355587135,
                27.89487965552779
              ],
              [
                86.92521677103015,
                27.894879765921758
              ],
              [
                86.92521670898353,
                27.894970040202825
              ],
              [
                86.92501349366302,
                27.894969929799874
              ]
            ],
            [
              [
                86.92552153197326,
                27.894970205241307
              ],
              [
                86.92552159375938,
                27.894879930969225
              ],
              [
                86.9256232013388,
                27.894879985829338
              ],
              [
                86.92562313963352,
                27.894970260110405
              ],
              [
                86.92552153197326,
                27.894970205241307
              ]
            ],
            [
              [
                86.93131334015892,
                27.894702390056494
              ],
              [
                86.93131339714805,
                27.894612115766446
              ],
              [
                86.9314150044849,
                27.894612166359565
              ],
              [
                86.93141494758561,
                27.894702440658595
              ],
              [
                86.93131334015892,
                27.894702390056494
              ]
            ],
            [
              [
                86.93507313828607,
                27.894162566333158
              ],
              [
                86.93507319214906,
                27.894072292025143
              ],
              [
                86.93517479899184,
                27.894072339851448
              ],
              [
                86.93517474520971,
                27.894162614159463
              ],
              [
                86.93507313828607,
                27.894162566333158
              ]
            ],
            [
              [
                86.93588615330577,
                27.893892123881567
              ],
              [
                86.93588625968427,
                27.893711575256553
              ],
              [
                86.93598786619468,
                27.89371162248099
              ],
              [
                86.93598775997788,
                27.893892171106003
              ],
              [
                86.93588615330577,
                27.893892123881567
              ]
            ],
            [
              [
                86.93608941967753,
                27.893801943941572
              ],
              [
                86.93608947270508,
                27.893711669624572
              ],
              [
                86.93619107921549,
                27.893711716696295
              ],
              [
                86.93619102627777,
                27.893801991013294
              ],
              [
                86.93608941967753,
                27.893801943941572
              ]
            ],
            [
              [
                86.93608952572365,
                27.893621395307576
              ],
              [
                86.93608957875121,
                27.893531120990577
              ],
              [
                86.93619118509093,
                27.893531168062296
              ],
              [
                86.93619113215321,
                27.893621442379295
              ],
              [
                86.93608952572365,
                27.893621395307576
              ]
            ],
            [
              [
                86.9365969266253,
                27.894704921625745
              ],
              [
                86.93659697923064,
                27.894614647326716
              ],
              [
                86.93669858658548,
                27.894614694021143
              ],
              [
                86.93669863910996,
                27.89452441972211
              ],
              [
                86.93680024637496,
                27.894524466344674
              ],
              [
                86.93680035124429,
                27.894343917728644
              ],
              [
                86.93690195834759,
                27.89434396427934
              ],
              [
                86.93690206304623,
                27.89416341566331
              ],
              [
                86.93700366997885,
                27.89416346213316
              ],
              [
                86.93700372225182,
                27.894073187825143
              ],
              [
                86.93720693594636,
                27.894073280549247
              ],
              [
                86.93720683175079,
                27.89425382916528
              ],
              [
                86.93710522473731,
                27.89425378283916
              ],
              [
                86.93710512037104,
                27.89443433145519
              ],
              [
                86.93720672755519,
                27.89443437778131
              ],
              [
                86.93720667546188,
                27.894524652089327
              ],
              [
                86.93730828273586,
                27.894524698334596
              ],
              [
                86.9373082307234,
                27.89461497264261
              ],
              [
                86.9372066233596,
                27.89461492639734
              ],
              [
                86.9372065712663,
                27.89470520069637
              ],
              [
                86.93710496382164,
                27.894705154370254
              ],
              [
                86.93710491164748,
                27.894795428678268
              ],
              [
                86.93669848154546,
                27.89479524262819
              ],
              [
                86.93669853406996,
                27.894704968320177
              ],
              [
                86.9365969266253,
                27.894704921625745
              ]
            ],
            [
              [
                86.93659740005542,
                27.89389245286259
              ],
              [
                86.93659750525713,
                27.893711904237577
              ],
              [
                86.93669911176754,
                27.893711950932005
              ],
              [
                86.93669905925202,
                27.893802225249004
              ],
              [
                86.93680066585226,
                27.893802271871568
              ],
              [
                86.9368006134176,
                27.893892546179583
              ],
              [
                86.93659740005542,
                27.89389245286259
              ]
            ],
            [
              [
                86.9378166802285,
                27.89389300829093
              ],
              [
                86.93781678340899,
                27.893712459656932
              ],
              [
                86.93791838992837,
                27.893712505453045
              ],
              [
                86.93791828691856,
                27.893893054087044
              ],
              [
                86.9378166802285,
                27.89389300829093
              ]
            ],
            [
              [
                86.93801989359964,
                27.893893099811294
              ],
              [
                86.93801999643878,
                27.893712551177295
              ],
              [
                86.93812160295818,
                27.893712596829676
              ],
              [
                86.93812150028074,
                27.893893145463675
              ],
              [
                86.93801989359964,
                27.893893099811294
              ]
            ],
            [
              [
                86.93842575839186,
                27.894886299359836
              ],
              [
                86.93842580947906,
                27.89479602505182
              ],
              [
                86.93862902453006,
                27.894796115682848
              ],
              [
                86.93862897361356,
                27.89488638998188
              ],
              [
                86.93842575839186,
                27.894886299359836
              ]
            ],
            [
              [
                86.93883213808941,
                27.8949767546155
              ],
              [
                86.93883223959006,
                27.89479620600845
              ],
              [
                86.93893384711556,
                27.894796251058963
              ],
              [
                86.9389337457856,
                27.89497679966601
              ],
              [
                86.93883213808941,
                27.8949767546155
              ]
            ],
            [
              [
                86.93913701168125,
                27.894886615243422
              ],
              [
                86.93913711266985,
                27.894706066636374
              ],
              [
                86.93923872011452,
                27.89470611146231
              ],
              [
                86.93923861928761,
                27.894886660069353
              ],
              [
                86.93913701168125,
                27.894886615243422
              ]
            ],
            [
              [
                86.93934022690294,
                27.894886704823424
              ],
              [
                86.93934032755918,
                27.894706156216376
              ],
              [
                86.93944193500383,
                27.894706200889594
              ],
              [
                86.93944183451828,
                27.894886749496642
              ],
              [
                86.93934022690294,
                27.894886704823424
              ]
            ],
            [
              [
                86.93964404819029,
                27.896692324482366
              ],
              [
                86.93964414835244,
                27.896511775920235
              ],
              [
                86.93984736661943,
                27.896511864754633
              ],
              [
                86.93984726679864,
                27.89669241332575
              ],
              [
                86.93964404819029,
                27.896692324482366
              ]
            ],
            [
              [
                86.93039881559297,
                27.89479220563981
              ],
              [
                86.93050042310051,
                27.894792256906666
              ],
              [
                86.93050053842622,
                27.894611708326565
              ],
              [
                86.93060214576307,
                27.89461175951257
              ],
              [
                86.93060197303502,
                27.894882582382717
              ],
              [
                86.93039875784926,
                27.894882479920877
              ],
              [
                86.93039881559297,
                27.89479220563981
              ]
            ],
            [
              [
                86.93202476133446,
                27.89443191975713
              ],
              [
                86.93202459214575,
                27.894702742645244
              ],
              [
                86.93192298471907,
                27.894702692501284
              ],
              [
                86.93192315415929,
                27.89443186961317
              ],
              [
                86.93202476133446,
                27.89443191975713
              ]
            ],
            [
              [
                86.9388323410907,
                27.894615657401403
              ],
              [
                86.93883239183653,
                27.894525383093388
              ],
              [
                86.9389339991105,
                27.8945254281439
              ],
              [
                86.93893394844552,
                27.894615702451915
              ],
              [
                86.9388323410907,
                27.894615657401403
              ]
            ],
            [
              [
                86.93039881559297,
                27.89479220563981
              ],
              [
                86.93029720808543,
                27.89479215429211
              ],
              [
                86.93029726591897,
                27.89470188000206
              ],
              [
                86.93039887333667,
                27.89470193134976
              ],
              [
                86.93039881559297,
                27.89479220563981
              ]
            ],
            [
              [
                86.9388323410907,
                27.894615657401403
              ],
              [
                86.9388322903359,
                27.894705931700436
              ],
              [
                86.93873068289123,
                27.89470588657806
              ],
              [
                86.9387307337269,
                27.894615612270044
              ],
              [
                86.9388323410907,
                27.894615657401403
              ]
            ],
            [
              [
                86.93202476133446,
                27.89443191975713
              ],
              [
                86.93202481773069,
                27.8943416454581
              ],
              [
                86.932126424825,
                27.89434169553019
              ],
              [
                86.93212636850961,
                27.894431969829224
              ],
              [
                86.93202476133446,
                27.89443191975713
              ]
            ]
          ],
          [
            [
              [
                86.91820469517141,
                27.896410446261612
              ],
              [
                86.91820462730368,
                27.896500720497762
              ],
              [
                86.91800140915349,
                27.896500599755207
              ],
              [
                86.9180014771919,
                27.89641032551007
              ],
              [
                86.91789986820213,
                27.896410265026503
              ],
              [
                86.91789980008288,
                27.89650053927164
              ],
              [
                86.91779819101227,
                27.89650047870722
              ],
              [
                86.91779832742145,
                27.89631993022594
              ],
              [
                86.91769671851254,
                27.896319869589657
              ],
              [
                86.91769665022261,
                27.89641014383479
              ],
              [
                86.91759504124184,
                27.896410083126643
              ],
              [
                86.91759517798339,
                27.896229534636376
              ],
              [
                86.91810322208777,
                27.89622983743151
              ],
              [
                86.91810308618165,
                27.896410385921776
              ],
              [
                86.91820469517141,
                27.896410446261612
              ]
            ]
          ],
          [
            [
              [
                86.91789980008288,
                27.89650053927164
              ],
              [
                86.91800140915349,
                27.896500599755207
              ],
              [
                86.91800134111509,
                27.896590873991357
              ],
              [
                86.91789973196363,
                27.89659081350779
              ],
              [
                86.91789980008288,
                27.89650053927164
              ]
            ]
          ],
          [
            [
              [
                86.91830630416116,
                27.896410506520603
              ],
              [
                86.91820469517141,
                27.896410446261612
              ],
              [
                86.91820489877456,
                27.896139623526214
              ],
              [
                86.9183065075128,
                27.8961396837852
              ],
              [
                86.91830630416116,
                27.896410506520603
              ]
            ]
          ],
          [
            [
              [
                86.92542029556876,
                27.894428504622933
              ],
              [
                86.92542023369279,
                27.894518778903997
              ],
              [
                86.92531862645475,
                27.89451872389117
              ],
              [
                86.92531868841155,
                27.894428449610103
              ],
              [
                86.92542029556876,
                27.894428504622933
              ]
            ]
          ],
          [
            [
              [
                86.92542023369279,
                27.894518778903997
              ],
              [
                86.92562344817786,
                27.894518888705075
              ],
              [
                86.9256233864636,
                27.894609162986143
              ],
              [
                86.92542017181684,
                27.894609053185064
              ],
              [
                86.92542023369279,
                27.894518778903997
              ]
            ]
          ],
          [
            [
              [
                86.92643636714969,
                27.89442905061896
              ],
              [
                86.92663958147307,
                27.894429158928837
              ],
              [
                86.92663945974236,
                27.89460970749995
              ],
              [
                86.92653785241448,
                27.894609653385437
              ],
              [
                86.9265379133562,
                27.89451937909539
              ],
              [
                86.92643630611815,
                27.894519324909012
              ],
              [
                86.92643636714969,
                27.89442905061896
              ]
            ]
          ],
          [
            [
              [
                86.92785892725908,
                27.894339528155925
              ],
              [
                86.92765571310639,
                27.89433942165166
              ],
              [
                86.92765565308096,
                27.894429695941714
              ],
              [
                86.92785886741332,
                27.894429802445973
              ],
              [
                86.92785880755856,
                27.894520076736022
              ],
              [
                86.92775720031155,
                27.894520023519824
              ],
              [
                86.92775708043136,
                27.89470057209094
              ],
              [
                86.92765547301366,
                27.89470051880288
              ],
              [
                86.92765541299721,
                27.894790793083942
              ],
              [
                86.92745219799112,
                27.894790686283237
              ],
              [
                86.92745225818723,
                27.89470041199319
              ],
              [
                86.9272490433608,
                27.894700304887056
              ],
              [
                86.9272491640764,
                27.894519756315944
              ],
              [
                86.92674112785025,
                27.89451948725255
              ],
              [
                86.92674118863026,
                27.8944292129625
              ],
              [
                86.92663958147307,
                27.894429158928837
              ],
              [
                86.92663964233392,
                27.894338884638785
              ],
              [
                86.92674124941027,
                27.89433893867245
              ],
              [
                86.9267413709703,
                27.894158390101335
              ],
              [
                86.92694458478164,
                27.894158497953068
              ],
              [
                86.92694464539096,
                27.894068223654035
              ],
              [
                86.92704625221579,
                27.894068277472105
              ],
              [
                86.92704607063932,
                27.89433910034225
              ],
              [
                86.92714767771567,
                27.89433915407947
              ],
              [
                86.92714773815432,
                27.894248879789423
              ],
              [
                86.92724934514982,
                27.89424893345478
              ],
              [
                86.92724940550762,
                27.89415865916473
              ],
              [
                86.92714779860195,
                27.894158605499374
              ],
              [
                86.9271478590406,
                27.894068331209326
              ],
              [
                86.92755428633988,
                27.894068545412605
              ],
              [
                86.92755422623361,
                27.894158819702653
              ],
              [
                86.92745261932794,
                27.894158766261878
              ],
              [
                86.92745255914082,
                27.89424904056091
              ],
              [
                86.92765577312284,
                27.894249147361613
              ],
              [
                86.92765583314825,
                27.894158873071564
              ],
              [
                86.92775744005392,
                27.894158926359626
              ],
              [
                86.92775749998953,
                27.894068652060596
              ],
              [
                86.92785910681434,
                27.89406870527679
              ],
              [
                86.92785916666908,
                27.893978430986742
              ],
              [
                86.928163986901,
                27.893978590177195
              ],
              [
                86.92816392729777,
                27.894068864467243
              ],
              [
                86.92806232047296,
                27.89406881148461
              ],
              [
                86.92806226078889,
                27.894159085774657
              ],
              [
                86.92785904696858,
                27.894158979575824
              ],
              [
                86.92785892725908,
                27.894339528155925
              ]
            ]
          ],
          [
            [
              [
                86.92785892725908,
                27.894339528155925
              ],
              [
                86.92796053434441,
                27.894339581291273
              ],
              [
                86.92796047457051,
                27.894429855581322
              ],
              [
                86.92785886741332,
                27.894429802445973
              ],
              [
                86.92785892725908,
                27.894339528155925
              ]
            ]
          ],
          [
            [
              [
                86.93273601156059,
                27.89443226867177
              ],
              [
                86.93263440438542,
                27.894432219048834
              ],
              [
                86.9326344602786,
                27.8943419447498
              ],
              [
                86.93273606736393,
                27.894341994372738
              ],
              [
                86.93273601156059,
                27.89443226867177
              ]
            ]
          ],
          [
            [
              [
                86.93324399206425,
                27.894522789944624
              ],
              [
                86.93314238479925,
                27.894522740698978
              ],
              [
                86.93314244027022,
                27.894432466399948
              ],
              [
                86.93324404744538,
                27.89443251564559
              ],
              [
                86.93324399206425,
                27.894522789944624
              ]
            ]
          ]
        ]
      },
      "id": "+9395+1463",
      "properties": {
        "area_m2": 1660790.8353295238,
        "count": 16569,
        "image_id": "COPERNICUS/S2_SR_HARMONIZED/20211123T045121_20211123T045119_T45RVL",
        "lake_id": "imja-tsho",
        "observed_at": "2021-11-23T05:01:04.668000Z",
        "water": 1
      }
    }
  ]
}
