{
  "type": "FeatureCollection",
  "features": [
    {
      "type": "Feature",
      "geometry": {
        "geodesic": false,
        "type": "MultiPolygon",
        "coordinates": [
          [
            [
              [
                86.91362906581513,
                27.900469996271944
              ],
              [
                86.91362892246197,
                27.900650544627464
              ],
              [
                86.91342569658626,
                27.900650417120595
              ],
              [
                86.91342584027178,
                27.900469868765075
              ],
              [
                86.91362906581513,
                27.900469996271944
              ]
            ]
          ],
          [
            [
              [
                86.92135516128926,
                27.895599811193513
              ],
              [
                86.92125355304509,
                27.895599753180313
              ],
              [
                86.92125361838855,
                27.895509478926197
              ],
              [
                86.92115201022524,
                27.89550942084113
              ],
              [
                86.92115194480992,
                27.895599695095246
              ],
              [
                86.92105033656576,
                27.895599636938314
              ],
              [
                86.92105040207092,
                27.895509362675217
              ],
              [
                86.9209487939166,
                27.895509304446417
              ],
              [
                86.92094885950259,
                27.89541903018332
              ],
              [
                86.92155850793446,
                27.89541937846914
              ],
              [
                86.92155844285152,
                27.895509652732237
              ],
              [
                86.92135522654287,
                27.895509536930415
              ],
              [
                86.92135516128926,
                27.895599811193513
              ]
            ]
          ],
          [
            [
              [
                86.93720250687473,
                27.901746592724077
              ],
              [
                86.93720245476345,
                27.90183686693328
              ],
              [
                86.93699922656111,
                27.901836774182225
              ],
              [
                86.93699927884306,
                27.901746499973026
              ],
              [
                86.93720250687473,
                27.901746592724077
              ]
            ]
          ],
          [
            [
              [
                86.92176146442338,
                27.89578059100895
              ],
              [
                86.92196468124408,
                27.895780706208903
              ],
              [
                86.92196455175193,
                27.895961254726117
              ],
              [
                86.92216776891398,
                27.895961369620643
              ],
              [
                86.92216789806477,
                27.895780821103425
              ],
              [
                86.92277754854481,
                27.895781164008337
              ],
              [
                86.92277767668949,
                27.895600615482138
              ],
              [
                86.92399697564633,
                27.895601293189152
              ],
              [
                86.9239971017698,
                27.895420744653972
              ],
              [
                86.9248099664205,
                27.895421190460898
              ],
              [
                86.92481009118751,
                27.895240641925714
              ],
              [
                86.92582617033226,
                27.89524119244027
              ],
              [
                86.92582629341942,
                27.89506064388712
              ],
              [
                86.92765523292093,
                27.89506161592714
              ],
              [
                86.92765511287907,
                27.89524216448927
              ],
              [
                86.92785832872059,
                27.89524227099353
              ],
              [
                86.92785844843009,
                27.895061722440385
              ],
              [
                86.9296873880394,
                27.895062667521962
              ],
              [
                86.92968750471259,
                27.894882118950846
              ],
              [
                86.93029715025189,
                27.894882428582157
              ],
              [
                86.93029703459379,
                27.895062977153273
              ],
              [
                86.93050025011193,
                27.89506307976783
              ],
              [
                86.93050036543765,
                27.894882531196714
              ],
              [
                86.93111001099491,
                27.894882837225783
              ],
              [
                86.93111023961616,
                27.894521740065585
              ],
              [
                86.93131345413717,
                27.894521841476397
              ],
              [
                86.93131334015892,
                27.894702390056494
              ],
              [
                86.93232941442582,
                27.894702892627965
              ],
              [
                86.93232952671524,
                27.894522344038883
              ],
              [
                86.93243113397125,
                27.894522393886398
              ],
              [
                86.93243107791638,
                27.894612668176446
              ],
              [
                86.93253268526222,
                27.894612717952096
              ],
              [
                86.93253262927921,
                27.894702992242145
              ],
              [
                86.93273584414158,
                27.894703091559883
              ],
              [
                86.93273595575725,
                27.8945225429708
              ],
              [
                86.93314238479925,
                27.894522740698978
              ],
              [
                86.93314227385731,
                27.89470328928806
              ],
              [
                86.93334548871968,
                27.894703387707484
              ],
              [
                86.93334559932026,
                27.89452283910942
              ],
              [
                86.93476810101221,
                27.894523519637147
              ],
              [
                86.93476820925919,
                27.8943429710301
              ],
              [
                86.93497142344782,
                27.894343067051018
              ],
              [
                86.93497131555118,
                27.89452361564908
              ],
              [
                86.93537774461115,
                27.89452380679261
              ],
              [
                86.93537763737926,
                27.894704355390672
              ],
              [
                86.9365969266253,
                27.894704921625745
              ],
              [
                86.9365968214236,
                27.894885470223812
              ],
              [
                86.9378161127268,
                27.894886025679103
              ],
              [
                86.93781600953731,
                27.895066574277166
              ],
              [
                86.93801922510036,
                27.89506666580651
              ],
              [
                86.93801932794848,
                27.894886117199462
              ],
              [
                86.93822254317017,
                27.894886208432364
              ],
              [
                86.93822244065443,
                27.895066757030428
              ],
              [
                86.93944173403274,
                27.89506729810369
              ],
              [
                86.93944163353821,
                27.89524784671074
              ],
              [
                86.93984806534702,
                27.895248024666994
              ],
              [
                86.93984816515884,
                27.89506747606893
              ],
              [
                86.94005138073086,
                27.895067564597902
              ],
              [
                86.94005128125143,
                27.89524811320495
              ],
              [
                86.94025449715585,
                27.895248201437475
              ],
              [
                86.94025439801777,
                27.895428750035542
              ],
              [
                86.94045761426354,
                27.895428837971625
              ],
              [
                86.94045751545784,
                27.895609386560707
              ],
              [
                86.94066073203598,
                27.895609474200345
              ],
              [
                86.94066063357165,
                27.895790022789427
              ],
              [
                86.9407622420314,
                27.895790066492467
              ],
              [
                86.94076214372876,
                27.89597061508155
              ],
              [
                86.94086375235919,
                27.89597065871272
              ],
              [
                86.94086355608628,
                27.896331755872918
              ],
              [
                86.94106677402088,
                27.896331842910683
              ],
              [
                86.94106628502297,
                27.897234585730327
              ],
              [
                86.94086306539953,
                27.897234498692562
              ],
              [
                86.94086286911764,
                27.897595595780892
              ],
              [
                86.94065964882945,
                27.897595508437696
              ],
              [
                86.94065945187383,
                27.897956605517045
              ],
              [
                86.94045623090291,
                27.897956517868423
              ],
              [
                86.94045613208823,
                27.898137066403606
              ],
              [
                86.94025291078495,
                27.89813697845854
              ],
              [
                86.94025281162891,
                27.898317526984737
              ],
              [
                86.9398463683486,
                27.89831735019629
              ],
              [
                86.93984616868904,
                27.89867844722174
              ],
              [
                86.93943972407025,
                27.898678269238534
              ],
              [
                86.93943952304525,
                27.899039366246015
              ],
              [
                86.93923630006212,
                27.899039276800764
              ],
              [
                86.93923609837238,
                27.89940037379028
              ],
              [
                86.93903287471551,
                27.8994002840396
              ],
              [
                86.93903246996159,
                27.900122477964736
              ],
              [
                86.93882924495725,
                27.900122387917612
              ],
              [
                86.93882873731029,
                27.901025130198263
              ],
              [
                86.93903196400348,
                27.901025220254372
              ],
              [
                86.93903176161304,
                27.90138631713609
              ],
              [
                86.93923498897995,
                27.901386406886772
              ],
              [
                86.93923488811711,
                27.90156695532314
              ],
              [
                86.93943811582538,
                27.901567044777376
              ],
              [
                86.9394380153039,
                27.901747593213745
              ],
              [
                86.93923478726325,
                27.90174750375951
              ],
              [
                86.93923468640041,
                27.901928052177908
              ],
              [
                86.9390314580184,
                27.90192796242723
              ],
              [
                86.93903155921362,
                27.901747413999843
              ],
              [
                86.93720250687473,
                27.901746592724077
              ],
              [
                86.93720261110624,
                27.901566044296693
              ],
              [
                86.93638970033604,
                27.901565671495852
              ],
              [
                86.93638980591503,
                27.901385123068465
              ],
              [
                86.93598335120817,
                27.901384934871416
              ],
              [
                86.93598345746089,
                27.90120438644403
              ],
              [
                86.93537377642016,
                27.901204101902664
              ],
              [
                86.93537388368799,
                27.90102355347528
              ],
              [
                86.93476420366235,
                27.901023266238965
              ],
              [
                86.93476431194529,
                27.900842717802597
              ],
              [
                86.93395140660988,
                27.900842330628713
              ],
              [
                86.9339515162313,
                27.900661782192344
              ],
              [
                86.93212248233482,
                27.900660893524964
              ],
              [
                86.93212259499253,
                27.900480345088596
              ],
              [
                86.93110646677282,
                27.90047984090016
              ],
              [
                86.93110658111937,
                27.900299292463792
              ],
              [
                86.93009045460644,
                27.90029878079239
              ],
              [
                86.93009057063284,
                27.90011823235602
              ],
              [
                86.92968412071399,
                27.900118025590793
              ],
              [
                86.92968400400487,
                27.90029857402716
              ],
              [
                86.92907432812048,
                27.900298261620055
              ],
              [
                86.92907444583571,
                27.90011771319267
              ],
              [
                86.92866799592584,
                27.90011750342707
              ],
              [
                86.92866787753687,
                27.900298051863437
              ],
              [
                86.92724530052118,
                27.900297308247026
              ],
              [
                86.92724517976964,
                27.90047785666543
              ],
              [
                86.92460324679003,
                27.900476436698458
              ],
              [
                86.92460312164573,
                27.900656985098895
              ],
              [
                86.9233837660052,
                27.900656312647023
              ],
              [
                86.92338363883968,
                27.900836861038474
              ],
              [
                86.92155460241894,
                27.90083583211713
              ],
              [
                86.92155447221712,
                27.9010163804996
              ],
              [
                86.9201318860476,
                27.901015563445917
              ],
              [
                86.92013175348322,
                27.901196111810417
              ],
              [
                86.91809948424279,
                27.90119491910823
              ],
              [
                86.91809921236766,
                27.901556015819274
              ],
              [
                86.91748952960218,
                27.901555652154297
              ],
              [
                86.91748939264502,
                27.90173620050083
              ],
              [
                86.91647325303467,
                27.90173558839778
              ],
              [
                86.91647311438868,
                27.901916136735334
              ],
              [
                86.91626988614142,
                27.901916013414613
              ],
              [
                86.91626974715408,
                27.902096561743182
              ],
              [
                86.91566006138822,
                27.902096189984384
              ],
              [
                86.91565992139476,
                27.90227673830397
              ],
              [
                86.91464377678079,
                27.902276112708225
              ],
              [
                86.91464391846307,
                27.902095564388638
              ],
              [
                86.9148471470427,
                27.902095690107863
              ],
              [
                86.9148475710655,
                27.90155404512215
              ],
              [
                86.91464434349197,
                27.90155391940293
              ],
              [
                86.91464448517425,
                27.901373371074357
              ],
              [
                86.91444125794209,
                27.90137324505869
              ],
              [
                86.9144416839681,
                27.90083160001908
              ],
              [
                86.91423845775104,
                27.90083147370697
              ],
              [
                86.91423860009809,
                27.90065092536043
              ],
              [
                86.91383214833768,
                27.90065067183789
              ],
              [
                86.91383229134948,
                27.90047012348237
              ],
              [
                86.91362906581513,
                27.900469996271944
              ],
              [
                86.91362949587459,
                27.89992835117844
              ],
              [
                86.9132230468181,
                27.89992809586825
              ],
              [
                86.91322261473744,
                27.900469740961757
              ],
              [
                86.91301938920309,
                27.900469612853016
              ],
              [
                86.91301924483484,
                27.900650161199554
              ],
              [
                86.91220634135895,
                27.900649645773193
              ],
              [
                86.9122070699196,
                27.89974690398661
              ],
              [
                86.91241029410648,
                27.89974703329011
              ],
              [
                86.9124101487321,
                27.899927581654616
              ],
              [
                86.91281659777061,
                27.899927839363304
              ],
              [
                86.91281732125579,
                27.89902509745994
              ],
              [
                86.91302054408621,
                27.899025225865127
              ],
              [
                86.91302068844547,
                27.898844677464695
              ],
              [
                86.91342713345054,
                27.89884493336777
              ],
              [
                86.91342742080363,
                27.898483836557915
              ],
              [
                86.91322419897932,
                27.89848370876358
              ],
              [
                86.91322434298826,
                27.898303160354164
              ],
              [
                86.91342756448019,
                27.898303288148497
              ],
              [
                86.91342770815673,
                27.898122739730095
              ],
              [
                86.91403737161743,
                27.898123121316463
              ],
              [
                86.91403722895598,
                27.89830366973486
              ],
              [
                86.91383400746405,
                27.898303542838846
              ],
              [
                86.91383386446124,
                27.898484091248264
              ],
              [
                86.91424030812782,
                27.898484344752838
              ],
              [
                86.91424073510605,
                27.89794269948865
              ],
              [
                86.91444395592424,
                27.897942825782795
              ],
              [
                86.91444409791197,
                27.89776227735541
              ],
              [
                86.9148505388836,
                27.897762529045387
              ],
              [
                86.91485068019757,
                27.89758198060902
              ],
              [
                86.91525712049547,
                27.897582231104234
              ],
              [
                86.91525726113571,
                27.897401682658884
              ],
              [
                86.916070140411,
                27.897402180038092
              ],
              [
                86.91607027969478,
                27.897221631583758
              ],
              [
                86.91688315764054,
                27.89722212416596
              ],
              [
                86.91688329556787,
                27.897041575711626
              ],
              [
                86.91769617219312,
                27.897042063496826
              ],
              [
                86.91769630877297,
                27.896861515024526
              ],
              [
                86.91830596523579,
                27.89686187771932
              ],
              [
                86.91830610080953,
                27.896681329238035
              ],
              [
                86.91972863024145,
                27.896682165030576
              ],
              [
                86.91972876345262,
                27.89650161654031
              ],
              [
                86.92033841793017,
                27.896501970233988
              ],
              [
                86.92033855012625,
                27.89632142174372
              ],
              [
                86.92094820360667,
                27.89632177274245
              ],
              [
                86.92094833478764,
                27.896141224234217
              ],
              [
                86.92135476976752,
                27.896141456736178
              ],
              [
                86.92135490027476,
                27.895960908227945
              ],
              [
                86.92176133458989,
                27.895961139526165
              ],
              [
                86.92176146442338,
                27.89578059100895
              ]
            ],
            [
              [
                86.91647325303467,
                27.90173558839778
              ],
              [
                86.91606679719591,
                27.901735341459894
              ],
              [
                86.91606693651563,
                27.90155479312234
              ],
              [
                86.91586370893312,
                27.90155466920873
              ],
              [
                86.91586384858522,
                27.901374120862194
              ],
              [
                86.9162703030675,
                27.90137436839297
              ],
              [
                86.91627016409814,
                27.901554916739506
              ],
              [
                86.91647339167166,
                27.901555040060227
              ],
              [
                86.91647325303467,
                27.90173558839778
              ]
            ],
            [
              [
                86.9134265587174,
                27.899567126924595
              ],
              [
                86.91342670240293,
                27.899386578542124
              ],
              [
                86.91362992591607,
                27.899386706040012
              ],
              [
                86.9136297825719,
                27.899567254431464
              ],
              [
                86.9134265587174,
                27.899567126924595
              ]
            ],
            [
              [
                86.91484856039808,
                27.900290206660465
              ],
              [
                86.91484870173002,
                27.90010965829596
              ],
              [
                86.91545837635678,
                27.900110033621072
              ],
              [
                86.91545809572308,
                27.90047113035906
              ],
              [
                86.91505164461846,
                27.900470880438764
              ],
              [
                86.91505178560904,
                27.90029033207426
              ],
              [
                86.91484856039808,
                27.900290206660465
              ]
            ],
            [
              [
                86.91525388554535,
                27.901734843990855
              ],
              [
                86.91525402621255,
                27.901554295653302
              ],
              [
                86.9156604813596,
                27.90155454498969
              ],
              [
                86.91566034136613,
                27.901735093327243
              ],
              [
                86.91525388554535,
                27.901734843990855
              ]
            ]
          ],
          [
            [
              [
                86.92135516128926,
                27.895599811193513
              ],
              [
                86.92176159425689,
                27.895600042491733
              ],
              [
                86.92176146442338,
                27.89578059100895
              ],
              [
                86.92145663919685,
                27.895780417652066
              ],
              [
                86.92145670436064,
                27.895690143388965
              ],
              [
                86.92135509603563,
                27.895690085456614
              ],
              [
                86.92135516128926,
                27.895599811193513
              ]
            ]
          ]
        ]
      },
      "id": "+9363+1451",
      "properties": {
        "area_m2": 1559453.3346148713,
        "count": 15558,
        "image_id": "COPERNICUS/S2_SR_HARMONIZED/20211024T044851_20211024T045820_T45RVL",
        "lake_id": "imja-tsho",
        "observed_at": "2021-10-24T05:01:09.776000Z",
        "water": 1
      }
    }
  ]
}
