{
  "type": "FeatureCollection",
  "features": [
    {
      "type": "Feature",
      "geometry": {
        "geodesic": false,
        "type": "MultiPolygon",
        "coordinates": [
          [
            [
              [
                86.93283773018075,
                27.894251769615792
              ],
              [
                86.93283778590325,
                27.894161495316762
              ],
              [
                86.93293939282688,
                27.894161544778
              ],
              [
                86.93293933719421,
                27.894251819086016
              ],
              [
                86.93283773018075,
                27.894251769615792
              ]
            ]
          ],
          [
            [
              [
                86.9310086896008,
                27.89443141494886
              ],
              [
                86.93100874684144,
                27.894341140649825
              ],
              [
                86.93141517519176,
                27.89434134347145
              ],
              [
                86.93141511829246,
                27.894431617770483
              ],
              [
                86.93151672546763,
                27.894431668291734
              ],
              [
                86.93151655501231,
                27.894702491170865
              ],
              [
                86.93171976986568,
                27.89470259198879
              ],
              [
                86.93171988316121,
                27.894522043399707
              ],
              [
                86.93212631219423,
                27.894522244128257
              ],
              [
                86.93212653744679,
                27.894161146932127
              ],
              [
                86.93232975128508,
                27.894161246842753
              ],
              [
                86.93232963900465,
                27.89434179544082
              ],
              [
                86.93243124608998,
                27.894341845288334
              ],
              [
                86.93243113397125,
                27.894522393886398
              ],
              [
                86.93253274123624,
                27.894522443653063
              ],
              [
                86.9325328531843,
                27.894341895055
              ],
              [
                86.9326344602786,
                27.8943419447498
              ],
              [
                86.93263440438542,
                27.894432219048834
              ],
              [
                86.93273601156059,
                27.89443226867177
              ],
              [
                86.93273612317627,
                27.894251720073704
              ],
              [
                86.93283773018075,
                27.894251769615792
              ],
              [
                86.93283767445826,
                27.894342043914826
              ],
              [
                86.93304088864687,
                27.894342142774423
              ],
              [
                86.93304083309506,
                27.894432417082438
              ],
              [
                86.93314244027022,
                27.894432466399948
              ],
              [
                86.93314238479925,
                27.894522740698978
              ],
              [
                86.93334559932026,
                27.89452283910942
              ],
              [
                86.93334570992084,
                27.894342290511354
              ],
              [
                86.93395535248672,
                27.894342583964008
              ],
              [
                86.93395524290123,
                27.894523132562075
              ],
              [
                86.93415845743122,
                27.894523229777754
              ],
              [
                86.93415856667535,
                27.894342681179687
              ],
              [
                86.93476820925919,
                27.8943429710301
              ],
              [
                86.9347683174972,
                27.89416242242305
              ],
              [
                86.93497153135345,
                27.89416251843499
              ],
              [
                86.93497142344782,
                27.894343067051018
              ],
              [
                86.93517463764543,
                27.89434316276651
              ],
              [
                86.93517453008116,
                27.89452371137356
              ],
              [
                86.93639381729702,
                27.89452427939628
              ],
              [
                86.93639371175395,
                27.894704828003327
              ],
              [
                86.93781621590729,
                27.894705477072055
              ],
              [
                86.9378161127268,
                27.894886025679103
              ],
              [
                86.93923861928761,
                27.894886660069353
              ],
              [
                86.93923851846968,
                27.8950672086764
              ],
              [
                86.93964494959579,
                27.895067387234533
              ],
              [
                86.93964499966788,
                27.8949771129355
              ],
              [
                86.93974660737305,
                27.89497715738414
              ],
              [
                86.9397466573643,
                27.894886883085107
              ],
              [
                86.93984826497963,
                27.894886927461883
              ],
              [
                86.93984816515884,
                27.89506747606893
              ],
              [
                86.94015298851689,
                27.895067608750097
              ],
              [
                86.94015293885802,
                27.895157883058115
              ],
              [
                86.94025454672487,
                27.89515792712946
              ],
              [
                86.94025449715585,
                27.895248201437475
              ],
              [
                86.94045771306025,
                27.895248289364577
              ],
              [
                86.94045761426354,
                27.895428837971625
              ],
              [
                86.94066083050032,
                27.895428925602282
              ],
              [
                86.94066053509833,
                27.89597057137851
              ],
              [
                86.94086375235919,
                27.89597065871272
              ],
              [
                86.94086365421825,
                27.896151207292817
              ],
              [
                86.94106687182047,
                27.896151294330586
              ],
              [
                86.94106628502297,
                27.897234585730327
              ],
              [
                86.94086306539953,
                27.897234498692562
              ],
              [
                86.94086286911764,
                27.897595595780892
              ],
              [
                86.94065964882945,
                27.897595508437696
              ],
              [
                86.94065950111049,
                27.897866331244963
              ],
              [
                86.94055789071037,
                27.897866287461074
              ],
              [
                86.94055784138388,
                27.897956561733157
              ],
              [
                86.94025300994099,
                27.89795642993234
              ],
              [
                86.94025291078495,
                27.89813697845854
              ],
              [
                86.94004968948167,
                27.898136890217028
              ],
              [
                86.94004958999325,
                27.898317438734246
              ],
              [
                86.9398463683486,
                27.89831735019629
              ],
              [
                86.93984626851882,
                27.898497898713508
              ],
              [
                86.93964304655078,
                27.898497809870126
              ],
              [
                86.93964294637965,
                27.89867835837836
              ],
              [
                86.93943972407025,
                27.898678269238534
              ],
              [
                86.93943962355776,
                27.898858817746767
              ],
              [
                86.93923640091597,
                27.898858728301512
              ],
              [
                86.93923619921725,
                27.899219825300012
              ],
              [
                86.93903297590174,
                27.899219735549334
              ],
              [
                86.93903257114782,
                27.899941929492435
              ],
              [
                86.93882934648484,
                27.89994183944531
              ],
              [
                86.93882883883789,
                27.900844581752914
              ],
              [
                86.93893045202277,
                27.900844626812408
              ],
              [
                86.93893040133983,
                27.900934901039577
              ],
              [
                86.93903201459659,
                27.900934946027206
              ],
              [
                86.93903186280825,
                27.901205768699725
              ],
              [
                86.9392350898338,
                27.901205858450403
              ],
              [
                86.93923488811711,
                27.90156695532314
              ],
              [
                86.93720261110624,
                27.901566044296693
              ],
              [
                86.93720271534676,
                27.90138549586931
              ],
              [
                86.93638980591503,
                27.901385123068465
              ],
              [
                86.93638991149403,
                27.90120457464108
              ],
              [
                86.93578023044432,
                27.901204291896345
              ],
              [
                86.93578033703841,
                27.901023743459977
              ],
              [
                86.93537388368799,
                27.90102355347528
              ],
              [
                86.93537399095582,
                27.90084300503891
              ],
              [
                86.93476431194529,
                27.900842717802597
              ],
              [
                86.93476442021922,
                27.900662169366232
              ],
              [
                86.93374829023881,
                27.90066168465327
              ],
              [
                86.93374840020158,
                27.90048113620792
              ],
              [
                86.93212259499253,
                27.900480345088596
              ],
              [
                86.93212270765025,
                27.90029979665223
              ],
              [
                86.93110658111937,
                27.900299292463792
              ],
              [
                86.93110669545693,
                27.900118744027424
              ],
              [
                86.92988734567342,
                27.90011812912163
              ],
              [
                86.92988746204118,
                27.89993758068526
              ],
              [
                86.92948101279606,
                27.89993737331816
              ],
              [
                86.92948089575457,
                27.90011792175453
              ],
              [
                86.92907444583571,
                27.90011771319267
              ],
              [
                86.92907456355992,
                27.899937164756302
              ],
              [
                86.92866811432378,
                27.8999369549907
              ],
              [
                86.92866799592584,
                27.90011750342707
              ],
              [
                86.92724542127272,
                27.900116759819642
              ],
              [
                86.92724530052118,
                27.900297308247026
              ],
              [
                86.92582272355939,
                27.900296549943164
              ],
              [
                86.92582284667351,
                27.90011600152476
              ],
              [
                86.92561962174103,
                27.900115892002162
              ],
              [
                86.92561949828556,
                27.900296440420565
              ],
              [
                86.92460337192536,
                27.90029588828904
              ],
              [
                86.92460324679003,
                27.900476436698458
              ],
              [
                86.92338389317071,
                27.900475764246586
              ],
              [
                86.9233837660052,
                27.900656312647023
              ],
              [
                86.92135150670013,
                27.900655167914874
              ],
              [
                86.92135137615695,
                27.90083571629734
              ],
              [
                86.920132018612,
                27.900835015063446
              ],
              [
                86.9201318860476,
                27.901015563445917
              ],
              [
                86.91809962018483,
                27.90101437074373
              ],
              [
                86.91809948424279,
                27.90119491910823
              ],
              [
                86.9174898034985,
                27.90119455545224
              ],
              [
                86.91748966655034,
                27.90137510380776
              ],
              [
                86.91708321205007,
                27.901374859870245
              ],
              [
                86.91708307442818,
                27.90155540821678
              ],
              [
                86.91667661925418,
                27.90155516307552
              ],
              [
                86.91667648094955,
                27.90173571142206
              ],
              [
                86.91606679719591,
                27.901735341459894
              ],
              [
                86.91606665788518,
                27.901915889797447
              ],
              [
                86.91566020138167,
                27.901915641655815
              ],
              [
                86.91566006138822,
                27.902096189984384
              ],
              [
                86.91505037563134,
                27.90209581552166
              ],
              [
                86.9150505166309,
                27.90191526720207
              ],
              [
                86.91484728838364,
                27.90191514177929
              ],
              [
                86.91484771240643,
                27.901373496784597
              ],
              [
                86.91464448517425,
                27.901373371074357
              ],
              [
                86.91464462684756,
                27.901192822727822
              ],
              [
                86.91433978650237,
                27.901192633596523
              ],
              [
                86.91433985759504,
                27.901102359423252
              ],
              [
                86.91423824423049,
                27.901102296235756
              ],
              [
                86.91423852892456,
                27.9007411995337
              ],
              [
                86.91413691590137,
                27.900741136265353
              ],
              [
                86.91413698715574,
                27.900650862092085
              ],
              [
                86.91383214833768,
                27.90065067183789
              ],
              [
                86.91383229134948,
                27.90047012348237
              ],
              [
                86.91342584027178,
                27.900469868765075
              ],
              [
                86.9134259839663,
                27.900289320409556
              ],
              [
                86.91281630836937,
                27.90028893609231
              ],
              [
                86.91281616366874,
                27.90046948444783
              ],
              [
                86.91220648707467,
                27.900469097426654
              ],
              [
                86.91220692421285,
                27.899927452351115
              ],
              [
                86.91200369969361,
                27.899927322751168
              ],
              [
                86.91200384574171,
                27.899746774386664
              ],
              [
                86.9122070699196,
                27.89974690398661
              ],
              [
                86.91220721563532,
                27.899566355613125
              ],
              [
                86.91241043947186,
                27.899566484916626
              ],
              [
                86.91241029410648,
                27.89974703329011
              ],
              [
                86.91281674247125,
                27.89974729098982
              ],
              [
                86.91281746594743,
                27.89884454906849
              ],
              [
                86.91322391094351,
                27.898844805564455
              ],
              [
                86.91322405496142,
                27.898664257164018
              ],
              [
                86.91342727712708,
                27.898664384967333
              ],
              [
                86.91342756448019,
                27.898303288148497
              ],
              [
                86.91322434298826,
                27.898303160354164
              ],
              [
                86.91322448700616,
                27.89812261193576
              ],
              [
                86.91342770815673,
                27.898122739730095
              ],
              [
                86.9134278518243,
                27.897942191311692
              ],
              [
                86.91383429346068,
                27.89794244600204
              ],
              [
                86.91383415046685,
                27.898122994420444
              ],
              [
                86.9141389821972,
                27.898123184656672
              ],
              [
                86.91413905344258,
                27.898032910438488
              ],
              [
                86.91403744295265,
                27.89803284710726
              ],
              [
                86.91403751427887,
                27.89794257289806
              ],
              [
                86.91424073510605,
                27.89794269948865
              ],
              [
                86.91424087742614,
                27.897762151061265
              ],
              [
                86.91464731839778,
                27.897762403353113
              ],
              [
                86.91464746004414,
                27.897581854916744
              ],
              [
                86.91485068019757,
                27.89758198060902
              ],
              [
                86.91485082150257,
                27.89740143216367
              ],
              [
                86.9154604809478,
                27.897401807452844
              ],
              [
                86.91546062124668,
                27.89722125899851
              ],
              [
                86.91607027969478,
                27.897221631583758
              ],
              [
                86.91607041897856,
                27.897041083129423
              ],
              [
                86.91708651472418,
                27.89704169810708
              ],
              [
                86.91708665231913,
                27.896861149643765
              ],
              [
                86.9178995275969,
                27.89686163622522
              ],
              [
                86.9178996638354,
                27.89668108775292
              ],
              [
                86.91891575627523,
                27.896681689228902
              ],
              [
                86.91891589083387,
                27.89650114074762
              ],
              [
                86.91972876345262,
                27.89650161654031
              ],
              [
                86.91972889665482,
                27.896321068050042
              ],
              [
                86.92054176795305,
                27.896321539036748
              ],
              [
                86.92054189980777,
                27.896140990537496
              ],
              [
                86.92094833478764,
                27.896141224234217
              ],
              [
                86.92094846596862,
                27.895960675725984
              ],
              [
                86.92135490027476,
                27.895960908227945
              ],
              [
                86.92135509603563,
                27.895690085456614
              ],
              [
                86.92145670436064,
                27.895690143388965
              ],
              [
                86.9214567695334,
                27.89559986913485
              ],
              [
                86.92186320249208,
                27.89560010012764
              ],
              [
                86.9218633321549,
                27.895419551601442
              ],
              [
                86.92196494022838,
                27.895419609165486
              ],
              [
                86.92196468124408,
                27.895780706208903
              ],
              [
                86.92216789806477,
                27.895780821103425
              ],
              [
                86.92216802722454,
                27.89560027258621
              ],
              [
                86.92277767668949,
                27.895600615482138
              ],
              [
                86.92277780483417,
                27.89542006695594
              ],
              [
                86.92257458867823,
                27.895419952959728
              ],
              [
                86.92257471715527,
                27.895239404424544
              ],
              [
                86.9223715013407,
                27.89523929012291
              ],
              [
                86.9223715657499,
                27.895149015859808
              ],
              [
                86.92247317357186,
                27.89514907304656
              ],
              [
                86.9224732379002,
                27.89505879877448
              ],
              [
                86.92298127659673,
                27.895059083576356
              ],
              [
                86.92298102098111,
                27.8954201806557
              ],
              [
                86.9239971017698,
                27.895420744653972
              ],
              [
                86.92399722788427,
                27.895240196118788
              ],
              [
                86.92501330701107,
                27.895240752625106
              ],
              [
                86.9250134314457,
                27.89506020408094
              ],
              [
                86.92582629341942,
                27.89506064388712
              ],
              [
                86.9258264164976,
                27.89488009533397
              ],
              [
                86.9268424923096,
                27.894880638347594
              ],
              [
                86.92684237091127,
                27.89506118690973
              ],
              [
                86.92826487944839,
                27.89506193455059
              ],
              [
                86.92826499848414,
                27.894881385988455
              ],
              [
                86.92989071988936,
                27.894882222463718
              ],
              [
                86.92989083623017,
                27.894701673883617
              ],
              [
                86.93009405107456,
                27.89470177709106
              ],
              [
                86.93009393507512,
                27.89488232567116
              ],
              [
                86.9307035806234,
                27.89488263350584
              ],
              [
                86.93070369560776,
                27.894702084925743
              ],
              [
                86.93090691046115,
                27.894702186938428
              ],
              [
                86.93090708243462,
                27.894431364059297
              ],
              [
                86.9310086896008,
                27.89443141494886
              ]
            ],
            [
              [
                86.9310086896008,
                27.89443141494886
              ],
              [
                86.93111029677596,
                27.89443146576655
              ],
              [
                86.93111018246535,
                27.894612014355634
              ],
              [
                86.9310085751195,
                27.894611963537937
              ],
              [
                86.9310086896008,
                27.89443141494886
              ]
            ],
            [
              [
                86.91870970470387,
                27.90047308657534
              ],
              [
                86.91870997453982,
                27.900111989810398
              ],
              [
                86.91891319943636,
                27.900112109519895
              ],
              [
                86.91891333402197,
                27.89993156112844
              ],
              [
                86.91911655858613,
                27.899931680541492
              ],
              [
                86.91911615584443,
                27.90047332571585
              ],
              [
                86.91870970470387,
                27.90047308657534
              ]
            ],
            [
              [
                86.922777868902,
                27.895329792692838
              ],
              [
                86.92277799704668,
                27.895149244148673
              ],
              [
                86.92287960486864,
                27.89514930103898
              ],
              [
                86.92287947689464,
                27.89532984957416
              ],
              [
                86.922777868902,
                27.895329792692838
              ]
            ]
          ]
        ]
      },
      "id": "+9363+1453",
      "properties": {
        "area_m2": 1557949.861131561,
        "count": 15543,
        "image_id": "COPERNICUS/S2_SR_HARMONIZED/20211029T044919_20211029T045138_T45RVL",
        "lake_id": "imja-tsho",
        "observed_at": "2021-10-29T05:01:05.954000Z",
        "water": 1
      }
    }
  ]
}
