{
  "type": "FeatureCollection",
  "features": [
    {
      "type": "Feature",
      "geometry": {
        "geodesic": false,
        "type": "MultiPolygon",
        "coordinates": [
          [
            [
              [
                86.91149578529698,
                27.89974644907077
              ],
              [
                86.91139417320802,
                27.899746383781213
              ],
              [
                86.91139409968092,
                27.899836657963466
              ],
              [
                86.91129248751112,
                27.899836592602043
              ],
              [
                86.91129256111908,
                27.899746318419794
              ],
              [
                86.91119094903911,
                27.899746252977526
              ],
              [
                86.91119117013247,
                27.89947543043077
              ],
              [
                86.91129278196091,
                27.899475495864056
              ],
              [
                86.91129270835296,
                27.89956577004631
              ],
              [
                86.91139432027121,
                27.89956583541671
              ],
              [
                86.91139424674411,
                27.89965610959896
              ],
              [
                86.91149585874322,
                27.899656174888516
              ],
              [
                86.91149578529698,
                27.89974644907077
              ]
            ]
          ],
          [
            [
              [
                86.93131334015892,
                27.894702390056494
              ],
              [
                86.93121173273224,
                27.894702339391515
              ],
              [
                86.9312117898022,
                27.894612065101466
              ],
              [
                86.93131339714805,
                27.894612115766446
              ],
              [
                86.93131334015892,
                27.894702390056494
              ]
            ]
          ],
          [
            [
              [
                86.91149578529698,
                27.89974644907077
              ],
              [
                86.91169900947486,
                27.899746579416316
              ],
              [
                86.91169893619929,
                27.89983685359857
              ],
              [
                86.91149571185072,
                27.89983672325302
              ],
              [
                86.91149578529698,
                27.89974644907077
              ]
            ]
          ],
          [
            [
              [
                86.91169893619929,
                27.89983685359857
              ],
              [
                86.91180054836909,
                27.899836918663542
              ],
              [
                86.91180047517436,
                27.899927192845794
              ],
              [
                86.91169886292371,
                27.899927127780817
              ],
              [
                86.91169893619929,
                27.89983685359857
              ]
            ]
          ],
          [
            [
              [
                86.91180047517436,
                27.899927192845794
              ],
              [
                86.91200369969361,
                27.899927322751168
              ],
              [
                86.91200391876575,
                27.89965650019543
              ],
              [
                86.91241036678916,
                27.899656759098878
              ],
              [
                86.91241029410648,
                27.89974703329011
              ],
              [
                86.91281674247125,
                27.89974729098982
              ],
              [
                86.91281703186351,
                27.899386194233863
              ],
              [
                86.91261380835935,
                27.899386065532234
              ],
              [
                86.91261395338337,
                27.899205517149763
              ],
              [
                86.91251234179748,
                27.899205452686658
              ],
              [
                86.91251241439933,
                27.899115178495425
              ],
              [
                86.91261402590438,
                27.89911524295853
              ],
              [
                86.91261409841638,
                27.899024968767293
              ],
              [
                86.91302054408621,
                27.899025225865127
              ],
              [
                86.91302068844547,
                27.898844677464695
              ],
              [
                86.91342713345054,
                27.89884493336777
              ],
              [
                86.91342742080363,
                27.898483836557915
              ],
              [
                86.91322419897932,
                27.89848370876358
              ],
              [
                86.91322434298826,
                27.898303160354164
              ],
              [
                86.91342756448019,
                27.898303288148497
              ],
              [
                86.91342770815673,
                27.898122739730095
              ],
              [
                86.9136309293073,
                27.898122867227983
              ],
              [
                86.91363100097489,
                27.898032593018783
              ],
              [
                86.91383422196377,
                27.898032720211244
              ],
              [
                86.91383386446124,
                27.898484091248264
              ],
              [
                86.91424030812782,
                27.898484344752838
              ],
              [
                86.91424073510605,
                27.89794269948865
              ],
              [
                86.91464717675143,
                27.897942951780497
              ],
              [
                86.91464731839778,
                27.897762403353113
              ],
              [
                86.9148505388836,
                27.897762529045387
              ],
              [
                86.91485068019757,
                27.89758198060902
              ],
              [
                86.91546034064892,
                27.897582355898194
              ],
              [
                86.9154604809478,
                27.897401807452844
              ],
              [
                86.916070140411,
                27.897402180038092
              ],
              [
                86.91607027969478,
                27.897221631583758
              ],
              [
                86.91708637712922,
                27.8972222465704
              ],
              [
                86.91708651472418,
                27.89704169810708
              ],
              [
                86.91789939134942,
                27.89704218468854
              ],
              [
                86.9178995275969,
                27.89686163622522
              ],
              [
                86.91891562171658,
                27.896862237710188
              ],
              [
                86.91891575627523,
                27.896681689228902
              ],
              [
                86.91972863024145,
                27.896682165030576
              ],
              [
                86.91972876345262,
                27.89650161654031
              ],
              [
                86.92054163608935,
                27.896502087535996
              ],
              [
                86.92054176795305,
                27.896321539036748
              ],
              [
                86.92094820360667,
                27.89632177274245
              ],
              [
                86.92094833478764,
                27.896141224234217
              ],
              [
                86.92155798726195,
                27.896141572538003
              ],
              [
                86.92155811743682,
                27.89596102402977
              ],
              [
                86.92216776891398,
                27.895961369620643
              ],
              [
                86.92216789806477,
                27.895780821103425
              ],
              [
                86.92277754854481,
                27.895781164008337
              ],
              [
                86.92277767668949,
                27.895600615482138
              ],
              [
                86.92399697564633,
                27.895601293189152
              ],
              [
                86.9239971017698,
                27.895420744653972
              ],
              [
                86.9248099664205,
                27.895421190460898
              ],
              [
                86.92481009118751,
                27.895240641925714
              ],
              [
                86.92562295449972,
                27.895241082935637
              ],
              [
                86.92562307791925,
                27.895060534382488
              ],
              [
                86.92704558641145,
                27.895061294608748
              ],
              [
                86.92704546535448,
                27.89524184317088
              ],
              [
                86.92826476041263,
                27.89524248311272
              ],
              [
                86.92826487944839,
                27.89506193455059
              ],
              [
                86.9296873880394,
                27.895062667521962
              ],
              [
                86.92968750471259,
                27.894882118950846
              ],
              [
                86.93029715025189,
                27.894882428582157
              ],
              [
                86.93029703459379,
                27.895062977153273
              ],
              [
                86.93070346563906,
                27.895063182076957
              ],
              [
                86.9307035806234,
                27.89488263350584
              ],
              [
                86.93131322618068,
                27.894882938645576
              ],
              [
                86.93131334015892,
                27.894702390056494
              ],
              [
                86.93171976986568,
                27.89470259198879
              ],
              [
                86.93171982651344,
                27.894612317689756
              ],
              [
                86.93182143385928,
                27.89461236798643
              ],
              [
                86.93182137729238,
                27.894702642276478
              ],
              [
                86.93232941442582,
                27.894702892627965
              ],
              [
                86.93232947057054,
                27.894612618337916
              ],
              [
                86.93253268526222,
                27.894612717952096
              ],
              [
                86.93253262927921,
                27.894702992242145
              ],
              [
                86.93354870358205,
                27.89470348582148
              ],
              [
                86.93354881385025,
                27.8945229372324
              ],
              [
                86.93517453008116,
                27.89452371137356
              ],
              [
                86.9351744225169,
                27.894704259971626
              ],
              [
                86.93639371175395,
                27.894704828003327
              ],
              [
                86.9363936062109,
                27.894885376601394
              ],
              [
                86.93740968228342,
                27.894885841722097
              ],
              [
                86.93740957842918,
                27.895066390320164
              ],
              [
                86.93923851846968,
                27.8950672086764
              ],
              [
                86.93923841764277,
                27.89524775727447
              ],
              [
                86.93984806534702,
                27.895248024666994
              ],
              [
                86.93984811525742,
                27.895157750367964
              ],
              [
                86.94005133099115,
                27.895157838896935
              ],
              [
                86.94005128125143,
                27.89524811320495
              ],
              [
                86.94015288920814,
                27.895248157357145
              ],
              [
                86.94015283954926,
                27.895338431656178
              ],
              [
                86.94035605562435,
                27.89533851973599
              ],
              [
                86.94035600613616,
                27.895428794035023
              ],
              [
                86.94055922238194,
                27.895428881818393
              ],
              [
                86.9405590744294,
                27.89569970471549
              ],
              [
                86.94066068279932,
                27.895699748490394
              ],
              [
                86.94066053509833,
                27.89597057137851
              ],
              [
                86.94076214372876,
                27.89597061508155
              ],
              [
                86.94076209457295,
                27.896060889371597
              ],
              [
                86.94086370328422,
                27.89606093300277
              ],
              [
                86.94086350702031,
                27.896422030162967
              ],
              [
                86.94096511607295,
                27.896422073713293
              ],
              [
                86.94096516504909,
                27.896331799432225
              ],
              [
                86.94106677402088,
                27.896331842910683
              ],
              [
                86.94106648062213,
                27.896873488615046
              ],
              [
                86.94086326168141,
                27.89687340157728
              ],
              [
                86.94086316354047,
                27.897053950139412
              ],
              [
                86.94096477317701,
                27.897053993689738
              ],
              [
                86.94096452825136,
                27.897505365068117
              ],
              [
                86.94086291819261,
                27.89750532150881
              ],
              [
                86.94086286911764,
                27.897595595780892
              ],
              [
                86.94065964882945,
                27.897595508437696
              ],
              [
                86.94065955034715,
                27.89777605698186
              ],
              [
                86.94045632971759,
                27.897775969342224
              ],
              [
                86.94045623090291,
                27.897956517868423
              ],
              [
                86.94055784138388,
                27.897956561733157
              ],
              [
                86.94055779206637,
                27.898046835996258
              ],
              [
                86.94045618149558,
                27.898046792140505
              ],
              [
                86.94045613208823,
                27.898137066403606
              ],
              [
                86.94025291078495,
                27.89813697845854
              ],
              [
                86.94025281162891,
                27.898317526984737
              ],
              [
                86.94015120080658,
                27.898317482895425
              ],
              [
                86.94015115114772,
                27.898407757158523
              ],
              [
                86.94004954024454,
                27.898407712997344
              ],
              [
                86.94004949049585,
                27.898497987260445
              ],
              [
                86.94015110147987,
                27.89849803141264
              ],
              [
                86.94015105182099,
                27.89858830567574
              ],
              [
                86.94004944074715,
                27.89858826151456
              ],
              [
                86.94004939099844,
                27.898678535768678
              ],
              [
                86.93984616868904,
                27.89867844722174
              ],
              [
                86.93984611876967,
                27.898768721475857
              ],
              [
                86.93974450753412,
                27.89876867709908
              ],
              [
                86.93974445753389,
                27.898858951344216
              ],
              [
                86.93943962355776,
                27.898858817746767
              ],
              [
                86.93943952304525,
                27.899039366246015
              ],
              [
                86.93923630006212,
                27.899039276800764
              ],
              [
                86.93923619921725,
                27.899219825300012
              ],
              [
                86.939337810875,
                27.899219870054083
              ],
              [
                86.93933771020082,
                27.89940041855333
              ],
              [
                86.93903287471551,
                27.8994002840396
              ],
              [
                86.93903267234303,
                27.89976138101115
              ],
              [
                86.93913428450385,
                27.899761425926915
              ],
              [
                86.93913423399158,
                27.899851700163065
              ],
              [
                86.93903262174094,
                27.8998516552473
              ],
              [
                86.93903257114782,
                27.899941929492435
              ],
              [
                86.93913418348829,
                27.899941974399216
              ],
              [
                86.93913408246375,
                27.900122522871516
              ],
              [
                86.93882924495725,
                27.900122387917612
              ],
              [
                86.93882914342964,
                27.90030293638093
              ],
              [
                86.93862591808394,
                27.900302846028378
              ],
              [
                86.93862581622398,
                27.900483394491694
              ],
              [
                86.93882904190205,
                27.900483484844244
              ],
              [
                86.93882888960168,
                27.900754307525748
              ],
              [
                86.93893050269675,
                27.900754352594223
              ],
              [
                86.93893029997393,
                27.901115449484927
              ],
              [
                86.93903191340137,
                27.901115494472556
              ],
              [
                86.93903196400348,
                27.901025220254372
              ],
              [
                86.93913357735006,
                27.901025265170137
              ],
              [
                86.93913347632552,
                27.901205813606506
              ],
              [
                86.93903186280825,
                27.901205768699725
              ],
              [
                86.93903176161304,
                27.90138631713609
              ],
              [
                86.93923498897995,
                27.901386406886772
              ],
              [
                86.93923488811711,
                27.90156695532314
              ],
              [
                86.93943811582538,
                27.901567044777376
              ],
              [
                86.93943806556464,
                27.90165731899556
              ],
              [
                86.93953967950412,
                27.901657363605896
              ],
              [
                86.93953962932423,
                27.90174763782408
              ],
              [
                86.93923478726325,
                27.90174750375951
              ],
              [
                86.93923468640041,
                27.901928052177908
              ],
              [
                86.9391330722094,
                27.901928007342992
              ],
              [
                86.93913302169715,
                27.902018281552195
              ],
              [
                86.93892979314445,
                27.9020181916488
              ],
              [
                86.9389298438274,
                27.9019279174396
              ],
              [
                86.9388282296364,
                27.90192787237112
              ],
              [
                86.93882833117297,
                27.901747323943738
              ],
              [
                86.93801541901935,
                27.90174696072792
              ],
              [
                86.9380153161353,
                27.901927509155303
              ],
              [
                86.93781208776228,
                27.90192741759901
              ],
              [
                86.9378121909787,
                27.901746869180606
              ],
              [
                86.93720250687473,
                27.901746592724077
              ],
              [
                86.93720261110624,
                27.901566044296693
              ],
              [
                86.93638970033604,
                27.901565671495852
              ],
              [
                86.93638980591503,
                27.901385123068465
              ],
              [
                86.93598335120817,
                27.901384934871416
              ],
              [
                86.93598345746089,
                27.90120438644403
              ],
              [
                86.93557700343673,
                27.90120419705222
              ],
              [
                86.9355771103632,
                27.90102364861585
              ],
              [
                86.93476420366235,
                27.901023266238965
              ],
              [
                86.9347641495209,
                27.90111354044817
              ],
              [
                86.93456092268399,
                27.901113444103853
              ],
              [
                86.93456108560245,
                27.900842621458285
              ],
              [
                86.93395140660988,
                27.900842330628713
              ],
              [
                86.9339515162313,
                27.900661782192344
              ],
              [
                86.93313861227031,
                27.90066139022145
              ],
              [
                86.93313872323921,
                27.900480841785082
              ],
              [
                86.93273227193694,
                27.900480644003007
              ],
              [
                86.93273216029432,
                27.900661192439376
              ],
              [
                86.93232570831833,
                27.90066099346254
              ],
              [
                86.93232582064367,
                27.900480445026172
              ],
              [
                86.93110646677282,
                27.90047984090016
              ],
              [
                86.93110658111937,
                27.900299292463792
              ],
              [
                86.93090335580959,
                27.900299190729587
              ],
              [
                86.93090347048853,
                27.90011864229322
              ],
              [
                86.9307002455291,
                27.900118540262568
              ],
              [
                86.93070036054938,
                27.899937991817218
              ],
              [
                86.93029391129528,
                27.89993778684862
              ],
              [
                86.93029367990724,
                27.90029888373034
              ],
              [
                86.92988722930566,
                27.900298677558
              ],
              [
                86.92988734567342,
                27.90011812912163
              ],
              [
                86.92866799592584,
                27.90011750342707
              ],
              [
                86.92866787753687,
                27.900298051863437
              ],
              [
                86.92805820167044,
                27.900297734964752
              ],
              [
                86.9280583210745,
                27.90011718653737
              ],
              [
                86.92785509612406,
                27.900117080311585
              ],
              [
                86.92785497637863,
                27.900297628729987
              ],
              [
                86.92744852580401,
                27.900297415371124
              ],
              [
                86.92744840538484,
                27.900477963789527
              ],
              [
                86.92724517976964,
                27.90047785666543
              ],
              [
                86.92724511939387,
                27.90056813087463
              ],
              [
                86.92704189359901,
                27.900568023436122
              ],
              [
                86.92704183305256,
                27.90065829764532
              ],
              [
                86.926838607096,
                27.900658189919355
              ],
              [
                86.92683872853026,
                27.900477641500952
              ],
              [
                86.92663550290608,
                27.900477533469555
              ],
              [
                86.92663538113945,
                27.900658081887958
              ],
              [
                86.92521279947947,
                27.90065731727792
              ],
              [
                86.92521273741487,
                27.90074759148712
              ],
              [
                86.9250095113056,
                27.900747481057223
              ],
              [
                86.9250095735319,
                27.900657206857005
              ],
              [
                86.92318054006661,
                27.900656199522178
              ],
              [
                86.92318041256871,
                27.90083674791363
              ],
              [
                86.92135137615695,
                27.90083571629734
              ],
              [
                86.92135111507959,
                27.901196813053296
              ],
              [
                86.92033498040996,
                27.901196229435822
              ],
              [
                86.92033491429395,
                27.901286503618074
              ],
              [
                86.9197252330017,
                27.90128614985253
              ],
              [
                86.91972516638263,
                27.901376424034783
              ],
              [
                86.91830257555985,
                27.901375588080548
              ],
              [
                86.918302507764,
                27.901465862262796
              ],
              [
                86.9180992803342,
                27.901465741637022
              ],
              [
                86.91809921236766,
                27.901556015819274
              ],
              [
                86.91769275718468,
                27.90155577367839
              ],
              [
                86.91769268887678,
                27.901646047851656
              ],
              [
                86.9174894611236,
                27.901645926327564
              ],
              [
                86.91748939264502,
                27.90173620050083
              ],
              [
                86.91728616472116,
                27.901736078680297
              ],
              [
                86.9172860960719,
                27.90182635284458
              ],
              [
                86.91708286797736,
                27.9018262307276
              ],
              [
                86.91708279916641,
                27.901916504891886
              ],
              [
                86.91647311438868,
                27.901916136735334
              ],
              [
                86.91647297575169,
                27.902096685063903
              ],
              [
                86.91626974715408,
                27.902096561743182
              ],
              [
                86.91626967766939,
                27.902186835907468
              ],
              [
                86.91606644891009,
                27.902186712290302
              ],
              [
                86.91606637924575,
                27.902276986445603
              ],
              [
                86.91565992139476,
                27.90227673830397
              ],
              [
                86.91565985139803,
                27.902367012468257
              ],
              [
                86.91464370593964,
                27.902366386863527
              ],
              [
                86.91464377678079,
                27.902276112708225
              ],
              [
                86.91454216232029,
                27.902276049736322
              ],
              [
                86.91454230417325,
                27.902095501416735
              ],
              [
                86.91464391846307,
                27.902095564388638
              ],
              [
                86.91464406013638,
                27.90191501606905
              ],
              [
                86.9147456742645,
                27.901915078960105
              ],
              [
                86.91474588652741,
                27.90164425646725
              ],
              [
                86.91464427265981,
                27.901644193576196
              ],
              [
                86.91464434349197,
                27.90155391940293
              ],
              [
                86.91454272971419,
                27.90155385644001
              ],
              [
                86.91454280063618,
                27.90146358226674
              ],
              [
                86.91444118693026,
                27.901463519222975
              ],
              [
                86.91444125794209,
                27.90137324505869
              ],
              [
                86.914339644326,
                27.901373181934073
              ],
              [
                86.91433978650237,
                27.901192633596523
              ],
              [
                86.91423817305696,
                27.901192570400042
              ],
              [
                86.91423838657752,
                27.90092174788922
              ],
              [
                86.91413677338365,
                27.900921684620872
              ],
              [
                86.91413684463802,
                27.900831410438624
              ],
              [
                86.91403523153397,
                27.90083134709841
              ],
              [
                86.9140353028692,
                27.900741072925143
              ],
              [
                86.9138320768228,
                27.90074094601116
              ],
              [
                86.91383214833768,
                27.90065067183789
              ],
              [
                86.91362892246197,
                27.900650544627464
              ],
              [
                86.9136288507764,
                27.900740818800735
              ],
              [
                86.91352723775321,
                27.90074075508323
              ],
              [
                86.91352730951962,
                27.900650480909963
              ],
              [
                86.91332408364391,
                27.900650353250377
              ],
              [
                86.91332415557203,
                27.90056007907711
              ],
              [
                86.91322254271951,
                27.900560015135028
              ],
              [
                86.91322261473744,
                27.900469740961757
              ],
              [
                86.91301938920309,
                27.900469612853016
              ],
              [
                86.91301917264623,
                27.900740435381802
              ],
              [
                86.91312078566942,
                27.900740499467616
              ],
              [
                86.91312071357063,
                27.900830773640884
              ],
              [
                86.91322232667468,
                27.900830837663815
              ],
              [
                86.91322225465674,
                27.900921111837082
              ],
              [
                86.91332386785062,
                27.900921175779164
              ],
              [
                86.91332343625504,
                27.90146282078284
              ],
              [
                86.91322182255811,
                27.901462756840758
              ],
              [
                86.91322167852223,
                27.90164330516933
              ],
              [
                86.91312006465462,
                27.9016432411464
              ],
              [
                86.91311999255583,
                27.901733515310685
              ],
              [
                86.912713536762,
                27.901733258482345
              ],
              [
                86.91271360920214,
                27.901642984327044
              ],
              [
                86.91261199534352,
                27.901642919926818
              ],
              [
                86.91261221291548,
                27.901372097442948
              ],
              [
                86.9124089856923,
                27.901371968426908
              ],
              [
                86.91240913107565,
                27.901191420098336
              ],
              [
                86.91230751763922,
                27.901191355482517
              ],
              [
                86.91230766319325,
                27.901010807144964
              ],
              [
                86.91240927645899,
                27.901010871769767
              ],
              [
                86.91240942184234,
                27.90083032342323
              ],
              [
                86.91261264805043,
                27.900830452430288
              ],
              [
                86.9126127930924,
                27.900649904092734
              ],
              [
                86.91240956722568,
                27.900649775076694
              ],
              [
                86.912409494534,
                27.90074004924996
              ],
              [
                86.9121046554824,
                27.900739855177928
              ],
              [
                86.91210472842559,
                27.90064958100466
              ],
              [
                86.91200311549223,
                27.90064951616426
              ],
              [
                86.91200318851628,
                27.900559241990994
              ],
              [
                86.9121048013688,
                27.90055930683139
              ],
              [
                86.9121049472462,
                27.900378758484855
              ],
              [
                86.91220655992805,
                27.900378823253387
              ],
              [
                86.91220677849714,
                27.900108000715615
              ],
              [
                86.9119019412152,
                27.900107806194423
              ],
              [
                86.91190201432909,
                27.900017532021156
              ],
              [
                86.9118004019886,
                27.900017467028047
              ],
              [
                86.91180047517436,
                27.899927192845794
              ]
            ],
            [
              [
                86.93578044363251,
                27.90084319502361
              ],
              [
                86.93578055021761,
                27.900662646587243
              ],
              [
                86.93618700222954,
                27.900662835377183
              ],
              [
                86.93618679039781,
                27.9010239322589
              ],
              [
                86.93598356371362,
                27.90102383800766
              ],
              [
                86.93598366996635,
                27.900843289571295
              ],
              [
                86.93578044363251,
                27.90084319502361
              ]
            ],
            [
              [
                86.9369996971256,
                27.901024306254502
              ],
              [
                86.93699980168951,
                27.900843757809152
              ],
              [
                86.93740625438416,
                27.90084394300583
              ],
              [
                86.93740615049398,
                27.90102449145118
              ],
              [
                86.9369996971256,
                27.901024306254502
              ]
            ],
            [
              [
                86.9382187496027,
                27.90156650356038
              ],
              [
                86.93821885214538,
                27.901385955124017
              ],
              [
                86.93842207951229,
                27.90138604607844
              ],
              [
                86.93842197730199,
                27.901566594505823
              ],
              [
                86.9382187496027,
                27.90156650356038
              ]
            ]
          ]
        ]
      },
      "id": "+9365+1449",
      "properties": {
        "area_m2": 1582006.1264221882,
        "count": 15783,
        "image_id": "COPERNICUS/S2_SR_HARMONIZED/20211009T044709_20211009T045934_T45RVL",
        "lake_id": "imja-tsho",
        "observed_at": "2021-10-09T05:01:05.346000Z",
        "water": 1
      }
    }
  ]
}
