{
  "type": "FeatureCollection",
  "features": [
    {
      "type": "Feature",
      "geometry": {
        "geodesic": false,
        "type": "MultiPolygon",
        "coordinates": [
          [
            [
              [
                86.9214568346972,
                27.89550959487175
              ],
              [
                86.92135522654287,
                27.895509536930415
              ],
              [
                86.9213552917965,
                27.8954192626763
              ],
              [
                86.92145689986098,
                27.89541932060865
              ],
              [
                86.9214568346972,
                27.89550959487175
              ]
            ]
          ],
          [
            [
              [
                86.92257465291675,
                27.895329678687645
              ],
              [
                86.92257471715527,
                27.895239404424544
              ],
              [
                86.92267632506706,
                27.895239461458583
              ],
              [
                86.92267626090938,
                27.895329735730666
              ],
              [
                86.92257465291675,
                27.895329678687645
              ]
            ]
          ],
          [
            [
              [
                86.92805820167044,
                27.900297734964752
              ],
              [
                86.92826142695326,
                27.90029784089409
              ],
              [
                86.9282613674219,
                27.900388115112275
              ],
              [
                86.92805814195941,
                27.900388009173955
              ],
              [
                86.92805820167044,
                27.900297734964752
              ]
            ]
          ],
          [
            [
              [
                86.93222808813589,
                27.894251471222404
              ],
              [
                86.9321264811314,
                27.89425142123116
              ],
              [
                86.9321265937532,
                27.894070872633094
              ],
              [
                86.93232980742978,
                27.89407097254372
              ],
              [
                86.93232975128508,
                27.894161246842753
              ],
              [
                86.93222814437043,
                27.894161196923374
              ],
              [
                86.93222808813589,
                27.894251471222404
              ]
            ]
          ],
          [
            [
              [
                86.93761310454882,
                27.894524836639217
              ],
              [
                86.93751149727483,
                27.89452479060954
              ],
              [
                86.93751160096737,
                27.89434424199351
              ],
              [
                86.93761320807066,
                27.894344288023188
              ],
              [
                86.93761310454882,
                27.894524836639217
              ]
            ]
          ],
          [
            [
              [
                86.93822264567693,
                27.894705659825316
              ],
              [
                86.93822274819267,
                27.894525111209283
              ],
              [
                86.93832435546665,
                27.89452515670895
              ],
              [
                86.93832425312159,
                27.894705705324984
              ],
              [
                86.93822264567693,
                27.894705659825316
              ]
            ]
          ],
          [
            [
              [
                86.9214567695334,
                27.89559986913485
              ],
              [
                86.9214568346972,
                27.89550959487175
              ],
              [
                86.92166005101484,
                27.89550971052086
              ],
              [
                86.92165998601274,
                27.895599984774975
              ],
              [
                86.92196481073623,
                27.895600157691685
              ],
              [
                86.92196474599464,
                27.895690431945802
              ],
              [
                86.92186313766965,
                27.895690374390743
              ],
              [
                86.92186307283822,
                27.89578064864486
              ],
              [
                86.92206628965891,
                27.8957807636921
              ],
              [
                86.92206641898039,
                27.89560021517488
              ],
              [
                86.92216802722454,
                27.89560027258621
              ],
              [
                86.92216809180442,
                27.89550999832311
              ],
              [
                86.92226969995876,
                27.895510055662577
              ],
              [
                86.9222698934379,
                27.89523923286429
              ],
              [
                86.9223715013407,
                27.89523929012291
              ],
              [
                86.92237143694048,
                27.89532956439499
              ],
              [
                86.92257465291675,
                27.895329678687645
              ],
              [
                86.92257458867823,
                27.895419952959728
              ],
              [
                86.92267619675171,
                27.895420009993764
              ],
              [
                86.92267613260302,
                27.895510284256865
              ],
              [
                86.92277774075734,
                27.895510341219037
              ],
              [
                86.922777868902,
                27.895329792692838
              ],
              [
                86.92287947689464,
                27.89532984957416
              ],
              [
                86.92287960486864,
                27.89514930103898
              ],
              [
                86.92308282051253,
                27.89514941458603
              ],
              [
                86.92308275669622,
                27.895239688858116
              ],
              [
                86.92298114879341,
                27.89523963212052
              ],
              [
                86.92298102098111,
                27.8954201806557
              ],
              [
                86.92308262906359,
                27.895420237393296
              ],
              [
                86.9230826928799,
                27.895329963121213
              ],
              [
                86.92318430087252,
                27.895330019786943
              ],
              [
                86.92318442834346,
                27.89514947125176
              ],
              [
                86.92328603616541,
                27.89514952783664
              ],
              [
                86.92328609981105,
                27.895059253564558
              ],
              [
                86.92338770755215,
                27.89505931007757
              ],
              [
                86.92338751685779,
                27.895330132884837
              ],
              [
                86.92328590886515,
                27.89533007637182
              ],
              [
                86.92328584521952,
                27.895420350643903
              ],
              [
                86.92379388560487,
                27.895420632454393
              ],
              [
                86.92379407529313,
                27.895149809647126
              ],
              [
                86.92389568311508,
                27.895149865782848
              ],
              [
                86.92389549368733,
                27.895420688590114
              ],
              [
                86.9239971017698,
                27.895420744653972
              ],
              [
                86.92399716483152,
                27.89533047039087
              ],
              [
                86.92440359681102,
                27.895330693891715
              ],
              [
                86.9244036595314,
                27.895240419619633
              ],
              [
                86.92450526744318,
                27.895240475306196
              ],
              [
                86.92450539272222,
                27.89505992676203
              ],
              [
                86.92460700046333,
                27.89505998237673
              ],
              [
                86.92460693791364,
                27.89515025664881
              ],
              [
                86.92470854574456,
                27.89515031218266
              ],
              [
                86.92470860821341,
                27.89506003791058
              ],
              [
                86.92491182369561,
                27.895060148762685
              ],
              [
                86.92491176139745,
                27.895150423034767
              ],
              [
                86.92501336922838,
                27.895150478353024
              ],
              [
                86.9250134314457,
                27.89506020408094
              ],
              [
                86.92562307791925,
                27.895060534382488
              ],
              [
                86.9256232013388,
                27.894879985829338
              ],
              [
                86.9258264164976,
                27.89488009533397
              ],
              [
                86.92582647804117,
                27.894789821052907
              ],
              [
                86.92592808553076,
                27.894789875688442
              ],
              [
                86.92592814699348,
                27.894699601407375
              ],
              [
                86.92602975440221,
                27.894699655971046
              ],
              [
                86.9260296316564,
                27.894880204533177
              ],
              [
                86.92592802407701,
                27.89488014996951
              ],
              [
                86.92592796262325,
                27.894970424250573
              ],
              [
                86.92663921628096,
                27.894970804624215
              ],
              [
                86.92663915541111,
                27.895061078905282
              ],
              [
                86.92684237091127,
                27.89506118690973
              ],
              [
                86.92684243161044,
                27.89497091262866
              ],
              [
                86.92704564693993,
                27.894971020336662
              ],
              [
                86.92704558641145,
                27.895061294608748
              ],
              [
                86.92826487944839,
                27.89506193455059
              ],
              [
                86.92826493896177,
                27.894971660269523
              ],
              [
                86.92846815430923,
                27.894971765875468
              ],
              [
                86.92846821365194,
                27.8948814915944
              ],
              [
                86.92867142882871,
                27.894881596903904
              ],
              [
                86.92867148800973,
                27.89479132261385
              ],
              [
                86.92877309550828,
                27.894791375156313
              ],
              [
                86.9287730364171,
                27.894881649446365
              ],
              [
                86.92887464400549,
                27.894881701907977
              ],
              [
                86.92887476202614,
                27.89470115333686
              ],
              [
                86.92917958427927,
                27.894701310290507
              ],
              [
                86.92917946677065,
                27.894881858861623
              ],
              [
                86.9295858971242,
                27.894882067082122
              ],
              [
                86.92958595554164,
                27.894791792792073
              ],
              [
                86.92978917055672,
                27.894791896457658
              ],
              [
                86.92978928705922,
                27.894611347877557
              ],
              [
                86.92999250173294,
                27.894611451237715
              ],
              [
                86.929992559818,
                27.894521176947666
              ],
              [
                86.93009416707402,
                27.894521228510964
              ],
              [
                86.93009428306449,
                27.894340679921882
              ],
              [
                86.93029749723514,
                27.89434078283288
              ],
              [
                86.9302974394106,
                27.89443105712293
              ],
              [
                86.93050065375193,
                27.894431159737483
              ],
              [
                86.93050059608908,
                27.894521434027535
              ],
              [
                86.9307038106011,
                27.89452153633666
              ],
              [
                86.93070386809327,
                27.894431262046613
              ],
              [
                86.93090708243462,
                27.894431364059297
              ],
              [
                86.93090702510413,
                27.894521638349346
              ],
              [
                86.93100863236015,
                27.894521689247888
              ],
              [
                86.9310085751195,
                27.894611963537937
              ],
              [
                86.9312117898022,
                27.894612065101466
              ],
              [
                86.93121184687217,
                27.894521790802433
              ],
              [
                86.93141506139318,
                27.894521892069513
              ],
              [
                86.93141494758561,
                27.894702440658595
              ],
              [
                86.931618162439,
                27.89470254162025
              ],
              [
                86.9316182191676,
                27.894612267321218
              ],
              [
                86.93212625588784,
                27.894612518418306
              ],
              [
                86.932126424825,
                27.89434169553019
              ],
              [
                86.93222803191033,
                27.894341745521437
              ],
              [
                86.93222808813589,
                27.894251471222404
              ],
              [
                86.93232969514935,
                27.894251521141786
              ],
              [
                86.93232963900465,
                27.89434179544082
              ],
              [
                86.9325328531843,
                27.894341895055
              ],
              [
                86.93253279721027,
                27.894432169354033
              ],
              [
                86.93232958285994,
                27.89443206973985
              ],
              [
                86.93232952671524,
                27.894522344038883
              ],
              [
                86.93263434849226,
                27.894522493347868
              ],
              [
                86.93263440438542,
                27.894432219048834
              ],
              [
                86.93273601156059,
                27.89443226867177
              ],
              [
                86.93273589994492,
                27.894612817260853
              ],
              [
                86.93283750729076,
                27.894612866811922
              ],
              [
                86.93283761873575,
                27.89443231821386
              ],
              [
                86.93293922591091,
                27.894432367684082
              ],
              [
                86.93293917027825,
                27.894522641983112
              ],
              [
                86.93344720658526,
                27.894522888211334
              ],
              [
                86.93344726180469,
                27.8944326139123
              ],
              [
                86.93375208333916,
                27.894432760741932
              ],
              [
                86.93375202837125,
                27.894523035040965
              ],
              [
                86.93385363563624,
                27.894523083837452
              ],
              [
                86.93385369051433,
                27.89443280953842
              ],
              [
                86.93446333359225,
                27.894433100745285
              ],
              [
                86.93446338796727,
                27.89434282643727
              ],
              [
                86.93456499506159,
                27.894342874712734
              ],
              [
                86.93456504935575,
                27.894252600404716
              ],
              [
                86.93466665636923,
                27.894252648608315
              ],
              [
                86.93466660216488,
                27.89434292290735
              ],
              [
                86.93517463764543,
                27.89434316276651
              ],
              [
                86.93517485277398,
                27.893982065543433
              ],
              [
                86.93537806629786,
                27.893982160962484
              ],
              [
                86.93537785184304,
                27.89434325818556
              ],
              [
                86.93558106604065,
                27.894343353308166
              ],
              [
                86.93558095915012,
                27.894523901915214
              ],
              [
                86.9357841736801,
                27.894523996732392
              ],
              [
                86.93578428023827,
                27.894343448125344
              ],
              [
                86.93598749443588,
                27.89434354264608
              ],
              [
                86.93598738821908,
                27.89452409125313
              ],
              [
                86.93659703183599,
                27.8945243730187
              ],
              [
                86.93659697923064,
                27.894614647326716
              ],
              [
                86.93649537187582,
                27.89461460055144
              ],
              [
                86.93649531918963,
                27.89470487485047
              ],
              [
                86.9365969266253,
                27.894704921625745
              ],
              [
                86.93659687402895,
                27.89479519592478
              ],
              [
                86.93680008907097,
                27.894795289250755
              ],
              [
                86.93680003663631,
                27.894885563549785
              ],
              [
                86.93700325184902,
                27.894885656579316
              ],
              [
                86.93700330412199,
                27.8947953822713
              ],
              [
                86.93740973421502,
                27.894795567423063
              ],
              [
                86.93740968228342,
                27.894885841722097
              ],
              [
                86.9376128975051,
                27.894885933853313
              ],
              [
                86.93761294926603,
                27.8947956595453
              ],
              [
                86.93781616431704,
                27.894795751371085
              ],
              [
                86.93781621590729,
                27.894705477072055
              ],
              [
                86.93761300102696,
                27.894705385246265
              ],
              [
                86.93761310454882,
                27.894524836639217
              ],
              [
                86.93801953364472,
                27.894525019985366
              ],
              [
                86.9380194307966,
                27.8947055686014
              ],
              [
                86.93822264567693,
                27.894705659825316
              ],
              [
                86.93822259442804,
                27.894795934124346
              ],
              [
                86.93832420195355,
                27.894795979624018
              ],
              [
                86.93832415077652,
                27.894886253932032
              ],
              [
                86.93852736600721,
                27.89488634470679
              ],
              [
                86.93852731500085,
                27.894976619014805
              ],
              [
                86.93873053039323,
                27.894976709493122
              ],
              [
                86.9387305812289,
                27.894886435185107
              ],
              [
                86.93883218883525,
                27.894886480316465
              ],
              [
                86.93883213808941,
                27.8949767546155
              ],
              [
                86.93903535348178,
                27.894976844644656
              ],
              [
                86.93903540406592,
                27.894886570345623
              ],
              [
                86.93913701168125,
                27.894886615243422
              ],
              [
                86.93913711266985,
                27.894706066636374
              ],
              [
                86.93923872011452,
                27.89470611146231
              ],
              [
                86.93923866970106,
                27.894796385770324
              ],
              [
                86.93954349229554,
                27.894796519798962
              ],
              [
                86.93954344213361,
                27.894886794097996
              ],
              [
                86.93944183451828,
                27.894886749496642
              ],
              [
                86.93944173403274,
                27.89506729810369
              ],
              [
                86.9397465573818,
                27.895067431692155
              ],
              [
                86.93974650739055,
                27.89515770599119
              ],
              [
                86.94005133099115,
                27.895157838896935
              ],
              [
                86.94005128125143,
                27.89524811320495
              ],
              [
                86.94025449715585,
                27.895248201437475
              ],
              [
                86.94025444758681,
                27.89533847573651
              ],
              [
                86.94035605562435,
                27.89533851973599
              ],
              [
                86.94035600613616,
                27.895428794035023
              ],
              [
                86.94055922238194,
                27.895428881818393
              ],
              [
                86.94055917306441,
                27.895519156117427
              ],
              [
                86.94066078127264,
                27.89551919990131
              ],
              [
                86.94066068279932,
                27.895699748490394
              ],
              [
                86.94076229117823,
                27.895699792202414
              ],
              [
                86.94076219287558,
                27.895880340791496
              ],
              [
                86.94086380142517,
                27.89588038442267
              ],
              [
                86.94086365421825,
                27.896151207292817
              ],
              [
                86.94096526301936,
                27.896151250852128
              ],
              [
                86.94096521403422,
                27.896241525142177
              ],
              [
                86.94106682291618,
                27.896241568620635
              ],
              [
                86.9410667251166,
                27.896422117200736
              ],
              [
                86.94096511607295,
                27.896422073713293
              ],
              [
                86.94096506708782,
                27.89651234800334
              ],
              [
                86.94116828535479,
                27.896512434888393
              ],
              [
                86.94116823654034,
                27.896602709178445
              ],
              [
                86.941066627326,
                27.896602665771848
              ],
              [
                86.94106652952642,
                27.896783214333983
              ],
              [
                86.94116813891144,
                27.896783257740577
              ],
              [
                86.9411679924591,
                27.897054080583775
              ],
              [
                86.94106638282254,
                27.897054037177178
              ],
              [
                86.94106628502297,
                27.897234585730327
              ],
              [
                86.94086306539953,
                27.897234498692562
              ],
              [
                86.94086286911764,
                27.897595595780892
              ],
              [
                86.94065964882945,
                27.897595508437696
              ],
              [
                86.94065945187383,
                27.897956605517045
              ],
              [
                86.94045623090291,
                27.897956517868423
              ],
              [
                86.94045613208823,
                27.898137066403606
              ],
              [
                86.94025291078495,
                27.89813697845854
              ],
              [
                86.94025281162891,
                27.898317526984737
              ],
              [
                86.94004958999325,
                27.898317438734246
              ],
              [
                86.94004944074715,
                27.89858826151456
              ],
              [
                86.9399478296733,
                27.898588217281517
              ],
              [
                86.93994777984375,
                27.898678491535634
              ],
              [
                86.93964294637965,
                27.89867835837836
              ],
              [
                86.93964284620851,
                27.89885890688659
              ],
              [
                86.93943962355776,
                27.898858817746767
              ],
              [
                86.93943952304525,
                27.899039366246015
              ],
              [
                86.93923630006212,
                27.899039276800764
              ],
              [
                86.93923609837238,
                27.89940037379028
              ],
              [
                86.93903287471551,
                27.8994002840396
              ],
              [
                86.93903257114782,
                27.899941929492435
              ],
              [
                86.93882934648484,
                27.89994183944531
              ],
              [
                86.93882914342964,
                27.90030293638093
              ],
              [
                86.93862591808394,
                27.900302846028378
              ],
              [
                86.93862581622398,
                27.900483394491694
              ],
              [
                86.93882904190205,
                27.900483484844244
              ],
              [
                86.93882894037446,
                27.90066403329858
              ],
              [
                86.93893055337969,
                27.900664078367058
              ],
              [
                86.93893035065688,
                27.901025175266742
              ],
              [
                86.93903196400348,
                27.901025220254372
              ],
              [
                86.93903176161304,
                27.90138631713609
              ],
              [
                86.93923498897995,
                27.901386406886772
              ],
              [
                86.93923478726325,
                27.90174750375951
              ],
              [
                86.93760896294704,
                27.90174677732787
              ],
              [
                86.93760906650483,
                27.901566228900485
              ],
              [
                86.93659292802634,
                27.901565765145218
              ],
              [
                86.93659303327297,
                27.901385216717834
              ],
              [
                86.9361865785571,
                27.901385029122654
              ],
              [
                86.93618668447746,
                27.90120448069527
              ],
              [
                86.93557700343673,
                27.90120419705222
              ],
              [
                86.9355771103632,
                27.90102364861585
              ],
              [
                86.93496743033757,
                27.901023362277854
              ],
              [
                86.93496753827914,
                27.900842813841486
              ],
              [
                86.93456108560245,
                27.900842621458285
              ],
              [
                86.93456097699614,
                27.90102316988567
              ],
              [
                86.93435775032093,
                27.90102307324491
              ],
              [
                86.93435785927758,
                27.900842524817527
              ],
              [
                86.93415463294373,
                27.90084242787134
              ],
              [
                86.93415474223278,
                27.900661879434974
              ],
              [
                86.93273216029432,
                27.900661192439376
              ],
              [
                86.93273227193694,
                27.900480644003007
              ],
              [
                86.93151291805711,
                27.90048004347924
              ],
              [
                86.93151303172992,
                27.900299495042873
              ],
              [
                86.93070013050881,
                27.900299088698937
              ],
              [
                86.9307002455291,
                27.900118540262568
              ],
              [
                86.9280583210745,
                27.90011718653737
              ],
              [
                86.92805820167044,
                27.900297734964752
              ],
              [
                86.92663562467271,
                27.900296985060137
              ],
              [
                86.92663550290608,
                27.900477533469555
              ],
              [
                86.92643227729089,
                27.900477425141716
              ],
              [
                86.92643215518288,
                27.900657973551134
              ],
              [
                86.92622892923531,
                27.90065786492685
              ],
              [
                86.92622905167569,
                27.90047731651743
              ],
              [
                86.92582260044529,
                27.900477098361566
              ],
              [
                86.92582247733118,
                27.900657646770984
              ],
              [
                86.92561925138361,
                27.9006575372394
              ],
              [
                86.92561937483009,
                27.900476988829983
              ],
              [
                86.92440002118381,
                27.900476325370246
              ],
              [
                86.92439989570714,
                27.900656873770682
              ],
              [
                86.922977314137,
                27.900656086091907
              ],
              [
                86.92297718629774,
                27.90083663448336
              ],
              [
                86.92257073375582,
                27.900836406733486
              ],
              [
                86.9225708622688,
                27.900655858351016
              ],
              [
                86.92236763633919,
                27.90065574402243
              ],
              [
                86.92236750748485,
                27.90083629241388
              ],
              [
                86.92114814989498,
                27.900835600172126
              ],
              [
                86.92114801901941,
                27.901016148554593
              ],
              [
                86.91972543285888,
                27.901015327296793
              ],
              [
                86.91972529962077,
                27.90119587567028
              ],
              [
                86.91891239192279,
                27.90119539978776
              ],
              [
                86.91891232462999,
                27.90128567397001
              ],
              [
                86.91870909754155,
                27.90128555424255
              ],
              [
                86.91870903007808,
                27.9013758284248
              ],
              [
                86.91809934830971,
                27.901375467463755
              ],
              [
                86.9180992803342,
                27.901465741637022
              ],
              [
                86.91799766662828,
                27.901465681216337
              ],
              [
                86.91799759857192,
                27.901555955389604
              ],
              [
                86.91748952960218,
                27.901555652154297
              ],
              [
                86.9174894611236,
                27.901645926327564
              ],
              [
                86.917387847247,
                27.90164586545772
              ],
              [
                86.9173877786786,
                27.901736139622006
              ],
              [
                86.91708293679729,
                27.901735956554333
              ],
              [
                86.91708286797736,
                27.9018262307276
              ],
              [
                86.91698125393906,
                27.901826169552333
              ],
              [
                86.91698118503828,
                27.9019164437256
              ],
              [
                86.91647311438868,
                27.901916136735334
              ],
              [
                86.91647297575169,
                27.902096685063903
              ],
              [
                86.91606651856546,
                27.902096438126016
              ],
              [
                86.91606644891009,
                27.902186712290302
              ],
              [
                86.91596483453044,
                27.902186650360445
              ],
              [
                86.91596476478524,
                27.90227692452473
              ],
              [
                86.91565992139476,
                27.90227673830397
              ],
              [
                86.91565985139803,
                27.902367012468257
              ],
              [
                86.9152533932057,
                27.902366763122885
              ],
              [
                86.91525346354378,
                27.90227648896758
              ],
              [
                86.91484700570179,
                27.902276238427447
              ],
              [
                86.91484693503132,
                27.902366512582752
              ],
              [
                86.91464370593964,
                27.902366386863527
              ],
              [
                86.91464398930422,
                27.902005290224352
              ],
              [
                86.9147456035042,
                27.902005353124387
              ],
              [
                86.9147458157761,
                27.901734530631533
              ],
              [
                86.91484742972456,
                27.901734593459704
              ],
              [
                86.91484750039503,
                27.901644319286437
              ],
              [
                86.91474588652741,
                27.90164425646725
              ],
              [
                86.91474595727873,
                27.901553982302964
              ],
              [
                86.91454272971419,
                27.90155385644001
              ],
              [
                86.91454287155817,
                27.901373308102457
              ],
              [
                86.91444125794209,
                27.90137324505869
              ],
              [
                86.91444132894493,
                27.901282970885422
              ],
              [
                86.9143397154097,
                27.90128290776979
              ],
              [
                86.91433985759504,
                27.901102359423252
              ],
              [
                86.91423824423049,
                27.901102296235756
              ],
              [
                86.91423845775104,
                27.90083147370697
              ],
              [
                86.91413684463802,
                27.900831410438624
              ],
              [
                86.91413691590137,
                27.900741136265353
              ],
              [
                86.9140353028692,
                27.900741072925143
              ],
              [
                86.91403537421338,
                27.900650798751876
              ],
              [
                86.91342569658626,
                27.900650417120595
              ],
              [
                86.91342584027178,
                27.900469868765075
              ],
              [
                86.91240971260004,
                27.900469226730156
              ],
              [
                86.9124101487321,
                27.899927581654616
              ],
              [
                86.91220692421285,
                27.899927452351115
              ],
              [
                86.9122070699196,
                27.89974690398661
              ],
              [
                86.91281674247125,
                27.89974729098982
              ],
              [
                86.91281732125579,
                27.89902509745994
              ],
              [
                86.91302054408621,
                27.899025225865127
              ],
              [
                86.91302068844547,
                27.898844677464695
              ],
              [
                86.91342713345054,
                27.89884493336777
              ],
              [
                86.91342756448019,
                27.898303288148497
              ],
              [
                86.91322434298826,
                27.898303160354164
              ],
              [
                86.91322448700616,
                27.89812261193576
              ],
              [
                86.91383415046685,
                27.898122994420444
              ],
              [
                86.91383400746405,
                27.898303542838846
              ],
              [
                86.91403722895598,
                27.89830366973486
              ],
              [
                86.91403708629453,
                27.898484218153264
              ],
              [
                86.91424030812782,
                27.898484344752838
              ],
              [
                86.91424087742614,
                27.897762151061265
              ],
              [
                86.9148505388836,
                27.897762529045387
              ],
              [
                86.91485068019757,
                27.89758198060902
              ],
              [
                86.91505390034203,
                27.897582106004847
              ],
              [
                86.91505404131465,
                27.897401557559498
              ],
              [
                86.91586692058992,
                27.897402056142447
              ],
              [
                86.91586706020608,
                27.897221507688112
              ],
              [
                86.91627349917448,
                27.897221755182958
              ],
              [
                86.91627356865018,
                27.89713148095579
              ],
              [
                86.9164767879682,
                27.897131604249562
              ],
              [
                86.91647685727321,
                27.897041330022397
              ],
              [
                86.91708651472418,
                27.89704169810708
              ],
              [
                86.91708658352614,
                27.89695142387093
              ],
              [
                86.91739141199561,
                27.89695160690267
              ],
              [
                86.91739148054606,
                27.89686133266652
              ],
              [
                86.9178995275969,
                27.89686163622522
              ],
              [
                86.91789959571615,
                27.89677136198907
              ],
              [
                86.9180012050383,
                27.89677142247264
              ],
              [
                86.91800127307668,
                27.89668114823649
              ],
              [
                86.91891575627523,
                27.896681689228902
              ],
              [
                86.91891582355005,
                27.896591414992752
              ],
              [
                86.91922065103137,
                27.896591593973092
              ],
              [
                86.91922071806366,
                27.896501319727957
              ],
              [
                86.91993198161181,
                27.896501734740635
              ],
              [
                86.91993204804223,
                27.8964114604955
              ],
              [
                86.92013526603971,
                27.8964115783904
              ],
              [
                86.92013533229945,
                27.896321304145268
              ],
              [
                86.92033855012625,
                27.89632142174372
              ],
              [
                86.92033861622429,
                27.896231147489605
              ],
              [
                86.92054183388042,
                27.896231264791613
              ],
              [
                86.92054176795305,
                27.896321539036748
              ],
              [
                86.92074498577986,
                27.89632165604231
              ],
              [
                86.92074511729322,
                27.896141107534078
              ],
              [
                86.92084672604044,
                27.896141165924572
              ],
              [
                86.92084679171626,
                27.896050891670455
              ],
              [
                86.92115161769739,
                27.896051066383794
              ],
              [
                86.92115168312169,
                27.895960792129678
              ],
              [
                86.92135490027476,
                27.895960908227945
              ],
              [
                86.92135516128926,
                27.895599811193513
              ],
              [
                86.9214567695334,
                27.89559986913485
              ]
            ],
            [
              [
                86.9214567695334,
                27.89559986913485
              ],
              [
                86.92155837776858,
                27.895599926995338
              ],
              [
                86.92155831268565,
                27.895690201249455
              ],
              [
                86.92165992101064,
                27.895690259038076
              ],
              [
                86.92165985601754,
                27.895780533301174
              ],
              [
                86.9215582476027,
                27.895780475512552
              ],
              [
                86.92155818251976,
                27.89587074976667
              ],
              [
                86.92145657402408,
                27.895870691906183
              ],
              [
                86.9214567695334,
                27.89559986913485
              ]
            ],
            [
              [
                86.93009416707402,
                27.894521228510964
              ],
              [
                86.93029738157706,
                27.894521331421963
              ],
              [
                86.93029732374352,
                27.89461160571201
              ],
              [
                86.9300941090698,
                27.894611502801013
              ],
              [
                86.93009416707402,
                27.894521228510964
              ]
            ],
            [
              [
                86.92226957097864,
                27.895690604188776
              ],
              [
                86.9222696354687,
                27.895600329925674
              ],
              [
                86.92237124371286,
                27.89560038718429
              ],
              [
                86.92237130812207,
                27.89551011292119
              ],
              [
                86.92247291627639,
                27.895510170107944
              ],
              [
                86.92247278762866,
                27.895690718634143
              ],
              [
                86.92226957097864,
                27.895690604188776
              ]
            ],
            [
              [
                86.93029715025189,
                27.894882428582157
              ],
              [
                86.93029726591897,
                27.89470188000206
              ],
              [
                86.93039887333667,
                27.89470193134976
              ],
              [
                86.93039893108936,
                27.894611657050728
              ],
              [
                86.93050053842622,
                27.894611708326565
              ],
              [
                86.93050048076336,
                27.894701982616617
              ],
              [
                86.93080530303445,
                27.894702135968018
              ],
              [
                86.93080524562312,
                27.894792410258066
              ],
              [
                86.93070363811559,
                27.894792359215792
              ],
              [
                86.9307035806234,
                27.89488263350584
              ],
              [
                86.93029715025189,
                27.894882428582157
              ]
            ],
            [
              [
                86.93090685313067,
                27.894792461228477
              ],
              [
                86.93090691046115,
                27.894702186938428
              ],
              [
                86.93100851788783,
                27.89470223782799
              ],
              [
                86.93100846064718,
                27.894792512118038
              ],
              [
                86.93090685313067,
                27.894792461228477
              ]
            ],
            [
              [
                86.9378127070788,
                27.900844126998766
              ],
              [
                86.93781281029523,
                27.900663578553416
              ],
              [
                86.93801603630568,
                27.900663670100727
              ],
              [
                86.93801593343062,
                27.90084421855506
              ],
              [
                86.9378127070788,
                27.900844126998766
              ]
            ]
          ]
        ]
      },
      "id": "+9367+1455",
      "properties": {
        "area_m2": 1604057.8514412486,
        "count": 16003,
        "image_id": "COPERNICUS/S2_SR_HARMONIZED/20211118T045059_20211118T045056_T45RVL",
        "lake_id": "imja-tsho",
        "observed_at": "2021-11-18T05:01:01.855000Z",
        "water": 1
      }
    }
  ]
}
