{
  "type": "FeatureCollection",
  "features": [
    {
      "type": "Feature",
      "geometry": {
        "geodesic": false,
        "type": "MultiPolygon",
        "coordinates": [
          [
            [
              [
                86.91169893619929,
                27.89983685359857
              ],
              [
                86.91159732402949,
                27.899836788461727
              ],
              [
                86.91159739738592,
                27.899746514279474
              ],
              [
                86.91169900947486,
                27.899746579416316
              ],
              [
                86.91169893619929,
                27.89983685359857
              ]
            ]
          ],
          [
            [
              [
                86.9178995275969,
                27.89686163622522
              ],
              [
                86.91779791818495,
                27.896861575660807
              ],
              [
                86.91779798639402,
                27.896771301424657
              ],
              [
                86.91789959571615,
                27.89677136198907
              ],
              [
                86.9178995275969,
                27.89686163622522
              ]
            ]
          ],
          [
            [
              [
                86.92420031792572,
                27.895420856557106
              ],
              [
                86.92409870985226,
                27.89542080064596
              ],
              [
                86.92409877282415,
                27.89533052637388
              ],
              [
                86.92420038081679,
                27.895330582285023
              ],
              [
                86.92420031792572,
                27.895420856557106
              ]
            ]
          ],
          [
            [
              [
                86.93699927884306,
                27.901746499973026
              ],
              [
                86.93699922656111,
                27.901836774182225
              ],
              [
                86.93679599835876,
                27.901836681125747
              ],
              [
                86.9367960508114,
                27.901746406916544
              ],
              [
                86.93699927884306,
                27.901746499973026
              ]
            ]
          ],
          [
            [
              [
                86.94096511607295,
                27.896422073713293
              ],
              [
                86.94096521403422,
                27.896241525142177
              ],
              [
                86.94106682291618,
                27.896241568620635
              ],
              [
                86.9410667251166,
                27.896422117200736
              ],
              [
                86.94096511607295,
                27.896422073713293
              ]
            ]
          ],
          [
            [
              [
                86.91169893619929,
                27.89983685359857
              ],
              [
                86.91180054836909,
                27.899836918663542
              ],
              [
                86.91180047517436,
                27.899927192845794
              ],
              [
                86.91169886292371,
                27.899927127780817
              ],
              [
                86.91169893619929,
                27.89983685359857
              ]
            ]
          ],
          [
            [
              [
                86.91180047517436,
                27.899927192845794
              ],
              [
                86.91200369969361,
                27.899927322751168
              ],
              [
                86.91200384574171,
                27.899746774386664
              ],
              [
                86.91210545783065,
                27.89974683921808
              ],
              [
                86.91210553077386,
                27.899656565035826
              ],
              [
                86.91241036678916,
                27.899656759098878
              ],
              [
                86.91241029410648,
                27.89974703329011
              ],
              [
                86.91281674247125,
                27.89974729098982
              ],
              [
                86.91281703186351,
                27.899386194233863
              ],
              [
                86.91271542010695,
                27.89938612992347
              ],
              [
                86.91271549253811,
                27.899295855732237
              ],
              [
                86.91261388087136,
                27.89929579134998
              ],
              [
                86.91261395338337,
                27.899205517149763
              ],
              [
                86.91251234179748,
                27.899205452686658
              ],
              [
                86.91251241439933,
                27.899115178495425
              ],
              [
                86.91261402590438,
                27.89911524295853
              ],
              [
                86.91261409841638,
                27.899024968767293
              ],
              [
                86.91271570983159,
                27.899025033149552
              ],
              [
                86.91271578226275,
                27.898934758958315
              ],
              [
                86.91281739359711,
                27.898934823268707
              ],
              [
                86.91281732125579,
                27.89902509745994
              ],
              [
                86.91302054408621,
                27.899025225865127
              ],
              [
                86.91302068844547,
                27.898844677464695
              ],
              [
                86.91322391094351,
                27.898844805564455
              ],
              [
                86.91322398295247,
                27.898754531364236
              ],
              [
                86.91332559411615,
                27.89875459530632
              ],
              [
                86.91332566604426,
                27.8986643211061
              ],
              [
                86.91342727712708,
                27.898664384967333
              ],
              [
                86.91342742080363,
                27.898483836557915
              ],
              [
                86.91322419897932,
                27.89848370876358
              ],
              [
                86.91322434298826,
                27.898303160354164
              ],
              [
                86.91312273224678,
                27.898303096340218
              ],
              [
                86.91312287642639,
                27.898122547921815
              ],
              [
                86.91352931872753,
                27.898122803519463
              ],
              [
                86.91352939048495,
                27.898032529310264
              ],
              [
                86.91383422196377,
                27.898032720211244
              ],
              [
                86.91383386446124,
                27.898484091248264
              ],
              [
                86.91424030812782,
                27.898484344752838
              ],
              [
                86.91424073510605,
                27.89794269948865
              ],
              [
                86.91464717675143,
                27.897942951780497
              ],
              [
                86.91464731839778,
                27.897762403353113
              ],
              [
                86.9148505388836,
                27.897762529045387
              ],
              [
                86.91485068019757,
                27.89758198060902
              ],
              [
                86.91546034064892,
                27.897582355898194
              ],
              [
                86.9154604809478,
                27.897401807452844
              ],
              [
                86.916070140411,
                27.897402180038092
              ],
              [
                86.91607027969478,
                27.897221631583758
              ],
              [
                86.91708637712922,
                27.8972222465704
              ],
              [
                86.91708651472418,
                27.89704169810708
              ],
              [
                86.91789939134942,
                27.89704218468854
              ],
              [
                86.9178995275969,
                27.89686163622522
              ],
              [
                86.91891562171658,
                27.896862237710188
              ],
              [
                86.91891575627523,
                27.896681689228902
              ],
              [
                86.919931848742,
                27.896682283221917
              ],
              [
                86.91993198161181,
                27.896501734740635
              ],
              [
                86.92054163608935,
                27.896502087535996
              ],
              [
                86.92054176795305,
                27.896321539036748
              ],
              [
                86.92115142143346,
                27.896321889137162
              ],
              [
                86.92115155228207,
                27.89614134063791
              ],
              [
                86.92155798726195,
                27.896141572538003
              ],
              [
                86.92155811743682,
                27.89596102402977
              ],
              [
                86.92237098607603,
                27.895961484227705
              ],
              [
                86.92237111489445,
                27.89578093571049
              ],
              [
                86.92298076537449,
                27.895781277708103
              ],
              [
                86.92298089317781,
                27.895600729181904
              ],
              [
                86.92420019214363,
                27.89560140509229
              ],
              [
                86.92420031792572,
                27.895420856557106
              ],
              [
                86.92501318258542,
                27.89542130116927
              ],
              [
                86.92501330701107,
                27.895240752625106
              ],
              [
                86.9260293861738,
                27.895241301639476
              ],
              [
                86.9260295089106,
                27.895060753086327
              ],
              [
                86.92684237091127,
                27.89506118690973
              ],
              [
                86.92684224951294,
                27.895241735462875
              ],
              [
                86.927248681196,
                27.895241950573453
              ],
              [
                86.92724880191162,
                27.895061402020307
              ],
              [
                86.92745201742076,
                27.895061509126435
              ],
              [
                86.92745189703753,
                27.895242057679585
              ],
              [
                86.92806154456211,
                27.895242377210334
              ],
              [
                86.92806166393923,
                27.8950618286482
              ],
              [
                86.93070346563906,
                27.895063182076957
              ],
              [
                86.9307035806234,
                27.89488263350584
              ],
              [
                86.93212608694168,
                27.894883341297437
              ],
              [
                86.93212619957245,
                27.89470279271734
              ],
              [
                86.93232941442582,
                27.894702892627965
              ],
              [
                86.93232947057054,
                27.894612618337916
              ],
              [
                86.93273589994492,
                27.894612817260853
              ],
              [
                86.93273584414158,
                27.894703091559883
              ],
              [
                86.93415834816913,
                27.894703778375817
              ],
              [
                86.93415845743122,
                27.894523229777754
              ],
              [
                86.93517453008116,
                27.89452371137356
              ],
              [
                86.9351744225169,
                27.894704259971626
              ],
              [
                86.93619049687362,
                27.894704734075482
              ],
              [
                86.93619039099819,
                27.89488528268253
              ],
              [
                86.93740968228342,
                27.894885841722097
              ],
              [
                86.93740957842918,
                27.895066390320164
              ],
              [
                86.93923851846968,
                27.8950672086764
              ],
              [
                86.93923841764277,
                27.89524775727447
              ],
              [
                86.93984806534702,
                27.895248024666994
              ],
              [
                86.93984811525742,
                27.895157750367964
              ],
              [
                86.94005133099115,
                27.895157838896935
              ],
              [
                86.94005128125143,
                27.89524811320495
              ],
              [
                86.94015288920814,
                27.895248157357145
              ],
              [
                86.94015283954926,
                27.895338431656178
              ],
              [
                86.94035605562435,
                27.89533851973599
              ],
              [
                86.94035600613616,
                27.895428794035023
              ],
              [
                86.94045761426354,
                27.895428837971625
              ],
              [
                86.9404575648562,
                27.895519112261674
              ],
              [
                86.94055917306441,
                27.895519156117427
              ],
              [
                86.94055912374691,
                27.895609430416457
              ],
              [
                86.94066073203598,
                27.895609474200345
              ],
              [
                86.94066063357165,
                27.895790022789427
              ],
              [
                86.9407622420314,
                27.895790066492467
              ],
              [
                86.94076209457295,
                27.896060889371597
              ],
              [
                86.94086370328422,
                27.89606093300277
              ],
              [
                86.94086350702031,
                27.896422030162967
              ],
              [
                86.94096511607295,
                27.896422073713293
              ],
              [
                86.94096496911754,
                27.896692896574457
              ],
              [
                86.94106657842171,
                27.896692940052915
              ],
              [
                86.94106648062213,
                27.896873488615046
              ],
              [
                86.94086326168141,
                27.89687340157728
              ],
              [
                86.94086316354047,
                27.897053950139412
              ],
              [
                86.94096477317701,
                27.897053993689738
              ],
              [
                86.94096472420087,
                27.897144267970802
              ],
              [
                86.94106633391826,
                27.897144311458245
              ],
              [
                86.94106623611867,
                27.89732486000241
              ],
              [
                86.94096462622163,
                27.897324816523952
              ],
              [
                86.94096447926623,
                27.8975956393402
              ],
              [
                86.94065964882945,
                27.897595508437696
              ],
              [
                86.94065955034715,
                27.89777605698186
              ],
              [
                86.94076116066641,
                27.897776100693886
              ],
              [
                86.9407611115106,
                27.897866374956983
              ],
              [
                86.94065950111049,
                27.897866331244963
              ],
              [
                86.94065945187383,
                27.897956605517045
              ],
              [
                86.94055784138388,
                27.897956561733157
              ],
              [
                86.94055779206637,
                27.898046835996258
              ],
              [
                86.94045618149558,
                27.898046792140505
              ],
              [
                86.94045613208823,
                27.898137066403606
              ],
              [
                86.94035452143659,
                27.898137022467004
              ],
              [
                86.94035442245124,
                27.898317570993203
              ],
              [
                86.94015120080658,
                27.898317482895425
              ],
              [
                86.94015110147987,
                27.89849803141264
              ],
              [
                86.94004949049585,
                27.898497987260445
              ],
              [
                86.94004944074715,
                27.89858826151456
              ],
              [
                86.93984621860842,
                27.898588172967624
              ],
              [
                86.93984611876967,
                27.898768721475857
              ],
              [
                86.93974450753412,
                27.89876867709908
              ],
              [
                86.93974445753389,
                27.898858951344216
              ],
              [
                86.93943962355776,
                27.898858817746767
              ],
              [
                86.93943952304525,
                27.899039366246015
              ],
              [
                86.93923630006212,
                27.899039276800764
              ],
              [
                86.93923599751852,
                27.899580922280546
              ],
              [
                86.93903277352928,
                27.899580832529868
              ],
              [
                86.93903257114782,
                27.899941929492435
              ],
              [
                86.93913418348829,
                27.899941974399216
              ],
              [
                86.93913408246375,
                27.900122522871516
              ],
              [
                86.93882924495725,
                27.900122387917612
              ],
              [
                86.93882909266586,
                27.900393210608094
              ],
              [
                86.93872747991216,
                27.900393165476736
              ],
              [
                86.93872737821388,
                27.90057371393107
              ],
              [
                86.93882899113827,
                27.900573759071413
              ],
              [
                86.93882888960168,
                27.900754307525748
              ],
              [
                86.9390321157918,
                27.900754397581853
              ],
              [
                86.93903196400348,
                27.901025220254372
              ],
              [
                86.93893035065688,
                27.901025175266742
              ],
              [
                86.93893029997393,
                27.901115449484927
              ],
              [
                86.93903191340137,
                27.901115494472556
              ],
              [
                86.93903176161304,
                27.90138631713609
              ],
              [
                86.93923498897995,
                27.901386406886772
              ],
              [
                86.93923488811711,
                27.90156695532314
              ],
              [
                86.93953972968401,
                27.901567089396696
              ],
              [
                86.93953962932423,
                27.90174763782408
              ],
              [
                86.93862510313232,
                27.901747233591184
              ],
              [
                86.93862500126336,
                27.90192778201857
              ],
              [
                86.93852338707237,
                27.901927736725515
              ],
              [
                86.93852333604805,
                27.902018010934714
              ],
              [
                86.93842172177621,
                27.902017965569794
              ],
              [
                86.93842177288136,
                27.90192769136059
              ],
              [
                86.93821854450833,
                27.901927600406168
              ],
              [
                86.93821864706001,
                27.90174705198777
              ],
              [
                86.93699927884306,
                27.901746499973026
              ],
              [
                86.93699938341594,
                27.901565951545642
              ],
              [
                86.93659292802634,
                27.901565765145218
              ],
              [
                86.93659282277973,
                27.90174631356362
              ],
              [
                86.93649120876839,
                27.901746266779362
              ],
              [
                86.93649126147254,
                27.90165599257016
              ],
              [
                86.93638964754204,
                27.901655945705052
              ],
              [
                86.93638980591503,
                27.901385123068465
              ],
              [
                86.93598335120817,
                27.901384934871416
              ],
              [
                86.93598345746089,
                27.90120438644403
              ],
              [
                86.93537377642016,
                27.901204101902664
              ],
              [
                86.93537388368799,
                27.90102355347528
              ],
              [
                86.93476420366235,
                27.901023266238965
              ],
              [
                86.9347641495209,
                27.90111354044817
              ],
              [
                86.93456092268399,
                27.901113444103853
              ],
              [
                86.93456108560245,
                27.900842621458285
              ],
              [
                86.93354495395117,
                27.900842135245135
              ],
              [
                86.93354506424632,
                27.90066158680877
              ],
              [
                86.93212248233482,
                27.900660893524964
              ],
              [
                86.93212242600147,
                27.90075116774315
              ],
              [
                86.93191919984727,
                27.900751067500146
              ],
              [
                86.9319193693414,
                27.900480244854577
              ],
              [
                86.93110646677282,
                27.90047984090016
              ],
              [
                86.93110658111937,
                27.900299292463792
              ],
              [
                86.92744852580401,
                27.900297415371124
              ],
              [
                86.92744840538484,
                27.900477963789527
              ],
              [
                86.92500969800247,
                27.900476658447587
              ],
              [
                86.9250095735319,
                27.900657206857005
              ],
              [
                86.9248063475933,
                27.900657096130665
              ],
              [
                86.92480647239624,
                27.900476547721244
              ],
              [
                86.92460324679003,
                27.900476436698458
              ],
              [
                86.92460312164573,
                27.900656985098895
              ],
              [
                86.92379021788238,
                27.900656537998394
              ],
              [
                86.9237900913906,
                27.900837086389846
              ],
              [
                86.92338363883968,
                27.900836861038474
              ],
              [
                86.9233837660052,
                27.900656312647023
              ],
              [
                86.92318054006661,
                27.900656199522178
              ],
              [
                86.92318041256871,
                27.90083674791363
              ],
              [
                86.92175782868092,
                27.900835947640477
              ],
              [
                86.92175769882047,
                27.901016496022944
              ],
              [
                86.92135124562276,
                27.90101626467981
              ],
              [
                86.92135111507959,
                27.901196813053296
              ],
              [
                86.92033498040996,
                27.901196229435822
              ],
              [
                86.92033491429395,
                27.901286503618074
              ],
              [
                86.91982684654592,
                27.90128620899761
              ],
              [
                86.91982678001669,
                27.901376483179863
              ],
              [
                86.91952193911453,
                27.901376305511064
              ],
              [
                86.91952207269402,
                27.901195757146564
              ],
              [
                86.91911561884953,
                27.901195519209793
              ],
              [
                86.9191154845963,
                27.901376067565312
              ],
              [
                86.9184041891939,
                27.901375648285637
              ],
              [
                86.9184041214699,
                27.901465922458904
              ],
              [
                86.9180992803342,
                27.901465741637022
              ],
              [
                86.91809921236766,
                27.901556015819274
              ],
              [
                86.91769275718468,
                27.90155577367839
              ],
              [
                86.91769268887678,
                27.901646047851656
              ],
              [
                86.9174894611236,
                27.901645926327564
              ],
              [
                86.91748939264502,
                27.90173620050083
              ],
              [
                86.91728616472116,
                27.901736078680297
              ],
              [
                86.9172860960719,
                27.90182635284458
              ],
              [
                86.91708286797736,
                27.9018262307276
              ],
              [
                86.91708279916641,
                27.901916504891886
              ],
              [
                86.91677795678204,
                27.90191632115048
              ],
              [
                86.91677788771057,
                27.902006595314763
              ],
              [
                86.91647304507468,
                27.90200641089962
              ],
              [
                86.91647297575169,
                27.902096685063903
              ],
              [
                86.91626974715408,
                27.902096561743182
              ],
              [
                86.91626967766939,
                27.902186835907468
              ],
              [
                86.91606644891009,
                27.902186712290302
              ],
              [
                86.91606637924575,
                27.902276986445603
              ],
              [
                86.91576153585527,
                27.902276800449425
              ],
              [
                86.91576146593938,
                27.902367074613707
              ],
              [
                86.91464370593964,
                27.902366386863527
              ],
              [
                86.91464377678079,
                27.902276112708225
              ],
              [
                86.91454216232029,
                27.902276049736322
              ],
              [
                86.91454230417325,
                27.902095501416735
              ],
              [
                86.91464391846307,
                27.902095564388638
              ],
              [
                86.91464398930422,
                27.902005290224352
              ],
              [
                86.9147456035042,
                27.902005353124387
              ],
              [
                86.9147458157761,
                27.901734530631533
              ],
              [
                86.91484742972456,
                27.901734593459704
              ],
              [
                86.91484750039503,
                27.901644319286437
              ],
              [
                86.91464427265981,
                27.901644193576196
              ],
              [
                86.91464434349197,
                27.90155391940293
              ],
              [
                86.91454272971419,
                27.90155385644001
              ],
              [
                86.91454280063618,
                27.90146358226674
              ],
              [
                86.91444118693026,
                27.901463519222975
              ],
              [
                86.91444132894493,
                27.901282970885422
              ],
              [
                86.9143397154097,
                27.90128290776979
              ],
              [
                86.91433978650237,
                27.901192633596523
              ],
              [
                86.91423817305696,
                27.901192570400042
              ],
              [
                86.91423845775104,
                27.90083147370697
              ],
              [
                86.91393361842094,
                27.900831283686337
              ],
              [
                86.91393368984599,
                27.900741009504085
              ],
              [
                86.9138320768228,
                27.90074094601116
              ],
              [
                86.91383214833768,
                27.90065067183789
              ],
              [
                86.91342569658626,
                27.900650417120595
              ],
              [
                86.91342584027178,
                27.900469868765075
              ],
              [
                86.91301938920309,
                27.900469612853016
              ],
              [
                86.91301917264623,
                27.900740435381802
              ],
              [
                86.91312078566942,
                27.900740499467616
              ],
              [
                86.91312071357063,
                27.900830773640884
              ],
              [
                86.91332393977872,
                27.900830901605897
              ],
              [
                86.91332343625504,
                27.90146282078284
              ],
              [
                86.91322182255811,
                27.901462756840758
              ],
              [
                86.91322167852223,
                27.90164330516933
              ],
              [
                86.91312006465462,
                27.9016432411464
              ],
              [
                86.91311999255583,
                27.901733515310685
              ],
              [
                86.91281515071046,
                27.901733322801718
              ],
              [
                86.91281522306078,
                27.901643048646417
              ],
              [
                86.91261199534352,
                27.901642919926818
              ],
              [
                86.91261221291548,
                27.901372097442948
              ],
              [
                86.9124089856923,
                27.901371968426908
              ],
              [
                86.91240934915066,
                27.9009205975965
              ],
              [
                86.91251096233556,
                27.90092066214045
              ],
              [
                86.91251103494638,
                27.900830387967183
              ],
              [
                86.91261264805043,
                27.900830452430288
              ],
              [
                86.9126127930924,
                27.900649904092734
              ],
              [
                86.91240956722568,
                27.900649775076694
              ],
              [
                86.912409494534,
                27.90074004924996
              ],
              [
                86.9121046554824,
                27.900739855177928
              ],
              [
                86.9121049472462,
                27.900378758484855
              ],
              [
                86.91220655992805,
                27.900378823253387
              ],
              [
                86.91220677849714,
                27.900108000715615
              ],
              [
                86.9119019412152,
                27.900107806194423
              ],
              [
                86.91190201432909,
                27.900017532021156
              ],
              [
                86.9118004019886,
                27.900017467028047
              ],
              [
                86.91180047517436,
                27.899927192845794
              ]
            ],
            [
              [
                86.92480672199315,
                27.900115450893423
              ],
              [
                86.92480684679609,
                27.899934902475025
              ],
              [
                86.92501007139619,
                27.899935013201365
              ],
              [
                86.92500994693461,
                27.900115561619767
              ],
              [
                86.92480672199315,
                27.900115450893423
              ]
            ],
            [
              [
                86.93029391129528,
                27.89993778684862
              ],
              [
                86.93029402698032,
                27.899757238403268
              ],
              [
                86.93090369985536,
                27.899757545402515
              ],
              [
                86.93090358517644,
                27.89993809384787
              ],
              [
                86.93070036054938,
                27.899937991817218
              ],
              [
                86.9307002455291,
                27.900118540262568
              ],
              [
                86.9304970205607,
                27.90011843792649
              ],
              [
                86.93049713592234,
                27.89993788948114
              ],
              [
                86.93029391129528,
                27.89993778684862
              ]
            ]
          ]
        ]
      },
      "id": "+9365+1449",
      "properties": {
        "area_m2": 1580903.5391956158,
        "count": 15772,
        "image_id": "COPERNICUS/S2_SR_HARMONIZED/20211014T044751_20211014T045624_T45RVL",
        "lake_id": "imja-tsho",
        "observed_at": "2021-10-14T05:01:09.982000Z",
        "water": 1
      }
    }
  ]
}
