{
  "type": "FeatureCollection",
  "features": [
    {
      "type": "Feature",
      "geometry": {
        "geodesic": false,
        "type": "MultiPolygon",
        "coordinates": [
          [
            [
              [
                86.9124101487321,
                27.899927581654616
              ],
              [
                86.91220692421285,
                27.899927452351115
              ],
              [
                86.9122070699196,
                27.89974690398661
              ],
              [
                86.91241029410648,
                27.89974703329011
              ],
              [
                86.9124101487321,
                27.899927581654616
              ]
            ]
          ],
          [
            [
              [
                86.91586733944739,
                27.896860410779443
              ],
              [
                86.91586740925547,
                27.896770136543292
              ],
              [
                86.91596901857761,
                27.896770198527047
              ],
              [
                86.91596894885038,
                27.896860472763198
              ],
              [
                86.91586733944739,
                27.896860410779443
              ]
            ]
          ],
          [
            [
              [
                86.9340574519656,
                27.893530163844623
              ],
              [
                86.9340573972582,
                27.89362043815264
              ],
              [
                86.93415900367879,
                27.893620486724547
              ],
              [
                86.93415894905223,
                27.893710761032562
              ],
              [
                86.9340573425508,
                27.893710712460656
              ],
              [
                86.934057233136,
                27.89389126108567
              ],
              [
                86.9339556264639,
                27.893891212432912
              ],
              [
                86.93395579083763,
                27.893620389508868
              ],
              [
                86.93385418441706,
                27.89362034079323
              ],
              [
                86.93385412953897,
                27.893710615101245
              ],
              [
                86.93375252303754,
                27.893710566304758
              ],
              [
                86.9337526329554,
                27.893530017679744
              ],
              [
                86.9340574519656,
                27.893530163844623
              ]
            ]
          ],
          [
            [
              [
                86.94045751545784,
                27.895609386560707
              ],
              [
                86.94066073203598,
                27.895609474200345
              ],
              [
                86.94066063357165,
                27.895790022789427
              ],
              [
                86.94045741665214,
                27.895789935149786
              ],
              [
                86.94045751545784,
                27.895609386560707
              ]
            ]
          ],
          [
            [
              [
                86.9124101487321,
                27.899927581654616
              ],
              [
                86.91281659777061,
                27.899927839363304
              ],
              [
                86.91281703186351,
                27.899386194233863
              ],
              [
                86.91261380835935,
                27.899386065532234
              ],
              [
                86.91261395338337,
                27.899205517149763
              ],
              [
                86.91281717655515,
                27.899205645851396
              ],
              [
                86.91281732125579,
                27.89902509745994
              ],
              [
                86.91302054408621,
                27.899025225865127
              ],
              [
                86.9130207606251,
                27.898754403264476
              ],
              [
                86.91322398295247,
                27.898754531364236
              ],
              [
                86.91322405496142,
                27.898664257164018
              ],
              [
                86.91342727712708,
                27.898664384967333
              ],
              [
                86.91342756448019,
                27.898303288148497
              ],
              [
                86.91322434298826,
                27.898303160354164
              ],
              [
                86.91322455900612,
                27.898032337726562
              ],
              [
                86.913427779995,
                27.898032465520895
              ],
              [
                86.91342770815673,
                27.898122739730095
              ],
              [
                86.91383415046685,
                27.898122994420444
              ],
              [
                86.91383386446124,
                27.898484091248264
              ],
              [
                86.91424030812782,
                27.898484344752838
              ],
              [
                86.91424087742614,
                27.897762151061265
              ],
              [
                86.9148505388836,
                27.897762529045387
              ],
              [
                86.91485068019757,
                27.89758198060902
              ],
              [
                86.91505390034203,
                27.897582106004847
              ],
              [
                86.91505411180545,
                27.897311283341313
              ],
              [
                86.91495250198025,
                27.89731122068382
              ],
              [
                86.91495257255191,
                27.897220946456656
              ],
              [
                86.91485096280756,
                27.897220883718315
              ],
              [
                86.91485110411256,
                27.897040335272965
              ],
              [
                86.9153591519719,
                27.89704064819211
              ],
              [
                86.91535922220218,
                27.896950373964945
              ],
              [
                86.91546083168602,
                27.89695043631701
              ],
              [
                86.91546090183546,
                27.89686016208984
              ],
              [
                86.91566412064142,
                27.896860286578374
              ],
              [
                86.91566419062019,
                27.896770012351205
              ],
              [
                86.91576579993334,
                27.896770074487673
              ],
              [
                86.91576573004441,
                27.896860348714842
              ],
              [
                86.91586733944739,
                27.896860410779443
              ],
              [
                86.91586719983123,
                27.897040959233777
              ],
              [
                86.91576559025756,
                27.897040897178158
              ],
              [
                86.91576552035966,
                27.897131171405327
              ],
              [
                86.91566391070513,
                27.89713110926886
              ],
              [
                86.91566370076886,
                27.89740193195036
              ],
              [
                86.91586692058992,
                27.897402056142447
              ],
              [
                86.91586706020608,
                27.897221507688112
              ],
              [
                86.91596866995043,
                27.897221569671867
              ],
              [
                86.91596873967767,
                27.8971312954447
              ],
              [
                86.9164767879682,
                27.897131604249562
              ],
              [
                86.91647685727321,
                27.897041330022397
              ],
              [
                86.91657846684687,
                27.897041391556993
              ],
              [
                86.91657853606208,
                27.896951117320842
              ],
              [
                86.91647692657824,
                27.896951055786246
              ],
              [
                86.91647699587428,
                27.896860781559077
              ],
              [
                86.9163753864713,
                27.896860719943632
              ],
              [
                86.91637524769955,
                27.89704126840695
              ],
              [
                86.91627363812589,
                27.89704120671964
              ],
              [
                86.91627377706831,
                27.896860658265304
              ],
              [
                86.91607055825337,
                27.896860534666104
              ],
              [
                86.91607069753715,
                27.896679986202788
              ],
              [
                86.91627391601074,
                27.896680109793003
              ],
              [
                86.91627405495316,
                27.896499561320702
              ],
              [
                86.91637566401478,
                27.896499623008015
              ],
              [
                86.91637559462892,
                27.896589897244166
              ],
              [
                86.91657881294081,
                27.896590020385226
              ],
              [
                86.916578882156,
                27.896499746149075
              ],
              [
                86.91708692750903,
                27.896500052690183
              ],
              [
                86.91708685870707,
                27.896590326935314
              ],
              [
                86.9171884678675,
                27.89659038801177
              ],
              [
                86.91718853657964,
                27.89650011377562
              ],
              [
                86.91749336379146,
                27.89650029658278
              ],
              [
                86.91749343225207,
                27.896410022337648
              ],
              [
                86.91739182326232,
                27.896409961476788
              ],
              [
                86.91739189180377,
                27.896319687240638
              ],
              [
                86.91769671851254,
                27.896319869589657
              ],
              [
                86.91769678680247,
                27.896229595344522
              ],
              [
                86.91810322208777,
                27.89622983743151
              ],
              [
                86.91810329003633,
                27.896139563186374
              ],
              [
                86.9183065075128,
                27.8961396837852
              ],
              [
                86.91830643972592,
                27.896229958030336
              ],
              [
                86.91840804855399,
                27.89623001821746
              ],
              [
                86.91840811625103,
                27.896139743972327
              ],
              [
                86.91850972498926,
                27.8961398040786
              ],
              [
                86.91850979260545,
                27.89604952983347
              ],
              [
                86.91881461856862,
                27.89604970971212
              ],
              [
                86.91881455120395,
                27.896139983957255
              ],
              [
                86.9190177686804,
                27.89614010350505
              ],
              [
                86.91901770148642,
                27.896230377750186
              ],
              [
                86.91911931031449,
                27.896230437407304
              ],
              [
                86.91911951163593,
                27.89595961466292
              ],
              [
                86.91922112021247,
                27.89595967424817
              ],
              [
                86.91922105318916,
                27.89604994850229
              ],
              [
                86.91942427049494,
                27.896050067448215
              ],
              [
                86.91942433735655,
                27.8959597931941
              ],
              [
                86.9195259459241,
                27.895959852554775
              ],
              [
                86.91952607946764,
                27.895779304046542
              ],
              [
                86.9196276878735,
                27.89577936333535
              ],
              [
                86.91962762118257,
                27.895869637589467
              ],
              [
                86.91983083816497,
                27.89586975593352
              ],
              [
                86.91983090467623,
                27.895779481679405
              ],
              [
                86.92023733829964,
                27.8957797174692
              ],
              [
                86.92023720594187,
                27.895960265977433
              ],
              [
                86.92044042308595,
                27.895960383423173
              ],
              [
                86.92044048910314,
                27.895870109169056
              ],
              [
                86.92033888060746,
                27.89587005048212
              ],
              [
                86.92033907890158,
                27.895599227710786
              ],
              [
                86.92064390361608,
                27.89559940354702
              ],
              [
                86.92064383776957,
                27.895689677801137
              ],
              [
                86.92074544609457,
                27.895689736263495
              ],
              [
                86.9207453803379,
                27.895780010517612
              ],
              [
                86.92084698874375,
                27.895780068908106
              ],
              [
                86.92084712008644,
                27.89559952039089
              ],
              [
                86.92115194480992,
                27.895599695095246
              ],
              [
                86.92115207564954,
                27.89541914657803
              ],
              [
                86.92155850793446,
                27.89541937846914
              ],
              [
                86.92155844285152,
                27.895509652732237
              ],
              [
                86.92176165916916,
                27.895509768228635
              ],
              [
                86.92176172408142,
                27.895419493965534
              ],
              [
                86.9218633321549,
                27.895419551601442
              ],
              [
                86.92186326732349,
                27.895509825864544
              ],
              [
                86.9219648754868,
                27.895509883428584
              ],
              [
                86.92196494022838,
                27.895419609165486
              ],
              [
                86.92206654830186,
                27.89541966664868
              ],
              [
                86.92206667762332,
                27.895239118122483
              ],
              [
                86.92216828553511,
                27.89523917552483
              ],
              [
                86.92216822095521,
                27.89532944979691
              ],
              [
                86.92226982894785,
                27.895329507127393
              ],
              [
                86.92226995792795,
                27.895148958601194
              ],
              [
                86.9223715657499,
                27.895149015859808
              ],
              [
                86.9223716301591,
                27.895058741587725
              ],
              [
                86.92287966885563,
                27.895059026766898
              ],
              [
                86.92287973284263,
                27.894968752494812
              ],
              [
                86.92308294815415,
                27.894968866041864
              ],
              [
                86.92308301197048,
                27.894878591769782
              ],
              [
                86.92318461954089,
                27.894878648435512
              ],
              [
                86.92318455580542,
                27.894968922707594
              ],
              [
                86.92328616346568,
                27.89496897929247
              ],
              [
                86.92328609981105,
                27.895059253564558
              ],
              [
                86.92338770755215,
                27.89505931007757
              ],
              [
                86.92338777111694,
                27.894969035805488
              ],
              [
                86.92348937877719,
                27.894969092237655
              ],
              [
                86.92348931529325,
                27.895059366509738
              ],
              [
                86.92359092303435,
                27.895059422879022
              ],
              [
                86.92359098642847,
                27.894969148597955
              ],
              [
                86.92369259408872,
                27.89496920488639
              ],
              [
                86.92369265740197,
                27.894878930614308
              ],
              [
                86.92389587254281,
                27.8948790429666
              ],
              [
                86.92389580940024,
                27.894969317238683
              ],
              [
                86.92399741706049,
                27.89496937330254
              ],
              [
                86.92399748012222,
                27.894879099021473
              ],
              [
                86.92409908769264,
                27.894879155013466
              ],
              [
                86.92409921364543,
                27.894698606460317
              ],
              [
                86.92420082104518,
                27.89469866237146
              ],
              [
                86.92420075815411,
                27.894788936643543
              ],
              [
                86.92430236565268,
                27.89478899248282
              ],
              [
                86.9243024284539,
                27.894698718210737
              ],
              [
                86.92440403586262,
                27.894698773969168
              ],
              [
                86.924404098583,
                27.8946084996881
              ],
              [
                86.92450570590188,
                27.894608555374667
              ],
              [
                86.92450576854141,
                27.8945182810936
              ],
              [
                86.9247089830175,
                27.89451839224215
              ],
              [
                86.92470892054865,
                27.894608666523215
              ],
              [
                86.92460731322078,
                27.894608610989366
              ],
              [
                86.92460725067109,
                27.894698885270433
              ],
              [
                86.92481046548853,
                27.894698996266268
              ],
              [
                86.92481052786755,
                27.8946087219852
              ],
              [
                86.92491213519543,
                27.89460877737532
              ],
              [
                86.92491219749358,
                27.894518503094258
              ],
              [
                86.92501380473163,
                27.89451855840353
              ],
              [
                86.92501374251431,
                27.894608832684593
              ],
              [
                86.92511534984219,
                27.894608887922
              ],
              [
                86.92511541196967,
                27.894518613640933
              ],
              [
                86.92562344817786,
                27.894518888705075
              ],
              [
                86.92562350988314,
                27.894428614424008
              ],
              [
                86.92572511704034,
                27.894428669203275
              ],
              [
                86.92572517866476,
                27.894338394922208
              ],
              [
                86.92623321403752,
                27.894338667731578
              ],
              [
                86.92623327523076,
                27.89424839345051
              ],
              [
                86.92653809620828,
                27.894248556234224
              ],
              [
                86.92653815715896,
                27.894158281944176
              ],
              [
                86.92684297787596,
                27.894158444063134
              ],
              [
                86.92684303857513,
                27.894068169773085
              ],
              [
                86.92704625221579,
                27.894068277472105
              ],
              [
                86.92704619169629,
                27.894158551762153
              ],
              [
                86.92785904696858,
                27.894158979575824
              ],
              [
                86.92785898711382,
                27.894249253865873
              ],
              [
                86.92796059410932,
                27.89424930700122
              ],
              [
                86.92796065387424,
                27.894159032711173
              ],
              [
                86.9282654746092,
                27.894159191677048
              ],
              [
                86.92826559363598,
                27.893978643087966
              ],
              [
                86.92867202061187,
                27.893978853994426
              ],
              [
                86.92867207979288,
                27.893888579695396
              ],
              [
                86.92877368644702,
                27.893888632237857
              ],
              [
                86.92877374554719,
                27.893798357938824
              ],
              [
                86.92907856527604,
                27.893798515108067
              ],
              [
                86.92907862411569,
                27.893708240809033
              ],
              [
                86.92928183710058,
                27.893708345211234
              ],
              [
                86.92928189576955,
                27.893618070912204
              ],
              [
                86.92948510858375,
                27.893618175017963
              ],
              [
                86.92948516708205,
                27.893527900709945
              ],
              [
                86.9295867734128,
                27.893527952650537
              ],
              [
                86.92958683183024,
                27.89343767834252
              ],
              [
                86.92989165055297,
                27.893437833715133
              ],
              [
                86.92989159238707,
                27.893528108023148
              ],
              [
                86.92999319870883,
                27.89352815965831
              ],
              [
                86.92999325679389,
                27.893437885350295
              ],
              [
                86.93009486303481,
                27.893437936922574
              ],
              [
                86.93009474704434,
                27.893618485529622
              ],
              [
                86.93029795986752,
                27.89361858843164
              ],
              [
                86.93029801769208,
                27.893528314132606
              ],
              [
                86.93070444300608,
                27.893528519038323
              ],
              [
                86.9307043855139,
                27.893618793346338
              ],
              [
                86.93111081116028,
                27.893618997057295
              ],
              [
                86.93111086832008,
                27.893528722758262
              ],
              [
                86.93121247464184,
                27.89352877349511
              ],
              [
                86.93121241758085,
                27.893619047803124
              ],
              [
                86.93131402399244,
                27.893619098468108
              ],
              [
                86.93131408097258,
                27.893528824160093
              ],
              [
                86.93141568730333,
                27.89352887475321
              ],
              [
                86.93141574420262,
                27.893438600445194
              ],
              [
                86.93151735045252,
                27.89343865095746
              ],
              [
                86.93151729363407,
                27.89352892526548
              ],
              [
                86.93161889996482,
                27.89352897571486
              ],
              [
                86.93161895669344,
                27.893438701406847
              ],
              [
                86.93192377543414,
                27.8934388522789
              ],
              [
                86.93192383191122,
                27.893348577970883
              ],
              [
                86.93182222575116,
                27.893348527746078
              ],
              [
                86.931822338876,
                27.893167979130045
              ],
              [
                86.93192394486539,
                27.89316802934587
              ],
              [
                86.93192388838831,
                27.893258303653887
              ],
              [
                86.93222870662596,
                27.8932584538522
              ],
              [
                86.9322286504004,
                27.8933487281692
              ],
              [
                86.93233025656946,
                27.8933487780796
              ],
              [
                86.93233020042474,
                27.893439052396594
              ],
              [
                86.93243180667464,
                27.893439102235128
              ],
              [
                86.93243186272952,
                27.893348827927113
              ],
              [
                86.93253346888959,
                27.89334887769378
              ],
              [
                86.93253341292454,
                27.893439152001793
              ],
              [
                86.93273662541536,
                27.89343925131055
              ],
              [
                86.93273656961202,
                27.89352952562755
              ],
              [
                86.93283817595174,
                27.893529575169637
              ],
              [
                86.93283823166526,
                27.89343930086162
              ],
              [
                86.93293983791516,
                27.89343935032286
              ],
              [
                86.93293972664982,
                27.893619898947875
              ],
              [
                86.933142939482,
                27.893619997654756
              ],
              [
                86.93314288401102,
                27.893710271962775
              ],
              [
                86.9330412775096,
                27.893710222645264
              ],
              [
                86.93304122195778,
                27.89380049695328
              ],
              [
                86.93324443513131,
                27.89380059551643
              ],
              [
                86.9332442689879,
                27.89407141844048
              ],
              [
                86.9333458758217,
                27.894071467605276
              ],
              [
                86.93334570992084,
                27.894342290511354
              ],
              [
                86.93344731701515,
                27.894342339604286
              ],
              [
                86.93344726180469,
                27.8944326139123
              ],
              [
                86.93354886897986,
                27.894432662933365
              ],
              [
                86.93354892410946,
                27.89434238862535
              ],
              [
                86.93365053120378,
                27.89434243757455
              ],
              [
                86.93365047615502,
                27.89443271187358
              ],
              [
                86.93375208333916,
                27.894432760741932
              ],
              [
                86.933752193266,
                27.89425221214387
              ],
              [
                86.93385380027048,
                27.894252260940355
              ],
              [
                86.93385369051433,
                27.89443280953842
              ],
              [
                86.93446333359225,
                27.894433100745285
              ],
              [
                86.93446344234229,
                27.894252552138237
              ],
              [
                86.93426022831537,
                27.894252455371713
              ],
              [
                86.93426017377864,
                27.894342729670747
              ],
              [
                86.93415856667535,
                27.894342681179687
              ],
              [
                86.9341586213019,
                27.894252406871672
              ],
              [
                86.93395540728395,
                27.894252309655993
              ],
              [
                86.93395546208119,
                27.89416203535696
              ],
              [
                86.93405706900482,
                27.894162084000733
              ],
              [
                86.9340571784286,
                27.8939815353847
              ],
              [
                86.9342603919435,
                27.89398163245665
              ],
              [
                86.93426028286108,
                27.8941621810637
              ],
              [
                86.9343618897847,
                27.894162229482895
              ],
              [
                86.93436199869645,
                27.893981680875847
              ],
              [
                86.93456521222032,
                27.893981777489653
              ],
              [
                86.93456526650552,
                27.89389150318164
              ],
              [
                86.93436205315233,
                27.89389140656783
              ],
              [
                86.9343621076082,
                27.893801132259814
              ],
              [
                86.93446371419945,
                27.89380118059816
              ],
              [
                86.93446376857447,
                27.893710906290146
              ],
              [
                86.93426055556264,
                27.893710809523622
              ],
              [
                86.93426066464507,
                27.893530260907593
              ],
              [
                86.9340574519656,
                27.893530163844623
              ],
              [
                86.93405750667301,
                27.893439889527627
              ],
              [
                86.93476875044924,
                27.89344022794096
              ],
              [
                86.93476869633473,
                27.893530502248975
              ],
              [
                86.93487030266547,
                27.89353055029986
              ],
              [
                86.93487024863181,
                27.893620824607876
              ],
              [
                86.93507346148195,
                27.89362092047608
              ],
              [
                86.93507351534492,
                27.893530646159082
              ],
              [
                86.93547994070384,
                27.893530836997183
              ],
              [
                86.93547988717324,
                27.893621111305198
              ],
              [
                86.9355814936028,
                27.893621158826075
              ],
              [
                86.93558154704357,
                27.89353088451806
              ],
              [
                86.93588636606276,
                27.893531026622554
              ],
              [
                86.935886419261,
                27.89344075231454
              ],
              [
                86.93680087558194,
                27.893441174603574
              ],
              [
                86.93680098044229,
                27.893260625960593
              ],
              [
                86.93822346573099,
                27.893261270798252
              ],
              [
                86.9382234144821,
                27.893351545124233
              ],
              [
                86.93842662683817,
                27.893351636042723
              ],
              [
                86.93842657575098,
                27.893441910368704
              ],
              [
                86.93862978827772,
                27.893442000990753
              ],
              [
                86.9386296864447,
                27.893622549624748
              ],
              [
                86.93842647358558,
                27.893622459002703
              ],
              [
                86.9384262692458,
                27.893983556270697
              ],
              [
                86.93822305571294,
                27.893983465352207
              ],
              [
                86.93822295320618,
                27.89416401397722
              ],
              [
                86.93883259482884,
                27.894164285852344
              ],
              [
                86.93883269632948,
                27.893983737218345
              ],
              [
                86.93964555048787,
                27.89398409552038
              ],
              [
                86.93964545034368,
                27.894164644154376
              ],
              [
                86.94005187810109,
                27.894164821508763
              ],
              [
                86.94005197758052,
                27.893984272874768
              ],
              [
                86.94025519112236,
                27.893984361107293
              ],
              [
                86.94025548851863,
                27.893442715178352
              ],
              [
                86.94045870105435,
                27.89344280310545
              ],
              [
                86.94045850346092,
                27.893803900400396
              ],
              [
                86.94066171667039,
                27.893803988022068
              ],
              [
                86.94066117513898,
                27.894797005482104
              ],
              [
                86.9405595676045,
                27.89479696169822
              ],
              [
                86.940559616922,
                27.8947066873902
              ],
              [
                86.94045800946836,
                27.89470664353445
              ],
              [
                86.94045796007,
                27.894796917842466
              ],
              [
                86.94015313747552,
                27.894796785835034
              ],
              [
                86.94015308782564,
                27.89488706014305
              ],
              [
                86.93994987259497,
                27.89488697176679
              ],
              [
                86.93994982276541,
                27.894977246065825
              ],
              [
                86.93974660737305,
                27.89497715738414
              ],
              [
                86.9397465573818,
                27.895067431692155
              ],
              [
                86.93994977294486,
                27.89506752037384
              ],
              [
                86.93994972312429,
                27.895157794672873
              ],
              [
                86.94005133099115,
                27.895157838896935
              ],
              [
                86.94005128125143,
                27.89524811320495
              ],
              [
                86.94015288920814,
                27.895248157357145
              ],
              [
                86.94015283954926,
                27.895338431656178
              ],
              [
                86.94025444758681,
                27.89533847573651
              ],
              [
                86.94025439801777,
                27.895428750035542
              ],
              [
                86.94045761426354,
                27.895428837971625
              ],
              [
                86.94045751545784,
                27.895609386560707
              ],
              [
                86.94005108229257,
                27.895609210392095
              ],
              [
                86.9400508833337,
                27.89597030757026
              ],
              [
                86.94045731783746,
                27.895970483738868
              ],
              [
                86.94045721903176,
                27.89615103231897
              ],
              [
                86.94066043662501,
                27.896151119958606
              ],
              [
                86.94066053509833,
                27.89597057137851
              ],
              [
                86.94086375235919,
                27.89597065871272
              ],
              [
                86.94086355608628,
                27.896331755872918
              ],
              [
                86.94096516504909,
                27.896331799432225
              ],
              [
                86.94096521403422,
                27.896241525142177
              ],
              [
                86.94106682291618,
                27.896241568620635
              ],
              [
                86.9410666762213,
                27.8965123914818
              ],
              [
                86.94116828535479,
                27.896512434888393
              ],
              [
                86.94116823654034,
                27.896602709178445
              ],
              [
                86.941066627326,
                27.896602665771848
              ],
              [
                86.94106652952642,
                27.896783214333983
              ],
              [
                86.94126974829645,
                27.896783301075306
              ],
              [
                86.94126960210463,
                27.897054123918505
              ],
              [
                86.9411679924591,
                27.897054080583775
              ],
              [
                86.94116789483019,
                27.89723462913692
              ],
              [
                86.94106628502297,
                27.897234585730327
              ],
              [
                86.94106638282254,
                27.897054037177178
              ],
              [
                86.94086316354047,
                27.897053950139412
              ],
              [
                86.94086286911764,
                27.897595595780892
              ],
              [
                86.94065964882945,
                27.897595508437696
              ],
              [
                86.94065974730277,
                27.89741495989353
              ],
              [
                86.94025330740013,
                27.89741478431781
              ],
              [
                86.94025340654719,
                27.89723423576466
              ],
              [
                86.94005018693274,
                27.89723414753213
              ],
              [
                86.94005038590957,
                27.89687305041685
              ],
              [
                86.93964394802813,
                27.896872873044497
              ],
              [
                86.93964384787498,
                27.897053421597647
              ],
              [
                86.93903419004671,
                27.897053153288837
              ],
              [
                86.93903408887844,
                27.897233701833006
              ],
              [
                86.93862764965853,
                27.89723352146028
              ],
              [
                86.93862744595656,
                27.897594618539628
              ],
              [
                86.93842422567734,
                27.897594527899614
              ],
              [
                86.93842412348499,
                27.897775076434797
              ],
              [
                86.93862734410556,
                27.89777516707481
              ],
              [
                86.93862714040358,
                27.89813626412721
              ],
              [
                86.9388303616979,
                27.898136354461794
              ],
              [
                86.93883026017927,
                27.898316902987993
              ],
              [
                86.93842381691694,
                27.898316722004413
              ],
              [
                86.93842371472459,
                27.898497270512646
              ],
              [
                86.93822049275656,
                27.89849717957619
              ],
              [
                86.93822039022285,
                27.898677728084422
              ],
              [
                86.93801716792244,
                27.89867763684254
              ],
              [
                86.93801706504736,
                27.89885818534179
              ],
              [
                86.93781384241457,
                27.89885809380346
              ],
              [
                86.93781394561303,
                27.89867754529523
              ],
              [
                86.9374075010122,
                27.89867736132026
              ],
              [
                86.93740739713103,
                27.898857909819508
              ],
              [
                86.93679772922367,
                27.898857631593298
              ],
              [
                86.9367975194401,
                27.899218728573832
              ],
              [
                86.9365942961246,
                27.899218635238874
              ],
              [
                86.93659419089593,
                27.89939918372016
              ],
              [
                86.93598451996125,
                27.899398901900685
              ],
              [
                86.93598430747376,
                27.899759998845287
              ],
              [
                86.93659398042965,
                27.899760280673743
              ],
              [
                86.93659387519202,
                27.89994082913706
              ],
              [
                86.937000324509,
                27.899941015528498
              ],
              [
                86.9370002199451,
                27.900121563991814
              ],
              [
                86.93720344494047,
                27.90012165674287
              ],
              [
                86.9372032364864,
                27.90048275366052
              ],
              [
                86.93740646216447,
                27.900482846106147
              ],
              [
                86.93740635827432,
                27.900663394560482
              ],
              [
                86.93760958428477,
                27.90066348670068
              ],
              [
                86.93760948072699,
                27.900844035155014
              ],
              [
                86.9378127070788,
                27.900844126998766
              ],
              [
                86.93781260386238,
                27.90102467544412
              ],
              [
                86.93801583054658,
                27.90102476700041
              ],
              [
                86.93801593343062,
                27.90084421855506
              ],
              [
                86.93862561248606,
                27.900844491400363
              ],
              [
                86.93862571435503,
                27.90066394294603
              ],
              [
                86.93882894037446,
                27.90066403329858
              ],
              [
                86.93882873731029,
                27.901025130198263
              ],
              [
                86.93903196400348,
                27.901025220254372
              ],
              [
                86.93903186280825,
                27.901205768699725
              ],
              [
                86.93913347632552,
                27.901205813606506
              ],
              [
                86.93913342581325,
                27.90129608783367
              ],
              [
                86.93923503941137,
                27.901296132668588
              ],
              [
                86.93923498897995,
                27.901386406886772
              ],
              [
                86.93903176161304,
                27.90138631713609
              ],
              [
                86.93903166041783,
                27.90156686557246
              ],
              [
                86.93760906650483,
                27.901566228900485
              ],
              [
                86.93760917006261,
                27.9013856804731
              ],
              [
                86.93659303327297,
                27.901385216717834
              ],
              [
                86.9365931385106,
                27.90120466829045
              ],
              [
                86.93557700343673,
                27.90120419705222
              ],
              [
                86.9355771103632,
                27.90102364861585
              ],
              [
                86.93517065701278,
                27.90102345802928
              ],
              [
                86.93517076461299,
                27.90084290959291
              ],
              [
                86.93435785927758,
                27.900842524817527
              ],
              [
                86.93435796822526,
                27.900661976372174
              ],
              [
                86.93313861227031,
                27.90066139022145
              ],
              [
                86.93313872323921,
                27.900480841785082
              ],
              [
                86.93171614369926,
                27.900480144315132
              ],
              [
                86.93171625703071,
                27.900299595878764
              ],
              [
                86.93090335580959,
                27.900299190729587
              ],
              [
                86.93090347048853,
                27.90011864229322
              ],
              [
                86.92704219633126,
                27.900116652390118
              ],
              [
                86.92704207523836,
                27.9002972008175
              ],
              [
                86.9248065971992,
                27.900295999311826
              ],
              [
                86.92480647239624,
                27.900476547721244
              ],
              [
                86.9241967955776,
                27.900476213745588
              ],
              [
                86.92419666975957,
                27.900656762146024
              ],
              [
                86.92175795855036,
                27.900655399258007
              ],
              [
                86.92175782868092,
                27.900835947640477
              ],
              [
                86.920132018612,
                27.900835015063446
              ],
              [
                86.9201318860476,
                27.901015563445917
              ],
              [
                86.91911575310274,
                27.901014970836307
              ],
              [
                86.91911561884953,
                27.901195519209793
              ],
              [
                86.91891239192279,
                27.90119539978776
              ],
              [
                86.91891252651737,
                27.901014851423255
              ],
              [
                86.91870929993199,
                27.901014731704777
              ],
              [
                86.91870916500504,
                27.90119528006928
              ],
              [
                86.91789625733401,
                27.901194798186012
              ],
              [
                86.9178961210506,
                27.90137534654153
              ],
              [
                86.91748966655034,
                27.90137510380776
              ],
              [
                86.91748952960218,
                27.901555652154297
              ],
              [
                86.91687984683668,
                27.901555285794373
              ],
              [
                86.91687970887342,
                27.90173583414091
              ],
              [
                86.91647325303467,
                27.90173558839778
              ],
              [
                86.91647311438868,
                27.901916136735334
              ],
              [
                86.91586342962893,
                27.901915765874854
              ],
              [
                86.91586328997684,
                27.902096314203423
              ],
              [
                86.91505037563134,
                27.90209581552166
              ],
              [
                86.9150505166309,
                27.90191526720207
              ],
              [
                86.91484728838364,
                27.90191514177929
              ],
              [
                86.91484771240643,
                27.901373496784597
              ],
              [
                86.91464448517425,
                27.901373371074357
              ],
              [
                86.91464462684756,
                27.901192822727822
              ],
              [
                86.91444139994778,
                27.901192696712155
              ],
              [
                86.9144416839681,
                27.90083160001908
              ],
              [
                86.91423845775104,
                27.90083147370697
              ],
              [
                86.91423860009809,
                27.90065092536043
              ],
              [
                86.91403537421338,
                27.900650798751876
              ],
              [
                86.91403551689281,
                27.90047025038737
              ],
              [
                86.91322261473744,
                27.900469740961757
              ],
              [
                86.91322275876433,
                27.900289192597256
              ],
              [
                86.91281630836937,
                27.90028893609231
              ],
              [
                86.91281616366874,
                27.90046948444783
              ],
              [
                86.91240971260004,
                27.900469226730156
              ],
              [
                86.9124101487321,
                27.899927581654616
              ]
            ],
            [
              [
                86.91881455120395,
                27.896139983957255
              ],
              [
                86.91881448383928,
                27.896230258202387
              ],
              [
                86.9187128750202,
                27.89623019832069
              ],
              [
                86.91871294246572,
                27.89613992407556
              ],
              [
                86.91881455120395,
                27.896139983957255
              ]
            ],
            [
              [
                86.93822295320618,
                27.89416401397722
              ],
              [
                86.93822285069943,
                27.894344562593254
              ],
              [
                86.93801963648386,
                27.894344471369337
              ],
              [
                86.93801973933196,
                27.894163922753304
              ],
              [
                86.93822295320618,
                27.89416401397722
              ]
            ],
            [
              [
                86.93883259482884,
                27.894164285852344
              ],
              [
                86.93944223646048,
                27.894164555023533
              ],
              [
                86.93944203548938,
                27.89452565227356
              ],
              [
                86.93883239183653,
                27.894525383093388
              ],
              [
                86.93883259482884,
                27.894164285852344
              ]
            ],
            [
              [
                86.91546062124668,
                27.89722125899851
              ],
              [
                86.91546069139612,
                27.897130984780325
              ],
              [
                86.91556230105063,
                27.897131047060522
              ],
              [
                86.91556223098203,
                27.89722132128769
              ],
              [
                86.91546062124668,
                27.89722125899851
              ]
            ],
            [
              [
                86.91922071806366,
                27.896501319727957
              ],
              [
                86.91922078508696,
                27.896411045491806
              ],
              [
                86.91932239407672,
                27.89641110499621
              ],
              [
                86.91932232713427,
                27.896501379241343
              ],
              [
                86.91922071806366,
                27.896501319727957
              ]
            ],
            [
              [
                86.91962722106396,
                27.896411283078233
              ],
              [
                86.91962728774591,
                27.896321008833098
              ],
              [
                86.91972889665482,
                27.896321068050042
              ],
              [
                86.91972883005373,
                27.896411342295178
              ],
              [
                86.91962722106396,
                27.896411283078233
              ]
            ],
            [
              [
                86.91983043905246,
                27.896411401431273
              ],
              [
                86.91983050557272,
                27.896321127186138
              ],
              [
                86.91993211448163,
                27.896321186241384
              ],
              [
                86.91993204804223,
                27.8964114604955
              ],
              [
                86.91983043905246,
                27.896411401431273
              ]
            ],
            [
              [
                86.92003365704097,
                27.89641151947888
              ],
              [
                86.9200337897401,
                27.896230970979634
              ],
              [
                86.92013539856816,
                27.89623102989115
              ],
              [
                86.92013526603971,
                27.8964115783904
              ],
              [
                86.92003365704097,
                27.89641151947888
              ]
            ],
            [
              [
                86.92023700739622,
                27.8962310887308
              ],
              [
                86.92023707357511,
                27.896140814476684
              ],
              [
                86.92033868232232,
                27.89614087324447
              ],
              [
                86.92033861622429,
                27.896231147489605
              ],
              [
                86.92023700739622,
                27.8962310887308
              ]
            ],
            [
              [
                86.92044055511136,
                27.89577983491494
              ],
              [
                86.92044062112855,
                27.895689560660824
              ],
              [
                86.92054222944456,
                27.895689619266914
              ],
              [
                86.92054216351721,
                27.89577989352103
              ],
              [
                86.92044055511136,
                27.89577983491494
              ]
            ],
            [
              [
                86.92064350855499,
                27.89614104907172
              ],
              [
                86.92064357439251,
                27.896050774826588
              ],
              [
                86.92084679171626,
                27.896050891670455
              ],
              [
                86.92084672604044,
                27.896141165924572
              ],
              [
                86.92064350855499,
                27.89614104907172
              ]
            ],
            [
              [
                86.92684261369895,
                27.894700089785463
              ],
              [
                86.92684273509728,
                27.894519541214347
              ],
              [
                86.92704594958235,
                27.894519648913366
              ],
              [
                86.92704607063932,
                27.89433910034225
              ],
              [
                86.9274524989447,
                27.89433931485096
              ],
              [
                86.927452137804,
                27.894880960564304
              ],
              [
                86.92704570746841,
                27.8948807460556
              ],
              [
                86.92704582852538,
                27.894700197484482
              ],
              [
                86.92684261369895,
                27.894700089785463
              ]
            ],
            [
              [
                86.93171993980897,
                27.894431769100674
              ],
              [
                86.93171999646572,
                27.89434149480164
              ],
              [
                86.93182160355104,
                27.894341545098314
              ],
              [
                86.93182154698412,
                27.894431819397347
              ],
              [
                86.93171993980897,
                27.894431769100674
              ]
            ],
            [
              [
                86.93446349671731,
                27.894162277830223
              ],
              [
                86.93446355108335,
                27.89407200353119
              ],
              [
                86.93456515792614,
                27.894072051797668
              ],
              [
                86.93456510364095,
                27.894162326105686
              ],
              [
                86.93446349671731,
                27.894162277830223
              ]
            ],
            [
              [
                86.93456499506159,
                27.894342874712734
              ],
              [
                86.93456504935575,
                27.894252600404716
              ],
              [
                86.93466665636923,
                27.894252648608315
              ],
              [
                86.93466660216488,
                27.89434292290735
              ],
              [
                86.93456499506159,
                27.894342874712734
              ]
            ],
            [
              [
                86.93496850969034,
                27.899217877725526
              ],
              [
                86.93496861762291,
                27.89903732923526
              ],
              [
                86.93517184058808,
                27.899037424977703
              ],
              [
                86.93517173299686,
                27.89921797345899
              ],
              [
                86.93496850969034,
                27.899217877725526
              ]
            ],
            [
              [
                86.93496948102967,
                27.897592941214313
              ],
              [
                86.93496958894428,
                27.89741239268811
              ],
              [
                86.93517280887315,
                27.897412488421573
              ],
              [
                86.93517270129091,
                27.89759303694777
              ],
              [
                86.93496948102967,
                27.897592941214313
              ]
            ],
            [
              [
                86.93517453008116,
                27.89452371137356
              ],
              [
                86.93517463764543,
                27.89434316276651
              ],
              [
                86.93598749443588,
                27.89434354264608
              ],
              [
                86.93598738821908,
                27.89452409125313
              ],
              [
                86.93619060275805,
                27.89452418547742
              ],
              [
                86.93619070864247,
                27.894343636861386
              ],
              [
                86.93639392284008,
                27.89434373078923
              ],
              [
                86.93639402838315,
                27.8941631821732
              ],
              [
                86.93700366997885,
                27.89416346213316
              ],
              [
                86.93700356545088,
                27.89434401074919
              ],
              [
                86.93781642227725,
                27.894344379848974
              ],
              [
                86.93781631909677,
                27.894524928465007
              ],
              [
                86.93822274819267,
                27.894525111209283
              ],
              [
                86.93822264567693,
                27.894705659825316
              ],
              [
                86.93781621590729,
                27.894705477072055
              ],
              [
                86.9378161127268,
                27.894886025679103
              ],
              [
                86.9376128975051,
                27.894885933853313
              ],
              [
                86.93761310454882,
                27.894524836639217
              ],
              [
                86.93659703183599,
                27.8945243730187
              ],
              [
                86.9365969266253,
                27.894704921625745
              ],
              [
                86.93558085225959,
                27.89470445051328
              ],
              [
                86.93558095915012,
                27.894523901915214
              ],
              [
                86.93517453008116,
                27.89452371137356
              ]
            ],
            [
              [
                86.93679636553615,
                27.901204761634393
              ],
              [
                86.93679668024295,
                27.900663116316306
              ],
              [
                86.9369999062534,
                27.900663209363803
              ],
              [
                86.93699980168951,
                27.900843757809152
              ],
              [
                86.93720302803234,
                27.900843850560204
              ],
              [
                86.93720292380081,
                27.901024398996572
              ],
              [
                86.9369996971256,
                27.901024306254502
              ],
              [
                86.93699959255272,
                27.90120485469087
              ],
              [
                86.93679636553615,
                27.901204761634393
              ]
            ],
            [
              [
                86.93680008907097,
                27.894795289250755
              ],
              [
                86.93680014150563,
                27.89470501495172
              ],
              [
                86.93690174895029,
                27.894705061493436
              ],
              [
                86.93690169659648,
                27.89479533580145
              ],
              [
                86.93680008907097,
                27.894795289250755
              ]
            ],
            [
              [
                86.93802015070646,
                27.893441728217315
              ],
              [
                86.93802020212604,
                27.893351453900316
              ],
              [
                86.93812180830407,
                27.893351499543716
              ],
              [
                86.93812175696534,
                27.8934417738697
              ],
              [
                86.93802015070646,
                27.893441728217315
              ]
            ],
            [
              [
                86.93822069781498,
                27.898136082541757
              ],
              [
                86.9382208003397,
                27.89795553402454
              ],
              [
                86.93842402129265,
                27.897955624960996
              ],
              [
                86.93842391910928,
                27.898136173487195
              ],
              [
                86.93822069781498,
                27.898136082541757
              ]
            ],
            [
              [
                86.94045702141138,
                27.89651212947018
              ],
              [
                86.94045712022606,
                27.896331580899066
              ],
              [
                86.94066033815169,
                27.896331668529722
              ],
              [
                86.94066023968735,
                27.89651221710982
              ],
              [
                86.94045702141138,
                27.89651212947018
              ]
            ],
            [
              [
                86.91688336454052,
                27.896951301475475
              ],
              [
                86.91688329556787,
                27.897041575711626
              ],
              [
                86.91678168599421,
                27.897041514401607
              ],
              [
                86.91678175504771,
                27.896951240165457
              ],
              [
                86.91688336454052,
                27.896951301475475
              ]
            ],
            [
              [
                86.9329395041012,
                27.893980996170953
              ],
              [
                86.93304111085415,
                27.89398104556931
              ],
              [
                86.93304116640596,
                27.893890771261294
              ],
              [
                86.93314277307807,
                27.893890820578804
              ],
              [
                86.93314266214512,
                27.894071369194833
              ],
              [
                86.93304105530233,
                27.894071319868342
              ],
              [
                86.9330409441987,
                27.89425186847539
              ],
              [
                86.93324415821664,
                27.894251967038542
              ],
              [
                86.93324410282652,
                27.89434224134656
              ],
              [
                86.9331424957412,
                27.894342192100915
              ],
              [
                86.93314244027022,
                27.894432466399948
              ],
              [
                86.93304083309506,
                27.894432417082438
              ],
              [
                86.93304088864687,
                27.894342142774423
              ],
              [
                86.93293928155256,
                27.89434209338505
              ],
              [
                86.9329395041012,
                27.893980996170953
              ]
            ],
            [
              [
                86.93273617897961,
                27.89416144576569
              ],
              [
                86.93283778590325,
                27.894161495316762
              ],
              [
                86.93283767445826,
                27.894342043914826
              ],
              [
                86.93273606736393,
                27.894341994372738
              ],
              [
                86.93273617897961,
                27.89416144576569
              ]
            ],
            [
              [
                86.91688336454052,
                27.896951301475475
              ],
              [
                86.91688343350418,
                27.89686102724831
              ],
              [
                86.91698504290717,
                27.89686108847748
              ],
              [
                86.91698511178998,
                27.89677081424133
              ],
              [
                86.91728993976537,
                27.896770997497647
              ],
              [
                86.91729007701896,
                27.896590449025346
              ],
              [
                86.91749329533086,
                27.89659057081893
              ],
              [
                86.91749336379146,
                27.89650029658278
              ],
              [
                86.91759497286208,
                27.896500357362793
              ],
              [
                86.91759483611153,
                27.896680905844075
              ],
              [
                86.91779805459412,
                27.896681027188507
              ],
              [
                86.91779798639402,
                27.896771301424657
              ],
              [
                86.9176963770629,
                27.896771240788375
              ],
              [
                86.91769630877297,
                27.896861515024526
              ],
              [
                86.91728987113409,
                27.896861271733794
              ],
              [
                86.9172898025028,
                27.896951545969944
              ],
              [
                86.91688336454052,
                27.896951301475475
              ]
            ],
            [
              [
                86.92826499848414,
                27.894881385988455
              ],
              [
                86.92826493896177,
                27.894971660269523
              ],
              [
                86.92775690061559,
                27.89497139494312
              ],
              [
                86.92775702049578,
                27.894790846372004
              ],
              [
                86.92785862799433,
                27.8947908995882
              ],
              [
                86.92785868784907,
                27.894700625307138
              ],
              [
                86.92796029526679,
                27.894700678442486
              ],
              [
                86.9279604148056,
                27.89452012987137
              ],
              [
                86.92806202205263,
                27.894520182934855
              ],
              [
                86.9280620817367,
                27.894429908644806
              ],
              [
                86.92826529606904,
                27.89443001455618
              ],
              [
                86.92826535558244,
                27.894339740266126
              ],
              [
                86.92836696265879,
                27.894339793105033
              ],
              [
                86.92836702209132,
                27.894249518814984
              ],
              [
                86.92857023608232,
                27.894249624268216
              ],
              [
                86.92857029534419,
                27.894159349969183
              ],
              [
                86.92867190225883,
                27.894159402583508
              ],
              [
                86.92867184307782,
                27.89424967688254
              ],
              [
                86.9287734500823,
                27.894249729425002
              ],
              [
                86.92877339098214,
                27.89434000371505
              ],
              [
                86.92887499806747,
                27.894340056176663
              ],
              [
                86.9288750570778,
                27.894249781886614
              ],
              [
                86.9289766640733,
                27.894249834276362
              ],
              [
                86.9289767229938,
                27.894159559986313
              ],
              [
                86.92907832990845,
                27.894159612295212
              ],
              [
                86.92907838874811,
                27.894069338005163
              ],
              [
                86.92938320924053,
                27.89406949450067
              ],
              [
                86.92938326782865,
                27.893979220201636
              ],
              [
                86.92968808806954,
                27.893979376023406
              ],
              [
                86.92968802973296,
                27.894069650322436
              ],
              [
                86.92978963656675,
                27.894069702110315
              ],
              [
                86.92978969481352,
                27.89397942781128
              ],
              [
                86.92999290831044,
                27.89397953117144
              ],
              [
                86.92999296638652,
                27.893889256872406
              ],
              [
                86.93019617972175,
                27.893889359927137
              ],
              [
                86.93019612180737,
                27.893979634226167
              ],
              [
                86.93029772855134,
                27.893979685645736
              ],
              [
                86.93029767072679,
                27.894069959944765
              ],
              [
                86.9311105253972,
                27.894070368579406
              ],
              [
                86.93111058254802,
                27.893980094280373
              ],
              [
                86.93131379605393,
                27.893980195682204
              ],
              [
                86.93131385303407,
                27.89388992138317
              ],
              [
                86.9315170663693,
                27.893890022488556
              ],
              [
                86.93151712318773,
                27.893799748189522
              ],
              [
                86.93172033635229,
                27.893799848998466
              ],
              [
                86.93172022305676,
                27.893980397605514
              ],
              [
                86.93192343656267,
                27.893980498118008
              ],
              [
                86.93192326712244,
                27.89425132101511
              ],
              [
                86.931618446109,
                27.894251170143054
              ],
              [
                86.93161833264278,
                27.894431718732136
              ],
              [
                86.93141511829246,
                27.894431617770483
              ],
              [
                86.93141506139318,
                27.894521892069513
              ],
              [
                86.93111023961616,
                27.894521740065585
              ],
              [
                86.93111029677596,
                27.89443146576655
              ],
              [
                86.93070386809327,
                27.894431262046613
              ],
              [
                86.93070392558546,
                27.89434098774758
              ],
              [
                86.93060231850012,
                27.89434093663344
              ],
              [
                86.93060220334509,
                27.894521485222523
              ],
              [
                86.93050059608908,
                27.894521434027535
              ],
              [
                86.93050071140581,
                27.894340885438453
              ],
              [
                86.93039910432049,
                27.894340834171597
              ],
              [
                86.93039904657678,
                27.89443110847063
              ],
              [
                86.93019583223544,
                27.894431005712345
              ],
              [
                86.93019589014982,
                27.894340731413312
              ],
              [
                86.93009428306449,
                27.894340679921882
              ],
              [
                86.93009422506925,
                27.894430954220915
              ],
              [
                86.92999261790308,
                27.894430902648633
              ],
              [
                86.929992559818,
                27.894521176947666
              ],
              [
                86.92978934531497,
                27.89452107358751
              ],
              [
                86.92978928705922,
                27.894611347877557
              ],
              [
                86.92968767972236,
                27.8946112960807
              ],
              [
                86.92968762138577,
                27.89470157037075
              ],
              [
                86.92948440654138,
                27.894701466561433
              ],
              [
                86.92948428953581,
                27.894882015141533
              ],
              [
                86.92938268194742,
                27.894881963120095
              ],
              [
                86.92938274053554,
                27.894791688839028
              ],
              [
                86.929281133028,
                27.894791636745726
              ],
              [
                86.92928125037493,
                27.894611088165625
              ],
              [
                86.92887482103647,
                27.894610879046812
              ],
              [
                86.92887470301582,
                27.89479142762691
              ],
              [
                86.92877309550828,
                27.894791375156313
              ],
              [
                86.92877315460844,
                27.89470110087525
              ],
              [
                86.92846833235532,
                27.894700943023285
              ],
              [
                86.92846827300363,
                27.894791217313337
              ],
              [
                86.92836666550507,
                27.894791164546294
              ],
              [
                86.92836660607253,
                27.894881438827362
              ],
              [
                86.92826499848414,
                27.894881385988455
              ]
            ],
            [
              [
                86.93273617897961,
                27.89416144576569
              ],
              [
                86.93263457205597,
                27.894161396151738
              ],
              [
                86.93263440438542,
                27.894432219048834
              ],
              [
                86.93253279721027,
                27.894432169354033
              ],
              [
                86.93253296513234,
                27.894161346456936
              ],
              [
                86.93232975128508,
                27.894161246842753
              ],
              [
                86.93232980742978,
                27.89407097254372
              ],
              [
                86.93222820059597,
                27.89407092262434
              ],
              [
                86.93222831304709,
                27.893890374017293
              ],
              [
                86.9323299197192,
                27.893890423936675
              ],
              [
                86.93232997585491,
                27.893800149628657
              ],
              [
                86.93243158244617,
                27.89380019946719
              ],
              [
                86.93243152638232,
                27.893890473775205
              ],
              [
                86.93253313305442,
                27.89389052354187
              ],
              [
                86.93253330097649,
                27.893619700626807
              ],
              [
                86.93293972664982,
                27.893619898947875
              ],
              [
                86.9329395041012,
                27.893980996170953
              ],
              [
                86.93273629059529,
                27.89398089715864
              ],
              [
                86.93273617897961,
                27.89416144576569
              ]
            ]
          ],
          [
            [
              [
                86.92826499848414,
                27.894881385988455
              ],
              [
                86.92816339089576,
                27.894881333068703
              ],
              [
                86.92816345049897,
                27.894791058787636
              ],
              [
                86.92826505799754,
                27.89479111170739
              ],
              [
                86.92826499848414,
                27.894881385988455
              ]
            ]
          ],
          [
            [
              [
                86.92887499806747,
                27.894340056176663
              ],
              [
                86.92897660514382,
                27.89434010856641
              ],
              [
                86.92897654622332,
                27.894430382865444
              ],
              [
                86.92887493905714,
                27.894430330475696
              ],
              [
                86.92887499806747,
                27.894340056176663
              ]
            ]
          ]
        ]
      },
      "id": "+9333+1464",
      "properties": {
        "area_m2": 1642046.9750349612,
        "count": 16382,
        "image_id": "COPERNICUS/S2_SR_HARMONIZED/20211208T045159_20211208T050030_T45RVL",
        "lake_id": "imja-tsho",
        "observed_at": "2021-12-08T05:00:59.461000Z",
        "water": 1
      }
    }
  ]
}
