{
  "type": "FeatureCollection",
  "features": [
    {
      "type": "Feature",
      "geometry": {
        "geodesic": false,
        "type": "MultiPolygon",
        "coordinates": [
          [
            [
              [
                86.92165992101064,
                27.895690259038076
              ],
              [
                86.92165998601274,
                27.895599984774975
              ],
              [
                86.92176159425689,
                27.895600042491733
              ],
              [
                86.92176152933565,
                27.895690316754834
              ],
              [
                86.92165992101064,
                27.895690259038076
              ]
            ]
          ],
          [
            [
              [
                86.92165992101064,
                27.895690259038076
              ],
              [
                86.92165985601754,
                27.895780533301174
              ],
              [
                86.92216789806477,
                27.895780821103425
              ],
              [
                86.92216796264466,
                27.89569054684931
              ],
              [
                86.92257439596264,
                27.895690775749028
              ],
              [
                86.92257446020118,
                27.895600501485927
              ],
              [
                86.92267606844533,
                27.895600558519966
              ],
              [
                86.92267613260302,
                27.895510284256865
              ],
              [
                86.92287934892065,
                27.895510398109344
              ],
              [
                86.92287941290765,
                27.895420123846243
              ],
              [
                86.92298102098111,
                27.8954201806557
              ],
              [
                86.92298095708395,
                27.895510454918803
              ],
              [
                86.92359060605483,
                27.89551079422147
              ],
              [
                86.92359066944893,
                27.895420519949386
              ],
              [
                86.9239971017698,
                27.895420744653972
              ],
              [
                86.92399716483152,
                27.89533047039087
              ],
              [
                86.92420038081679,
                27.895330582285023
              ],
              [
                86.92420031792572,
                27.895420856557106
              ],
              [
                86.92521639875034,
                27.895421411572222
              ],
              [
                86.92521652284361,
                27.895240863028054
              ],
              [
                86.92541973867615,
                27.895240973125578
              ],
              [
                86.92541986242807,
                27.89506042458141
              ],
              [
                86.9260295089106,
                27.895060753086327
              ],
              [
                86.9260293861738,
                27.895241301639476
              ],
              [
                86.92867119210467,
                27.89524269403715
              ],
              [
                86.92867131046668,
                27.895062145475016
              ],
              [
                86.93070346563906,
                27.895063182076957
              ],
              [
                86.9307035806234,
                27.89488263350584
              ],
              [
                86.93090679580916,
                27.894882735518525
              ],
              [
                86.93090691046115,
                27.894702186938428
              ],
              [
                86.93111012530554,
                27.894702288645682
              ],
              [
                86.93111023961616,
                27.894521740065585
              ],
              [
                86.93141506139318,
                27.894521892069513
              ],
              [
                86.93141494758561,
                27.894702440658595
              ],
              [
                86.93192298471907,
                27.894702692501284
              ],
              [
                86.93192287175592,
                27.894883241081384
              ],
              [
                86.93232930213641,
                27.894883441217047
              ],
              [
                86.93232941442582,
                27.894702892627965
              ],
              [
                86.93456477790285,
                27.894703971917846
              ],
              [
                86.93456488648222,
                27.894523423310797
              ],
              [
                86.93476810101221,
                27.894523519637147
              ],
              [
                86.93476820925919,
                27.8943429710301
              ],
              [
                86.93497142344782,
                27.894343067051018
              ],
              [
                86.93497136950398,
                27.89443334135005
              ],
              [
                86.9351745838633,
                27.894433437065544
              ],
              [
                86.93517453008116,
                27.89452371137356
              ],
              [
                86.93547935188512,
                27.894523854385355
              ],
              [
                86.93547929835452,
                27.89461412869337
              ],
              [
                86.93568251305518,
                27.89461422366326
              ],
              [
                86.93568256641511,
                27.894523949364228
              ],
              [
                86.93588578095408,
                27.894524044028692
              ],
              [
                86.93588572775586,
                27.894614318336707
              ],
              [
                86.93619054982032,
                27.89461445977645
              ],
              [
                86.93619049687362,
                27.894704734075482
              ],
              [
                86.93639371175395,
                27.894704828003327
              ],
              [
                86.9363936062109,
                27.894885376601394
              ],
              [
                86.9365968214236,
                27.894885470223812
              ],
              [
                86.93659671621292,
                27.895066018821876
              ],
              [
                86.93944173403274,
                27.89506729810369
              ],
              [
                86.93944163353821,
                27.89524784671074
              ],
              [
                86.93964484944262,
                27.89524793584158
              ],
              [
                86.93964474928944,
                27.895428484439645
              ],
              [
                86.93984796553521,
                27.89542857326506
              ],
              [
                86.93984786571441,
                27.895609121863124
              ],
              [
                86.94066073203598,
                27.895609474200345
              ],
              [
                86.94066063357165,
                27.895790022789427
              ],
              [
                86.9407622420314,
                27.895790066492467
              ],
              [
                86.94076209457295,
                27.896060889371597
              ],
              [
                86.94086370328422,
                27.89606093300277
              ],
              [
                86.94086355608628,
                27.896331755872918
              ],
              [
                86.94005068436584,
                27.896331404721472
              ],
              [
                86.94005058488641,
                27.89651195329259
              ],
              [
                86.93984736661943,
                27.896511864754633
              ],
              [
                86.93984716696886,
                27.8968729618789
              ],
              [
                86.94005038590957,
                27.89687305041685
              ],
              [
                86.94005018693274,
                27.89723414753213
              ],
              [
                86.94025340654719,
                27.89723423576466
              ],
              [
                86.94025320824409,
                27.897595332861975
              ],
              [
                86.94045642854127,
                27.89759542079806
              ],
              [
                86.94045632971759,
                27.897775969342224
              ],
              [
                86.94025310909703,
                27.897775881397155
              ],
              [
                86.94025300994099,
                27.89795642993234
              ],
              [
                86.94004978897907,
                27.89795634169083
              ],
              [
                86.94004968948167,
                27.898136890217028
              ],
              [
                86.93984646817837,
                27.89813680167009
              ],
              [
                86.9398463683486,
                27.89831735019629
              ],
              [
                86.93964314671294,
                27.898317261352908
              ],
              [
                86.93964304655078,
                27.898497809870126
              ],
              [
                86.93943982457377,
                27.898497720721316
              ],
              [
                86.93943972407025,
                27.898678269238534
              ],
              [
                86.93923650176086,
                27.89867817979328
              ],
              [
                86.93923640091597,
                27.898858728301512
              ],
              [
                86.93903317826522,
                27.898858638559815
              ],
              [
                86.93903307707899,
                27.899039187059067
              ],
              [
                86.9386266311217,
                27.899039006668374
              ],
              [
                86.93862652926174,
                27.899219555167623
              ],
              [
                86.93842330594622,
                27.89921946451863
              ],
              [
                86.93842289714989,
                27.899941658443765
              ],
              [
                86.93862612181287,
                27.899941749092758
              ],
              [
                86.93862561248606,
                27.900844491400363
              ],
              [
                86.93821915978243,
                27.90084430980593
              ],
              [
                86.93821905723975,
                27.90102485825128
              ],
              [
                86.93862551061711,
                27.901025039845713
              ],
              [
                86.93862530687922,
                27.90138613672743
              ],
              [
                86.93882853424613,
                27.901386227079986
              ],
              [
                86.93882843270954,
                27.90156677551635
              ],
              [
                86.93903166041783,
                27.90156686557246
              ],
              [
                86.93903155921362,
                27.901747413999843
              ],
              [
                86.93933640128358,
                27.901747548522557
              ],
              [
                86.939336350933,
                27.90183782273176
              ],
              [
                86.93923473683184,
                27.90183777796871
              ],
              [
                86.93923468640041,
                27.901928052177908
              ],
              [
                86.9388282296364,
                27.90192787237112
              ],
              [
                86.93882828040917,
                27.901837598161922
              ],
              [
                86.93872666629902,
                27.90183755302158
              ],
              [
                86.93872661545437,
                27.90192782723078
              ],
              [
                86.93740563101623,
                27.90192723359709
              ],
              [
                86.9374056829658,
                27.90183695938789
              ],
              [
                86.93710084066228,
                27.901836820589192
              ],
              [
                86.93710089286338,
                27.901746546379993
              ],
              [
                86.93659282277973,
                27.90174631356362
              ],
              [
                86.93659287540304,
                27.90165603935442
              ],
              [
                86.93628803361156,
                27.901655898768077
              ],
              [
                86.9362880864864,
                27.901565624558877
              ],
              [
                86.9360848587961,
                27.901565530460353
              ],
              [
                86.9360849118416,
                27.90147525625115
              ],
              [
                86.93588168432198,
                27.9014751618472
              ],
              [
                86.93588173752919,
                27.901384887637995
              ],
              [
                86.93567851018025,
                27.9013847929376
              ],
              [
                86.93567856355814,
                27.9012945187284
              ],
              [
                86.93537372278176,
                27.90129437612085
              ],
              [
                86.93537377642016,
                27.901204101902664
              ],
              [
                86.9350689359043,
                27.901203958621377
              ],
              [
                86.93506898978524,
                27.901113684403192
              ],
              [
                86.93466253610245,
                27.901113492316433
              ],
              [
                86.93466259032476,
                27.90102321809825
              ],
              [
                86.93425613698332,
                27.90102302480775
              ],
              [
                86.934256191547,
                27.90093275059855
              ],
              [
                86.93384973854691,
                27.90093255610431
              ],
              [
                86.93384979344296,
                27.900842281895105
              ],
              [
                86.93283366180066,
                27.9008417904358
              ],
              [
                86.93283371754111,
                27.900751516217614
              ],
              [
                86.93222403907856,
                27.900751217743377
              ],
              [
                86.93222409532208,
                27.900660943534177
              ],
              [
                86.9317160303678,
                27.900660692742516
              ],
              [
                86.93171608703354,
                27.900570418533317
              ],
              [
                86.93100479668864,
                27.900570064282682
              ],
              [
                86.93100485394724,
                27.900479790073483
              ],
              [
                86.93070001548853,
                27.90047963712632
              ],
              [
                86.93070007299866,
                27.90038936291712
              ],
              [
                86.92998878385751,
                27.90038900342931
              ],
              [
                86.92998884195156,
                27.900298729211126
              ],
              [
                86.92958239135896,
                27.90029852214047
              ],
              [
                86.92958233292356,
                27.900388796358655
              ],
              [
                86.92937910746107,
                27.90038869237866
              ],
              [
                86.92937916606716,
                27.900298418160478
              ],
              [
                86.92866787753687,
                27.900298051863437
              ],
              [
                86.92866781833789,
                27.900388326072637
              ],
              [
                86.92775330377917,
                27.900387849714008
              ],
              [
                86.9277532438256,
                27.900478123932192
              ],
              [
                86.92724517976964,
                27.90047785666543
              ],
              [
                86.92724511939387,
                27.90056813087463
              ],
              [
                86.92643221624138,
                27.900567699350916
              ],
              [
                86.92643215518288,
                27.900657973551134
              ],
              [
                86.92470473461502,
                27.90065704065071
              ],
              [
                86.92470467212821,
                27.90074731485093
              ],
              [
                86.9240949938004,
                27.900746980417132
              ],
              [
                86.92409493080154,
                27.90083725461735
              ],
              [
                86.9232820256997,
                27.900836804516477
              ],
              [
                86.9232819620361,
                27.90092707870771
              ],
              [
                86.92206260340419,
                27.900926394559775
              ],
              [
                86.92206253872548,
                27.90101666875101
              ],
              [
                86.92145285891544,
                27.90101632263013
              ],
              [
                86.92145279373369,
                27.90110659681238
              ],
              [
                86.92084311342958,
                27.901106247996555
              ],
              [
                86.92084304773579,
                27.901196522178807
              ],
              [
                86.92003014001087,
                27.90119605288992
              ],
              [
                86.92003007364333,
                27.90128632707217
              ],
              [
                86.91942039236007,
                27.901285971959155
              ],
              [
                86.91942032548947,
                27.901376246141407
              ],
              [
                86.9191154845963,
                27.901376067565312
              ],
              [
                86.91911555171842,
                27.90128579338306
              ],
              [
                86.91850587045312,
                27.901285434227628
              ],
              [
                86.91850580281896,
                27.901375708400895
              ],
              [
                86.91820096193479,
                27.901375527812572
              ],
              [
                86.9182008940491,
                27.901465801985843
              ],
              [
                86.91779443920747,
                27.901465560150385
              ],
              [
                86.91779437098043,
                27.901555834323652
              ],
              [
                86.91759114338893,
                27.901555712952273
              ],
              [
                86.91759107500019,
                27.901645987125544
              ],
              [
                86.917387847247,
                27.90164586545772
              ],
              [
                86.9173877786786,
                27.901736139622006
              ],
              [
                86.91718455075473,
                27.90173601765774
              ],
              [
                86.91718448202462,
                27.901826291822026
              ],
              [
                86.91687963989179,
                27.901826108305194
              ],
              [
                86.91687957091015,
                27.901916382478465
              ],
              [
                86.9165747285168,
                27.901916198278915
              ],
              [
                86.91657465928365,
                27.902006472452182
              ],
              [
                86.91637143085673,
                27.90200634927519
              ],
              [
                86.91637136145289,
                27.902096623439476
              ],
              [
                86.91616813286426,
                27.902096499975023
              ],
              [
                86.91616806328975,
                27.902186774130325
              ],
              [
                86.91596483453044,
                27.902186650360445
              ],
              [
                86.91596476478524,
                27.90227692452473
              ],
              [
                86.91565992139476,
                27.90227673830397
              ],
              [
                86.91565985139803,
                27.902367012468257
              ],
              [
                86.9155582368477,
                27.90236695024196
              ],
              [
                86.91555830693426,
                27.902276676086654
              ],
              [
                86.91525346354378,
                27.90227648896758
              ],
              [
                86.9152533932057,
                27.902366763122885
              ],
              [
                86.91464370593964,
                27.902366386863527
              ],
              [
                86.91464377678079,
                27.902276112708225
              ],
              [
                86.91505023462278,
                27.902276363841246
              ],
              [
                86.91505037563134,
                27.90209581552166
              ],
              [
                86.9148471470427,
                27.902095690107863
              ],
              [
                86.91484771240643,
                27.901373496784597
              ],
              [
                86.91444125794209,
                27.90137324505869
              ],
              [
                86.91444132894493,
                27.901282970885422
              ],
              [
                86.9143397154097,
                27.90128290776979
              ],
              [
                86.91433978650237,
                27.901192633596523
              ],
              [
                86.91423817305696,
                27.901192570400042
              ],
              [
                86.91423845775104,
                27.90083147370697
              ],
              [
                86.91413684463802,
                27.900831410438624
              ],
              [
                86.91413691590137,
                27.900741136265353
              ],
              [
                86.9138320768228,
                27.90074094601116
              ],
              [
                86.91383214833768,
                27.90065067183789
              ],
              [
                86.91362892246197,
                27.900650544627464
              ],
              [
                86.91362906581513,
                27.900469996271944
              ],
              [
                86.91322261473744,
                27.900469740961757
              ],
              [
                86.91322275876433,
                27.900289192597256
              ],
              [
                86.91301953357134,
                27.900289064497496
              ],
              [
                86.91301938920309,
                27.900469612853016
              ],
              [
                86.91261293813439,
                27.900469355737215
              ],
              [
                86.9126127930924,
                27.900649904092734
              ],
              [
                86.91230795429232,
                27.900649710460875
              ],
              [
                86.91230788151081,
                27.900739984634143
              ],
              [
                86.9122062684966,
                27.90073991994646
              ],
              [
                86.91220634135895,
                27.900649645773193
              ],
              [
                86.91200311549223,
                27.90064951616426
              ],
              [
                86.91200326154032,
                27.900468967817726
              ],
              [
                86.91240971260004,
                27.900469226730156
              ],
              [
                86.91240985798339,
                27.900288678374636
              ],
              [
                86.91261308317638,
                27.900288807381695
              ],
              [
                86.91261337325136,
                27.89992771066167
              ],
              [
                86.91281659777061,
                27.899927839363304
              ],
              [
                86.91281703186351,
                27.899386194233863
              ],
              [
                86.91302025537665,
                27.89938632263905
              ],
              [
                86.91302039973593,
                27.899205774256583
              ],
              [
                86.91322362290771,
                27.89920590235634
              ],
              [
                86.91322376692561,
                27.899025353964888
              ],
              [
                86.91342698976501,
                27.89902548175922
              ],
              [
                86.91342713345054,
                27.89884493336777
              ],
              [
                86.91363035594858,
                27.898845060865657
              ],
              [
                86.91363078597212,
                27.898303415646385
              ],
              [
                86.91403722895598,
                27.89830366973486
              ],
              [
                86.91403715762075,
                27.898393943944065
              ],
              [
                86.91413876845206,
                27.898394007284274
              ],
              [
                86.91413883970642,
                27.898303733075075
              ],
              [
                86.9142404504479,
                27.898303796334435
              ],
              [
                86.91424059277698,
                27.898123247916033
              ],
              [
                86.91403737161743,
                27.898123121316463
              ],
              [
                86.91403751427887,
                27.89794257289806
              ],
              [
                86.91444395592424,
                27.897942825782795
              ],
              [
                86.91444409791197,
                27.89776227735541
              ],
              [
                86.91464731839778,
                27.897762403353113
              ],
              [
                86.91464738922096,
                27.89767212913493
              ],
              [
                86.91474899937853,
                27.897672192016998
              ],
              [
                86.91474907012085,
                27.897581917798814
              ],
              [
                86.91505390034203,
                27.897582106004847
              ],
              [
                86.91505404131465,
                27.897401557559498
              ],
              [
                86.91586692058992,
                27.897402056142447
              ],
              [
                86.91586706020608,
                27.897221507688112
              ],
              [
                86.91688315764054,
                27.89722212416596
              ],
              [
                86.91688329556787,
                27.897041575711626
              ],
              [
                86.9172897338805,
                27.897041820206095
              ],
              [
                86.91728987113409,
                27.896861271733794
              ],
              [
                86.9178995275969,
                27.89686163622522
              ],
              [
                86.91789959571615,
                27.89677136198907
              ],
              [
                86.9180012050383,
                27.89677142247264
              ],
              [
                86.91800127307668,
                27.89668114823649
              ],
              [
                86.91810288232696,
                27.896681208648193
              ],
              [
                86.9181028143694,
                27.896771482884343
              ],
              [
                86.91820442369155,
                27.8967715432152
              ],
              [
                86.91820449156825,
                27.896681268979048
              ],
              [
                86.91932219325834,
                27.89668192773161
              ],
              [
                86.91932232713427,
                27.896501379241343
              ],
              [
                86.920135199771,
                27.896501852635534
              ],
              [
                86.92013533229945,
                27.896321304145268
              ],
              [
                86.92074498577986,
                27.89632165604231
              ],
              [
                86.92074511729322,
                27.896141107534078
              ],
              [
                86.92135476976752,
                27.896141456736178
              ],
              [
                86.92135496552838,
                27.89587063397383
              ],
              [
                86.92155818251976,
                27.89587074976667
              ],
              [
                86.9215582476027,
                27.895780475512552
              ],
              [
                86.92145663919685,
                27.895780417652066
              ],
              [
                86.92145670436064,
                27.895690143388965
              ],
              [
                86.92165992101064,
                27.895690259038076
              ]
            ],
            [
              [
                86.93110646677282,
                27.90047984090016
              ],
              [
                86.93110658111937,
                27.900299292463792
              ],
              [
                86.93130980642016,
                27.900299393901555
              ],
              [
                86.93130969241496,
                27.900479942337924
              ],
              [
                86.93110646677282,
                27.90047984090016
              ]
            ],
            [
              [
                86.93232570831833,
                27.90066099346254
              ],
              [
                86.93232582064367,
                27.900480445026172
              ],
              [
                86.93252904628581,
                27.900480544667303
              ],
              [
                86.93252893430183,
                27.900661093103672
              ],
              [
                86.93232570831833,
                27.90066099346254
              ]
            ]
          ]
        ]
      },
      "id": "+9363+1451",
      "properties": {
        "area_m2": 1553840.1468760301,
        "count": 15502,
        "image_id": "COPERNICUS/S2_SR_HARMONIZED/20211108T045009_20211108T045413_T45RVL",
        "lake_id": "imja-tsho",
        "observed_at": "2021-11-08T05:01:04.763000Z",
        "water": 1
      }
    }
  ]
}
