{
  "type": "FeatureCollection",
  "features": [
    {
      "type": "Feature",
      "geometry": {
        "geodesic": false,
        "type": "MultiPolygon",
        "coordinates": [
          [
            [
              [
                86.9154604809478,
                27.897401807452844
              ],
              [
                86.916070140411,
                27.897402180038092
              ],
              [
                86.91607027969478,
                27.897221631583758
              ],
              [
                86.91708637712922,
                27.8972222465704
              ],
              [
                86.91708651472418,
                27.89704169810708
              ],
              [
                86.91769617219312,
                27.897042063496826
              ],
              [
                86.91769630877297,
                27.896861515024526
              ],
              [
                86.91871240288366,
                27.896862118009675
              ],
              [
                86.91871253778366,
                27.896681569537375
              ],
              [
                86.91972863024145,
                27.896682165030576
              ],
              [
                86.91972876345262,
                27.89650161654031
              ],
              [
                86.92054163608935,
                27.896502087535996
              ],
              [
                86.92054176795305,
                27.896321539036748
              ],
              [
                86.92074498577986,
                27.89632165604231
              ],
              [
                86.92074505153654,
                27.896231381788194
              ],
              [
                86.9208466603646,
                27.89623144017869
              ],
              [
                86.92084672604044,
                27.896141165924572
              ],
              [
                86.92115155228207,
                27.89614134063791
              ],
              [
                86.92115161769739,
                27.896051066383794
              ],
              [
                86.92135483502113,
                27.89605118248206
              ],
              [
                86.92135490027476,
                27.895960908227945
              ],
              [
                86.92125329169822,
                27.895960850214745
              ],
              [
                86.92125342237615,
                27.895780301697528
              ],
              [
                86.92135503078201,
                27.89578035971073
              ],
              [
                86.92135496552838,
                27.89587063397383
              ],
              [
                86.92145657402408,
                27.895870691906183
              ],
              [
                86.92145650886027,
                27.8959609661603
              ],
              [
                86.92155811743682,
                27.89596102402977
              ],
              [
                86.92155818251976,
                27.89587074976667
              ],
              [
                86.92165979101544,
                27.89587080755529
              ],
              [
                86.92165985601754,
                27.895780533301174
              ],
              [
                86.9215582476027,
                27.895780475512552
              ],
              [
                86.92155831268565,
                27.895690201249455
              ],
              [
                86.92165992101064,
                27.895690259038076
              ],
              [
                86.92165998601274,
                27.895599984774975
              ],
              [
                86.92176159425689,
                27.895600042491733
              ],
              [
                86.92176146442338,
                27.89578059100895
              ],
              [
                86.92186307283822,
                27.89578064864486
              ],
              [
                86.92186300800681,
                27.895870922907957
              ],
              [
                86.92206622499819,
                27.895871037955196
              ],
              [
                86.92206628965891,
                27.8957807636921
              ],
              [
                86.92237111489445,
                27.89578093571049
              ],
              [
                86.92237117930365,
                27.89569066144739
              ],
              [
                86.92267600428765,
                27.895690832783064
              ],
              [
                86.92267606844533,
                27.895600558519966
              ],
              [
                86.92287928493364,
                27.895600672372446
              ],
              [
                86.92287954088164,
                27.895239575311063
              ],
              [
                86.92298114879341,
                27.89523963212052
              ],
              [
                86.92298089317781,
                27.895600729181904
              ],
              [
                86.92308250142196,
                27.895600785919495
              ],
              [
                86.92308275669622,
                27.895239688858116
              ],
              [
                86.92318436460799,
                27.895239745514857
              ],
              [
                86.9231841734016,
                27.895510568322123
              ],
              [
                86.9233873897282,
                27.895510681420017
              ],
              [
                86.92338732616342,
                27.89560095568312
              ],
              [
                86.92399697564633,
                27.895601293189152
              ],
              [
                86.9239971017698,
                27.895420744653972
              ],
              [
                86.92420031792572,
                27.895420856557106
              ],
              [
                86.92420038081679,
                27.895330582285023
              ],
              [
                86.92460681280527,
                27.895330805192977
              ],
              [
                86.92460687536395,
                27.895240530920894
              ],
              [
                86.92521652284361,
                27.895240863028054
              ],
              [
                86.92521658489025,
                27.89515058875597
              ],
              [
                86.9254198005521,
                27.895150698853495
              ],
              [
                86.92541986242807,
                27.89506042458141
              ],
              [
                86.92552147017815,
                27.895060479522375
              ],
              [
                86.92552140838305,
                27.895150753794457
              ],
              [
                86.9257246240449,
                27.895150863451804
              ],
              [
                86.92572468566934,
                27.895060589170736
              ],
              [
                86.9260295089106,
                27.895060753086327
              ],
              [
                86.9260293861738,
                27.895241301639476
              ],
              [
                86.9292808396562,
                27.895243008160037
              ],
              [
                86.92928095700313,
                27.895062459597906
              ],
              [
                86.93029703459379,
                27.895062977153273
              ],
              [
                86.93029691892671,
                27.89524352572439
              ],
              [
                86.93070335064571,
                27.895243730648072
              ],
              [
                86.93070346563906,
                27.895063182076957
              ],
              [
                86.93090668115718,
                27.89506328408964
              ],
              [
                86.93090691046115,
                27.894702186938428
              ],
              [
                86.93100851788783,
                27.89470223782799
              ],
              [
                86.93100846064718,
                27.894792512118038
              ],
              [
                86.93111006815472,
                27.89479256293573
              ],
              [
                86.93111012530554,
                27.894702288645682
              ],
              [
                86.93171976986568,
                27.89470259198879
              ],
              [
                86.93171988316121,
                27.894522043399707
              ],
              [
                86.93182149041722,
                27.89452209369638
              ],
              [
                86.93182137729238,
                27.894702642276478
              ],
              [
                86.93232941442582,
                27.894702892627965
              ],
              [
                86.93232947057054,
                27.894612618337916
              ],
              [
                86.93263429259908,
                27.894612767646898
              ],
              [
                86.93263423671488,
                27.894703041936946
              ],
              [
                86.93273584414158,
                27.894703091559883
              ],
              [
                86.93273589994492,
                27.894612817260853
              ],
              [
                86.9329391146366,
                27.894612916282146
              ],
              [
                86.93293917027825,
                27.894522641983112
              ],
              [
                86.93304077753426,
                27.894522691372487
              ],
              [
                86.93304072198244,
                27.89461296567152
              ],
              [
                86.93344715136581,
                27.894613162510364
              ],
              [
                86.93344720658526,
                27.894522888211334
              ],
              [
                86.93476810101221,
                27.894523519637147
              ],
              [
                86.9347681551357,
                27.89443324532913
              ],
              [
                86.93527619104745,
                27.894433484819984
              ],
              [
                86.93527613734615,
                27.894523759119018
              ],
              [
                86.93537774461115,
                27.89452380679261
              ],
              [
                86.93537769099969,
                27.894614081091643
              ],
              [
                86.93578412041,
                27.894614271031426
              ],
              [
                86.9357841736801,
                27.894523996732392
              ],
              [
                86.93588578095408,
                27.894524044028692
              ],
              [
                86.93588572775586,
                27.894614318336707
              ],
              [
                86.9360889424655,
                27.89461441270473
              ],
              [
                86.93608888943795,
                27.89470468700376
              ],
              [
                86.93619049687362,
                27.894704734075482
              ],
              [
                86.93619039099819,
                27.89488528268253
              ],
              [
                86.9363936062109,
                27.894885376601394
              ],
              [
                86.93639350065885,
                27.895065925199457
              ],
              [
                86.93761279398325,
                27.895066482451377
              ],
              [
                86.9376128975051,
                27.894885933853313
              ],
              [
                86.93822254317017,
                27.894886208432364
              ],
              [
                86.93822244065443,
                27.895066757030428
              ],
              [
                86.93842565621749,
                27.8950668479579
              ],
              [
                86.9384255540431,
                27.895247396555966
              ],
              [
                86.93964484944262,
                27.89524793584158
              ],
              [
                86.93964474928944,
                27.895428484439645
              ],
              [
                86.94005118177199,
                27.895428661803013
              ],
              [
                86.94005108229257,
                27.895609210392095
              ],
              [
                86.94025429887071,
                27.895609298624624
              ],
              [
                86.94025419973264,
                27.895789847222687
              ],
              [
                86.94045741665214,
                27.895789935149786
              ],
              [
                86.94045721903176,
                27.89615103231897
              ],
              [
                86.94066043662501,
                27.896151119958606
              ],
              [
                86.94065984578508,
                27.897234411349366
              ],
              [
                86.94045662617063,
                27.897234323709725
              ],
              [
                86.94045652735595,
                27.897414872253893
              ],
              [
                86.94025330740013,
                27.89741478431781
              ],
              [
                86.94025320824409,
                27.897595332861975
              ],
              [
                86.9400499879559,
                27.897595244620465
              ],
              [
                86.94004978897907,
                27.89795634169083
              ],
              [
                86.93984656800816,
                27.897956253143892
              ],
              [
                86.93984646817837,
                27.89813680167009
              ],
              [
                86.93964324688407,
                27.89813671282671
              ],
              [
                86.93964304655078,
                27.898497809870126
              ],
              [
                86.93943982457377,
                27.898497720721316
              ],
              [
                86.93943962355776,
                27.898858817746767
              ],
              [
                86.93923640091597,
                27.898858728301512
              ],
              [
                86.93923630006212,
                27.899039276800764
              ],
              [
                86.93903307707899,
                27.899039187059067
              ],
              [
                86.93903287471551,
                27.8994002840396
              ],
              [
                86.93882965105864,
                27.89940019400146
              ],
              [
                86.93882944800345,
                27.899761290964026
              ],
              [
                86.93862622368182,
                27.899761200620457
              ],
              [
                86.93862581622398,
                27.900483394491694
              ],
              [
                86.9384225905459,
                27.900483303842698
              ],
              [
                86.93842248833559,
                27.900663852297033
              ],
              [
                86.93801603630568,
                27.900663670100727
              ],
              [
                86.93801593343062,
                27.90084421855506
              ],
              [
                86.9378127070788,
                27.900844126998766
              ],
              [
                86.93781250064595,
                27.90120522388947
              ],
              [
                86.9376092736204,
                27.901205132036733
              ],
              [
                86.93760906650483,
                27.901566228900485
              ],
              [
                86.93740583880553,
                27.901566136751303
              ],
              [
                86.93740563101623,
                27.90192723359709
              ],
              [
                86.93730401682522,
                27.901927187405718
              ],
              [
                86.93730406886463,
                27.901836913196515
              ],
              [
                86.93699922656111,
                27.901836774182225
              ],
              [
                86.93699927884306,
                27.901746499973026
              ],
              [
                86.93649120876839,
                27.901746266779362
              ],
              [
                86.93649126147254,
                27.90165599257016
              ],
              [
                86.93618641968106,
                27.90165585175924
              ],
              [
                86.93618647264573,
                27.901565577550038
              ],
              [
                86.93598324494644,
                27.9015654832988
              ],
              [
                86.9359832980818,
                27.901475209089597
              ],
              [
                86.93578007055318,
                27.901475114532932
              ],
              [
                86.93578012385022,
                27.90138484032373
              ],
              [
                86.93557689650129,
                27.901384745479604
              ],
              [
                86.935576949969,
                27.90129447126142
              ],
              [
                86.93527210919262,
                27.901294328429287
              ],
              [
                86.93527216291187,
                27.901204054220088
              ],
              [
                86.934967322396,
                27.901203910714223
              ],
              [
                86.93496737636679,
                27.90111363649604
              ],
              [
                86.93456092268399,
                27.901113444103853
              ],
              [
                86.93456097699614,
                27.90102316988567
              ],
              [
                86.9341545236547,
                27.901022976298727
              ],
              [
                86.93415457829921,
                27.900932702089523
              ],
              [
                86.93364651205137,
                27.90093245841252
              ],
              [
                86.93364656710911,
                27.90084218420332
              ],
              [
                86.93252882231785,
                27.900841641531056
              ],
              [
                86.93252887830984,
                27.900751367321856
              ],
              [
                86.93191919984727,
                27.900751067500146
              ],
              [
                86.9319192563513,
                27.90066079328196
              ],
              [
                86.9315128043843,
                27.900660591906625
              ],
              [
                86.9315128612207,
                27.90057031768844
              ],
              [
                86.9308015708848,
                27.900569962395764
              ],
              [
                86.9308016283051,
                27.90047968818656
              ],
              [
                86.93059840267193,
                27.9004795860032
              ],
              [
                86.93059846026293,
                27.900389311785016
              ],
              [
                86.93029362205573,
                27.90038915793954
              ],
              [
                86.93029367990724,
                27.90029888373034
              ],
              [
                86.93009045460644,
                27.90029878079239
              ],
              [
                86.93009068666824,
                27.899937683919653
              ],
              [
                86.92988746204118,
                27.89993758068526
              ],
              [
                86.92988757840894,
                27.89975703223991
              ],
              [
                86.92948112983755,
                27.89975682487281
              ],
              [
                86.92948124687906,
                27.89957627642746
              ],
              [
                86.92866835110173,
                27.89957585810898
              ],
              [
                86.92866823271277,
                27.89975640655433
              ],
              [
                86.92826178415037,
                27.89975619559397
              ],
              [
                86.92826166508766,
                27.899936744030338
              ],
              [
                86.92805844046958,
                27.899936638101
              ],
              [
                86.92805820167044,
                27.900297734964752
              ],
              [
                86.92744852580401,
                27.900297415371124
              ],
              [
                86.92744840538484,
                27.900477963789527
              ],
              [
                86.92643227729089,
                27.900477425141716
              ],
              [
                86.92643215518288,
                27.900657973551134
              ],
              [
                86.92511118651018,
                27.900657262103394
              ],
              [
                86.92511112435574,
                27.900747536303612
              ],
              [
                86.92450144601894,
                27.90074720367543
              ],
              [
                86.92450138336146,
                27.900837477875648
              ],
              [
                86.92368847825063,
                27.900837030164293
              ],
              [
                86.9236884149194,
                27.90092730436451
              ],
              [
                86.92277389593198,
                27.900926794956863
              ],
              [
                86.92277383184617,
                27.901017069148097
              ],
              [
                86.92165608551879,
                27.901016438297205
              ],
              [
                86.92165602049873,
                27.90110671248844
              ],
              [
                86.92124956695967,
                27.90110648083988
              ],
              [
                86.92124950160724,
                27.901196755031112
              ],
              [
                86.92023336694659,
                27.901196170659052
              ],
              [
                86.92023330074075,
                27.90128644485029
              ],
              [
                86.9197252330017,
                27.90128614985253
              ],
              [
                86.91972516638263,
                27.901376424034783
              ],
              [
                86.9189122573372,
                27.90137594814328
              ],
              [
                86.91891232462999,
                27.90128567397001
              ],
              [
                86.91881071108577,
                27.90128561414221
              ],
              [
                86.91881064370314,
                27.901375888324463
              ],
              [
                86.91830257555985,
                27.901375588080548
              ],
              [
                86.918302507764,
                27.901465862262796
              ],
              [
                86.91799766662828,
                27.901465681216337
              ],
              [
                86.91799759857192,
                27.901555955389604
              ],
              [
                86.91769275718468,
                27.90155577367839
              ],
              [
                86.91769268887678,
                27.901646047851656
              ],
              [
                86.9174894611236,
                27.901645926327564
              ],
              [
                86.91748939264502,
                27.90173620050083
              ],
              [
                86.91728616472116,
                27.901736078680297
              ],
              [
                86.9172860960719,
                27.90182635284458
              ],
              [
                86.91698125393906,
                27.901826169552333
              ],
              [
                86.91698118503828,
                27.9019164437256
              ],
              [
                86.91677795678204,
                27.90191632115048
              ],
              [
                86.91677788771057,
                27.902006595314763
              ],
              [
                86.91647304507468,
                27.90200641089962
              ],
              [
                86.91647297575169,
                27.902096685063903
              ],
              [
                86.91626974715408,
                27.902096561743182
              ],
              [
                86.91626967766939,
                27.902186835907468
              ],
              [
                86.91596483453044,
                27.902186650360445
              ],
              [
                86.91596476478524,
                27.90227692452473
              ],
              [
                86.91576153585527,
                27.902276800449425
              ],
              [
                86.91576146593938,
                27.902367074613707
              ],
              [
                86.915050164123,
                27.90236663800553
              ],
              [
                86.91505023462278,
                27.902276363841246
              ],
              [
                86.91484700570179,
                27.902276238427447
              ],
              [
                86.9148475710655,
                27.90155404512215
              ],
              [
                86.91464434349197,
                27.90155391940293
              ],
              [
                86.91464462684756,
                27.901192822727822
              ],
              [
                86.91433978650237,
                27.901192633596523
              ],
              [
                86.91433985759504,
                27.901102359423252
              ],
              [
                86.91423824423049,
                27.901102296235756
              ],
              [
                86.91423845775104,
                27.90083147370697
              ],
              [
                86.91403523153397,
                27.90083134709841
              ],
              [
                86.9140353028692,
                27.900741072925143
              ],
              [
                86.91352723775321,
                27.90074075508323
              ],
              [
                86.91352730951962,
                27.900650480909963
              ],
              [
                86.91332408364391,
                27.900650353250377
              ],
              [
                86.91332415557203,
                27.90056007907711
              ],
              [
                86.91301931701447,
                27.900559887026283
              ],
              [
                86.91301924483484,
                27.900650161199554
              ],
              [
                86.91291763190148,
                27.90065009703289
              ],
              [
                86.91291755963202,
                27.900740371215143
              ],
              [
                86.91312078566942,
                27.900740499467616
              ],
              [
                86.91312071357063,
                27.900830773640884
              ],
              [
                86.91322232667468,
                27.900830837663815
              ],
              [
                86.91322225465674,
                27.900921111837082
              ],
              [
                86.91332386785062,
                27.900921175779164
              ],
              [
                86.91332365205731,
                27.901191998289985
              ],
              [
                86.91322203861192,
                27.90119193433892
              ],
              [
                86.91322189457604,
                27.901372482676475
              ],
              [
                86.91301866735286,
                27.90137235456773
              ],
              [
                86.91301852297563,
                27.901552902896302
              ],
              [
                86.91322175054017,
                27.901553031005044
              ],
              [
                86.91322167852223,
                27.90164330516933
              ],
              [
                86.91312006465462,
                27.9016432411464
              ],
              [
                86.91311999255583,
                27.901733515310685
              ],
              [
                86.912713536762,
                27.901733258482345
              ],
              [
                86.91271368164229,
                27.901552710162758
              ],
              [
                86.91261206786452,
                27.901552645771517
              ],
              [
                86.91261221291548,
                27.901372097442948
              ],
              [
                86.9124089856923,
                27.901371968426908
              ],
              [
                86.91240934915066,
                27.9009205975965
              ],
              [
                86.91251096233556,
                27.90092066214045
              ],
              [
                86.91251103494638,
                27.900830387967183
              ],
              [
                86.91271426115446,
                27.90083051682153
              ],
              [
                86.91271433359461,
                27.900740242657243
              ],
              [
                86.91261272057142,
                27.900740178266002
              ],
              [
                86.9126127930924,
                27.900649904092734
              ],
              [
                86.91230795429232,
                27.900649710460875
              ],
              [
                86.91230788151081,
                27.900739984634143
              ],
              [
                86.9121046554824,
                27.900739855177928
              ],
              [
                86.91210487430301,
                27.900469032658123
              ],
              [
                86.91240971260004,
                27.900469226730156
              ],
              [
                86.91240985798339,
                27.900288678374636
              ],
              [
                86.91261308317638,
                27.900288807381695
              ],
              [
                86.91261322820938,
                27.900108259026176
              ],
              [
                86.91281645307,
                27.90010838772781
              ],
              [
                86.91281703186351,
                27.899386194233863
              ],
              [
                86.91302025537665,
                27.89938632263905
              ],
              [
                86.91302039973593,
                27.899205774256583
              ],
              [
                86.91322362290771,
                27.89920590235634
              ],
              [
                86.91322376692561,
                27.899025353964888
              ],
              [
                86.91342698976501,
                27.89902548175922
              ],
              [
                86.91342713345054,
                27.89884493336777
              ],
              [
                86.91363035594858,
                27.898845060865657
              ],
              [
                86.91363078597212,
                27.898303415646385
              ],
              [
                86.91383400746405,
                27.898303542838846
              ],
              [
                86.91383386446124,
                27.898484091248264
              ],
              [
                86.91424030812782,
                27.898484344752838
              ],
              [
                86.91424059277698,
                27.898123247916033
              ],
              [
                86.91403737161743,
                27.898123121316463
              ],
              [
                86.91403751427887,
                27.89794257289806
              ],
              [
                86.91444395592424,
                27.897942825782795
              ],
              [
                86.91444409791197,
                27.89776227735541
              ],
              [
                86.9148505388836,
                27.897762529045387
              ],
              [
                86.91485068019757,
                27.89758198060902
              ],
              [
                86.91546034064892,
                27.897582355898194
              ],
              [
                86.9154604809478,
                27.897401807452844
              ]
            ]
          ],
          [
            [
              [
                86.9154604809478,
                27.897401807452844
              ],
              [
                86.91525726113571,
                27.897401682658884
              ],
              [
                86.91525740176697,
                27.89722113420455
              ],
              [
                86.91546062124668,
                27.89722125899851
              ],
              [
                86.9154604809478,
                27.897401807452844
              ]
            ]
          ]
        ]
      },
      "id": "+9366+1450",
      "properties": {
        "area_m2": 1541711.7275577455,
        "count": 15381,
        "image_id": "COPERNICUS/S2_SR_HARMONIZED/20211103T044941_20211103T044941_T45RVL",
        "lake_id": "imja-tsho",
        "observed_at": "2021-11-03T05:01:08.633000Z",
        "water": 1
      }
    }
  ]
}
