{
  "type": "FeatureCollection",
  "features": [
    {
      "type": "Feature",
      "geometry": {
        "geodesic": false,
        "type": "MultiPolygon",
        "coordinates": [
          [
            [
              [
                86.92247310925248,
                27.89523934730966
              ],
              [
                86.9222698934379,
                27.89523923286429
              ],
              [
                86.92226995792795,
                27.895148958601194
              ],
              [
                86.92247317357186,
                27.89514907304656
              ],
              [
                86.92247310925248,
                27.89523934730966
              ]
            ]
          ],
          [
            [
              [
                86.92531862645475,
                27.89451872389117
              ],
              [
                86.9252170192167,
                27.894518668806477
              ],
              [
                86.92521708125436,
                27.89442839452541
              ],
              [
                86.92531868841155,
                27.894428449610103
              ],
              [
                86.92531862645475,
                27.89451872389117
              ]
            ]
          ],
          [
            [
              [
                86.92592833135473,
                27.894428778555195
              ],
              [
                86.92592839280847,
                27.894338504274128
              ],
              [
                86.92602999988482,
                27.8943385588378
              ],
              [
                86.92602993851193,
                27.894428833118866
              ],
              [
                86.92592833135473,
                27.894428778555195
              ]
            ]
          ],
          [
            [
              [
                86.92775726024713,
                27.894429749229776
              ],
              [
                86.92775732018274,
                27.894339474939727
              ],
              [
                86.92796053434441,
                27.894339581291273
              ],
              [
                86.92796047457051,
                27.894429855581322
              ],
              [
                86.92775726024713,
                27.894429749229776
              ]
            ]
          ],
          [
            [
              [
                86.93588636606276,
                27.893531026622554
              ],
              [
                86.935886419261,
                27.89344075231454
              ],
              [
                86.93608963176978,
                27.893440846673577
              ],
              [
                86.93608957875121,
                27.893531120990577
              ],
              [
                86.93588636606276,
                27.893531026622554
              ]
            ]
          ],
          [
            [
              [
                86.93934083083133,
                27.893803413091305
              ],
              [
                86.93944243743157,
                27.893803457764523
              ],
              [
                86.93944238718879,
                27.893893732081523
              ],
              [
                86.93934078049872,
                27.8938936874083
              ],
              [
                86.93934083083133,
                27.893803413091305
              ]
            ]
          ],
          [
            [
              [
                86.9405600114441,
                27.893984492881163
              ],
              [
                86.94056006075263,
                27.893894218564164
              ],
              [
                86.94066166744271,
                27.893894262348052
              ],
              [
                86.94066171667039,
                27.893803988022068
              ],
              [
                86.94076332327961,
                27.893804031725107
              ],
              [
                86.94076337242643,
                27.893713757408108
              ],
              [
                86.94096658546522,
                27.893713844580624
              ],
              [
                86.94096653648907,
                27.893804118906605
              ],
              [
                86.94086492988883,
                27.893804075356282
              ],
              [
                86.94086483176585,
                27.893984623990278
              ],
              [
                86.9405600114441,
                27.893984492881163
              ]
            ]
          ],
          [
            [
              [
                86.92105007454516,
                27.895960733963765
              ],
              [
                86.92084685739209,
                27.89596061741634
              ],
              [
                86.92084692306793,
                27.895870343162223
              ],
              [
                86.92094853156361,
                27.895870401471868
              ],
              [
                86.9209485971496,
                27.89578012721775
              ],
              [
                86.9211518139703,
                27.895780243612464
              ],
              [
                86.92115194480992,
                27.895599695095246
              ],
              [
                86.92125355304509,
                27.895599753180313
              ],
              [
                86.92125348771063,
                27.89569002744341
              ],
              [
                86.92145670436064,
                27.895690143388965
              ],
              [
                86.9214567695334,
                27.89559986913485
              ],
              [
                86.92135516128926,
                27.895599811193513
              ],
              [
                86.92135522654287,
                27.895509536930415
              ],
              [
                86.92155844285152,
                27.895509652732237
              ],
              [
                86.92155837776858,
                27.895599926995338
              ],
              [
                86.92186320249208,
                27.89560010012764
              ],
              [
                86.92186326732349,
                27.895509825864544
              ],
              [
                86.92206648364112,
                27.89550994091178
              ],
              [
                86.92206641898039,
                27.89560021517488
              ],
              [
                86.92216802722454,
                27.89560027258621
              ],
              [
                86.92216815637534,
                27.89541972406001
              ],
              [
                86.92237137253127,
                27.895419838658093
              ],
              [
                86.92237143694048,
                27.89532956439499
              ],
              [
                86.92247304492412,
                27.89532962158174
              ],
              [
                86.92247310925248,
                27.89523934730966
              ],
              [
                86.92257471715527,
                27.895239404424544
              ],
              [
                86.9225747813938,
                27.89514913015246
              ],
              [
                86.92267638922473,
                27.895149187195482
              ],
              [
                86.92267632506706,
                27.895239461458583
              ],
              [
                86.92287954088164,
                27.895239575311063
              ],
              [
                86.92287966885563,
                27.895059026766898
              ],
              [
                86.92308288432885,
                27.895059140313947
              ],
              [
                86.92308282051253,
                27.89514941458603
              ],
              [
                86.92338764398737,
                27.895149584349653
              ],
              [
                86.92338777111694,
                27.894969035805488
              ],
              [
                86.92348937877719,
                27.894969092237655
              ],
              [
                86.9234892518183,
                27.89514964078182
              ],
              [
                86.92359085964024,
                27.89514969714212
              ],
              [
                86.92359092303435,
                27.895059422879022
              ],
              [
                86.92379413851656,
                27.895059535375044
              ],
              [
                86.92379420174898,
                27.89496926110296
              ],
              [
                86.92389580940024,
                27.894969317238683
              ],
              [
                86.92389574625766,
                27.895059591510766
              ],
              [
                86.92409896174884,
                27.89505970355763
              ],
              [
                86.92409908769264,
                27.894879155013466
              ],
              [
                86.92420069527205,
                27.894879210924607
              ],
              [
                86.92420075815411,
                27.894788936643543
              ],
              [
                86.92430236565268,
                27.89478899248282
              ],
              [
                86.92430249125512,
                27.894608443929673
              ],
              [
                86.92460731322078,
                27.894608610989366
              ],
              [
                86.92460725067109,
                27.894698885270433
              ],
              [
                86.92470885807981,
                27.894698940804282
              ],
              [
                86.9247089830175,
                27.89451839224215
              ],
              [
                86.92491219749358,
                27.894518503094258
              ],
              [
                86.92491207289726,
                27.89469905165639
              ],
              [
                86.92481046548853,
                27.894698996266268
              ],
              [
                86.92481040310952,
                27.894789270547335
              ],
              [
                86.92501361808867,
                27.894789381246728
              ],
              [
                86.92501374251431,
                27.894608832684593
              ],
              [
                86.92511534984219,
                27.894608887922
              ],
              [
                86.9251152877147,
                27.894699162203068
              ],
              [
                86.92521689512343,
                27.894699217368608
              ],
              [
                86.92521683307679,
                27.894789491649675
              ],
              [
                86.92531844056637,
                27.89478954673437
              ],
              [
                86.92531862645475,
                27.89451872389117
              ],
              [
                86.92552184093084,
                27.89451883384496
              ],
              [
                86.92552177914472,
                27.894609108126026
              ],
              [
                86.92572499379148,
                27.89460921777439
              ],
              [
                86.92572493216706,
                27.894699492055455
              ],
              [
                86.92592814699348,
                27.894699601407375
              ],
              [
                86.92592808553076,
                27.894789875688442
              ],
              [
                86.92623290802642,
                27.894790039154874
              ],
              [
                86.92623303043086,
                27.894609490592742
              ],
              [
                86.92592820844723,
                27.89460932712631
              ],
              [
                86.92592826990098,
                27.894519052845244
              ],
              [
                86.92643630611815,
                27.894519324909012
              ],
              [
                86.92643636714969,
                27.89442905061896
              ],
              [
                86.92663958147307,
                27.894429158928837
              ],
              [
                86.92663964233392,
                27.894338884638785
              ],
              [
                86.92674124941027,
                27.89433893867245
              ],
              [
                86.9267413709703,
                27.894158390101335
              ],
              [
                86.92684297787596,
                27.894158444063134
              ],
              [
                86.9268429171768,
                27.894248718353182
              ],
              [
                86.9270461311678,
                27.894248826052202
              ],
              [
                86.92704607063932,
                27.89433910034225
              ],
              [
                86.92724928479201,
                27.894339207744828
              ],
              [
                86.92724940550762,
                27.89415865916473
              ],
              [
                86.92735101242226,
                27.894158712749235
              ],
              [
                86.92735107269024,
                27.894068438459186
              ],
              [
                86.9276558931647,
                27.89406859877253
              ],
              [
                86.92765583314825,
                27.894158873071564
              ],
              [
                86.92745261932794,
                27.894158766261878
              ],
              [
                86.9274524989447,
                27.89433931485096
              ],
              [
                86.92765571310639,
                27.89433942165166
              ],
              [
                86.92765565308096,
                27.894429695941714
              ],
              [
                86.92775726024713,
                27.894429749229776
              ],
              [
                86.92775696056017,
                27.894881120662056
              ],
              [
                86.927452137804,
                27.894880960564304
              ],
              [
                86.92745201742076,
                27.895061509126435
              ],
              [
                86.92785844843009,
                27.895061722440385
              ],
              [
                86.92785850828483,
                27.894971448159318
              ],
              [
                86.9280617236233,
                27.894971554367135
              ],
              [
                86.92806166393923,
                27.8950618286482
              ],
              [
                86.92816327168931,
                27.89506188163982
              ],
              [
                86.92816333129254,
                27.89497160735875
              ],
              [
                86.92836654663101,
                27.89497171311741
              ],
              [
                86.92836660607253,
                27.894881438827362
              ],
              [
                86.92846821365194,
                27.8948814915944
              ],
              [
                86.92846827300363,
                27.894791217313337
              ],
              [
                86.92856988050218,
                27.894791269999526
              ],
              [
                86.92856993977303,
                27.894700995718463
              ],
              [
                86.92877315460844,
                27.89470110087525
              ],
              [
                86.9287730364171,
                27.894881649446365
              ],
              [
                86.92897625159387,
                27.894881754306706
              ],
              [
                86.92897631051437,
                27.894791480016657
              ],
              [
                86.92887470301582,
                27.89479142762691
              ],
              [
                86.92887476202614,
                27.89470115333686
              ],
              [
                86.92917958427927,
                27.894701310290507
              ],
              [
                86.92917946677065,
                27.894881858861623
              ],
              [
                86.92968750471259,
                27.894882118950846
              ],
              [
                86.92968762138577,
                27.89470157037075
              ],
              [
                86.92978922880349,
                27.894701622167606
              ],
              [
                86.92978928705922,
                27.894611347877557
              ],
              [
                86.92999250173294,
                27.894611451237715
              ],
              [
                86.929992559818,
                27.894521176947666
              ],
              [
                86.93009416707402,
                27.894521228510964
              ],
              [
                86.93009422506925,
                27.894430954220915
              ],
              [
                86.93080547525946,
                27.894431313088887
              ],
              [
                86.93080541784813,
                27.894521587378936
              ],
              [
                86.93100863236015,
                27.894521689247888
              ],
              [
                86.9310086896008,
                27.89443141494886
              ],
              [
                86.93111029677596,
                27.89443146576655
              ],
              [
                86.93111023961616,
                27.894521740065585
              ],
              [
                86.93171988316121,
                27.894522043399707
              ],
              [
                86.93171982651344,
                27.894612317689756
              ],
              [
                86.93182143385928,
                27.89461236798643
              ],
              [
                86.93182149041722,
                27.89452209369638
              ],
              [
                86.93202470493821,
                27.89452219405616
              ],
              [
                86.93202498691939,
                27.894070822561
              ],
              [
                86.93222820059597,
                27.89407092262434
              ],
              [
                86.93222814437043,
                27.894161196923374
              ],
              [
                86.93232975128508,
                27.894161246842753
              ],
              [
                86.93232963900465,
                27.89434179544082
              ],
              [
                86.9325328531843,
                27.894341895055
              ],
              [
                86.93253279721027,
                27.894432169354033
              ],
              [
                86.93232958285994,
                27.89443206973985
              ],
              [
                86.93232952671524,
                27.894522344038883
              ],
              [
                86.93263434849226,
                27.894522493347868
              ],
              [
                86.93263429259908,
                27.894612767646898
              ],
              [
                86.93273589994492,
                27.894612817260853
              ],
              [
                86.93273601156059,
                27.89443226867177
              ],
              [
                86.93293922591091,
                27.894432367684082
              ],
              [
                86.93293917027825,
                27.894522641983112
              ],
              [
                86.93314238479925,
                27.894522740698978
              ],
              [
                86.93314232932829,
                27.89461301499801
              ],
              [
                86.93324393667413,
                27.894613064243657
              ],
              [
                86.93324399206425,
                27.894522789944624
              ],
              [
                86.93344720658526,
                27.894522888211334
              ],
              [
                86.93344726180469,
                27.8944326139123
              ],
              [
                86.93375208333916,
                27.894432760741932
              ],
              [
                86.93375202837125,
                27.894523035040965
              ],
              [
                86.93415845743122,
                27.894523229777754
              ],
              [
                86.93415851205778,
                27.89443295547872
              ],
              [
                86.93466654795155,
                27.89443319720638
              ],
              [
                86.93466665636923,
                27.894252648608315
              ],
              [
                86.93476826337371,
                27.89425269672208
              ],
              [
                86.93476820925919,
                27.8943429710301
              ],
              [
                86.93486981635351,
                27.894343019072
              ],
              [
                86.93486987038717,
                27.894252744772967
              ],
              [
                86.93497147740064,
                27.894252792743004
              ],
              [
                86.93497158530627,
                27.89407224412697
              ],
              [
                86.93486997846348,
                27.894072196156937
              ],
              [
                86.93487003249714,
                27.89398192184892
              ],
              [
                86.93476842573521,
                27.893981873807018
              ],
              [
                86.9347684798587,
                27.893891599499003
              ],
              [
                86.93456526650552,
                27.89389150318164
              ],
              [
                86.9345653750759,
                27.89371095456561
              ],
              [
                86.93436216206406,
                27.893710857942814
              ],
              [
                86.93436227097581,
                27.893530309326785
              ],
              [
                86.93456548365526,
                27.893530405940595
              ],
              [
                86.93456553794046,
                27.893440131623596
              ],
              [
                86.93466714419036,
                27.89344017981821
              ],
              [
                86.934667089995,
                27.89353045413521
              ],
              [
                86.93487030266547,
                27.89353055029986
              ],
              [
                86.93487024863181,
                27.893620824607876
              ],
              [
                86.93517506790252,
                27.893620968293405
              ],
              [
                86.93517501412039,
                27.893711242610404
              ],
              [
                86.93507340761896,
                27.893711194784096
              ],
              [
                86.935073353747,
                27.893801469101096
              ],
              [
                86.93537817352974,
                27.89380161233747
              ],
              [
                86.93537828075266,
                27.893621063712455
              ],
              [
                86.9355814936028,
                27.893621158826075
              ],
              [
                86.93558144015304,
                27.893711433143075
              ],
              [
                86.93547983365161,
                27.893711385622197
              ],
              [
                86.935479780121,
                27.89380165993021
              ],
              [
                86.93568299330352,
                27.893801754900103
              ],
              [
                86.93568310002338,
                27.89362120627509
              ],
              [
                86.93578470645294,
                27.893621253643254
              ],
              [
                86.93578465317385,
                27.893711527960253
              ],
              [
                86.93588625968427,
                27.893711575256553
              ],
              [
                86.93588631287352,
                27.893621300939554
              ],
              [
                86.93608952572365,
                27.893621395307576
              ],
              [
                86.93608947270508,
                27.893711669624572
              ],
              [
                86.93619107921549,
                27.893711716696295
              ],
              [
                86.93619118509093,
                27.893531168062296
              ],
              [
                86.93629279143066,
                27.893531215062154
              ],
              [
                86.93629273858278,
                27.89362148937915
              ],
              [
                86.93649595143292,
                27.8936215831453
              ],
              [
                86.9364960568053,
                27.893441034511305
              ],
              [
                86.93659766306418,
                27.893441081286582
              ],
              [
                86.93659761045883,
                27.893531355603578
              ],
              [
                86.93669921680754,
                27.89353140229801
              ],
              [
                86.93669916428306,
                27.893621676615005
              ],
              [
                86.93659755786247,
                27.893621629920577
              ],
              [
                86.93659750525713,
                27.893711904237577
              ],
              [
                86.93680071827795,
                27.89371199755457
              ],
              [
                86.93680077071261,
                27.89362172323757
              ],
              [
                86.93690237714218,
                27.89362176978827
              ],
              [
                86.93690248184082,
                27.893441221145288
              ],
              [
                86.9370040880997,
                27.89344126762412
              ],
              [
                86.93700403583571,
                27.89353154194112
              ],
              [
                86.93710564217544,
                27.893531588339105
              ],
              [
                86.93710553781816,
                27.8937121369731
              ],
              [
                86.93720714432857,
                27.893712183290237
              ],
              [
                86.93720735271076,
                27.893351086022243
              ],
              [
                86.93730895888879,
                27.89335113226751
              ],
              [
                86.93730890687634,
                27.89344140658451
              ],
              [
                86.93761372566196,
                27.89344154488015
              ],
              [
                86.93761382917484,
                27.893260996237167
              ],
              [
                86.93781704136022,
                27.893261088053976
              ],
              [
                86.93781698976997,
                27.893351362379956
              ],
              [
                86.93812180830407,
                27.893351499543716
              ],
              [
                86.93812175696534,
                27.8934417738697
              ],
              [
                86.93822336322422,
                27.893441819441232
              ],
              [
                86.9382234144821,
                27.893351545124233
              ],
              [
                86.93832502066013,
                27.89335159061492
              ],
              [
                86.93832491832406,
                27.8935321392579
              ],
              [
                86.93842652467276,
                27.893532184685704
              ],
              [
                86.93842637142018,
                27.893803007645683
              ],
              [
                86.93852797802042,
                27.893803052992638
              ],
              [
                86.93852792701408,
                27.893893327309637
              ],
              [
                86.93862953370414,
                27.893893372584728
              ],
              [
                86.93862948278765,
                27.893983646892742
              ],
              [
                86.93873108955856,
                27.89398369209597
              ],
              [
                86.93873114038524,
                27.89389341777897
              ],
              [
                86.93883274707531,
                27.893893462901346
              ],
              [
                86.93883269632948,
                27.893983737218345
              ],
              [
                86.93903590986234,
                27.893983827247503
              ],
              [
                86.93903601102163,
                27.893803278613508
              ],
              [
                86.93893440442139,
                27.89380323363486
              ],
              [
                86.93893445508637,
                27.89371295931786
              ],
              [
                86.93883284856697,
                27.89371291426735
              ],
              [
                86.9388328993128,
                27.89362263995035
              ],
              [
                86.93873129288325,
                27.893622594827974
              ],
              [
                86.93873134370992,
                27.893532320510975
              ],
              [
                86.93913776910478,
                27.893532500551323
              ],
              [
                86.93913771861047,
                27.893622774877308
              ],
              [
                86.9390361121809,
                27.89362272997951
              ],
              [
                86.93903606159677,
                27.893713004296508
              ],
              [
                86.93934088115495,
                27.89371313876532
              ],
              [
                86.93934083083133,
                27.893803413091305
              ],
              [
                86.9392392242221,
                27.893803368337238
              ],
              [
                86.93923912340418,
                27.893983916971234
              ],
              [
                86.93954394371694,
                27.893984050999872
              ],
              [
                86.939543893564,
                27.894074325316872
              ],
              [
                86.93964550041576,
                27.894074369837377
              ],
              [
                86.93964545034368,
                27.894164644154376
              ],
              [
                86.93944223646048,
                27.894164555023533
              ],
              [
                86.93944228670324,
                27.894074280715518
              ],
              [
                86.93934067985148,
                27.8940742360423
              ],
              [
                86.93934057919525,
                27.894254784667314
              ],
              [
                86.93984861431647,
                27.894255007296792
              ],
              [
                86.93984871412829,
                27.894074458671778
              ],
              [
                86.94005192784081,
                27.894074547191764
              ],
              [
                86.94005197758052,
                27.893984272874768
              ],
              [
                86.93964555048787,
                27.89398409552038
              ],
              [
                86.93964560055996,
                27.89389382120338
              ],
              [
                86.93954399387887,
                27.893893776682877
              ],
              [
                86.9395440440318,
                27.893803502365877
              ],
              [
                86.93995047044176,
                27.893803680016706
              ],
              [
                86.93995042062119,
                27.893893954333706
              ],
              [
                86.94005202731125,
                27.89389399855777
              ],
              [
                86.94005207705098,
                27.89380372424077
              ],
              [
                86.94015368365122,
                27.893803768392964
              ],
              [
                86.94015363400133,
                27.893894042709963
              ],
              [
                86.9402552406914,
                27.893894086790294
              ],
              [
                86.94025519112236,
                27.893984361107293
              ],
              [
                86.94035679789329,
                27.893984405106774
              ],
              [
                86.94035694633989,
                27.8937135821468
              ],
              [
                86.94056015937868,
                27.893713669930168
              ],
              [
                86.94056011007015,
                27.893803944247164
              ],
              [
                86.94045850346092,
                27.893803900400396
              ],
              [
                86.94045840466421,
                27.893984449034395
              ],
              [
                86.9405600114441,
                27.893984492881163
              ],
              [
                86.9405599621266,
                27.894074767207144
              ],
              [
                86.94035674841408,
                27.894074679423774
              ],
              [
                86.94035659995849,
                27.894345502365788
              ],
              [
                86.9402549928552,
                27.894345458366306
              ],
              [
                86.94025489371712,
                27.89452600699132
              ],
              [
                86.94005167916019,
                27.89452591875879
              ],
              [
                86.94005162942047,
                27.894616193066806
              ],
              [
                86.93995002205666,
                27.894616148842747
              ],
              [
                86.93994997223609,
                27.89470642315076
              ],
              [
                86.93984836479144,
                27.89470637884585
              ],
              [
                86.93984841469285,
                27.894616104537835
              ],
              [
                86.93974680733803,
                27.89461606016106
              ],
              [
                86.93974670735554,
                27.894796608777092
              ],
              [
                86.93964509982105,
                27.894796564328452
              ],
              [
                86.93964499966788,
                27.8949771129355
              ],
              [
                86.9395433919717,
                27.89497706840601
              ],
              [
                86.93954334180977,
                27.895067342705044
              ],
              [
                86.9397465573818,
                27.895067431692155
              ],
              [
                86.93974650739055,
                27.89515770599119
              ],
              [
                86.93984811525742,
                27.895157750367964
              ],
              [
                86.93984766608182,
                27.895970219032304
              ],
              [
                86.9400508833337,
                27.89597030757026
              ],
              [
                86.94005078384528,
                27.896150856150356
              ],
              [
                86.94096526301936,
                27.896151250852128
              ],
              [
                86.94096521403422,
                27.896241525142177
              ],
              [
                86.94106682291618,
                27.896241568620635
              ],
              [
                86.94106648062213,
                27.896873488615046
              ],
              [
                86.94045682379101,
                27.896873226594444
              ],
              [
                86.94045692260569,
                27.896692678032313
              ],
              [
                86.94025370399734,
                27.89669259009623
              ],
              [
                86.9402538031444,
                27.8965120415341
              ],
              [
                86.93944093008547,
                27.896511686789392
              ],
              [
                86.93944082959094,
                27.896692235351523
              ],
              [
                86.93923761099158,
                27.896692145915253
              ],
              [
                86.93923751015569,
                27.896872694468403
              ],
              [
                86.93862785335152,
                27.896872424362964
              ],
              [
                86.93862775150951,
                27.897052972916114
              ],
              [
                86.93842453223641,
                27.8970528822761
              ],
              [
                86.93842391910928,
                27.898136173487195
              ],
              [
                86.93862714040358,
                27.89813626412721
              ],
              [
                86.93862693669263,
                27.898497361152657
              ],
              [
                86.93883015866066,
                27.898497451496226
              ],
              [
                86.93882954953104,
                27.899580742482744
              ],
              [
                86.93903277352928,
                27.899580832529868
              ],
              [
                86.93903267234303,
                27.89976138101115
              ],
              [
                86.93913428450385,
                27.899761425926915
              ],
              [
                86.93913423399158,
                27.899851700163065
              ],
              [
                86.93903262174094,
                27.8998516552473
              ],
              [
                86.93903246996159,
                27.900122477964736
              ],
              [
                86.93893085745941,
                27.900122432977106
              ],
              [
                86.93893075610251,
                27.900302981440422
              ],
              [
                86.93882914342964,
                27.90030293638093
              ],
              [
                86.93882888960168,
                27.900754307525748
              ],
              [
                86.93893050269675,
                27.900754352594223
              ],
              [
                86.93893035065688,
                27.901025175266742
              ],
              [
                86.93903196400348,
                27.901025220254372
              ],
              [
                86.93903186280825,
                27.901205768699725
              ],
              [
                86.93913347632552,
                27.901205813606506
              ],
              [
                86.93913342581325,
                27.90129608783367
              ],
              [
                86.93923503941137,
                27.901296132668588
              ],
              [
                86.93923498897995,
                27.901386406886772
              ],
              [
                86.9393366026679,
                27.901386451649824
              ],
              [
                86.93933650197573,
                27.90156700008619
              ],
              [
                86.93943811582538,
                27.901567044777376
              ],
              [
                86.9394380153039,
                27.901747593213745
              ],
              [
                86.93933640128358,
                27.901747548522557
              ],
              [
                86.93933630059142,
                27.90192809694994
              ],
              [
                86.93740563101623,
                27.90192723359709
              ],
              [
                86.9374056829658,
                27.90183695938789
              ],
              [
                86.93699922656111,
                27.901836774182225
              ],
              [
                86.93699927884306,
                27.901746499973026
              ],
              [
                86.93649120876839,
                27.901746266779362
              ],
              [
                86.93649126147254,
                27.90165599257016
              ],
              [
                86.93628803361156,
                27.901655898768077
              ],
              [
                86.9362880864864,
                27.901565624558877
              ],
              [
                86.93598324494644,
                27.9015654832988
              ],
              [
                86.9359832980818,
                27.901475209089597
              ],
              [
                86.93578007055318,
                27.901475114532932
              ],
              [
                86.93578012385022,
                27.90138484032373
              ],
              [
                86.93557689650129,
                27.901384745479604
              ],
              [
                86.935576949969,
                27.90129447126142
              ],
              [
                86.93527210919262,
                27.901294328429287
              ],
              [
                86.93527216291187,
                27.901204054220088
              ],
              [
                86.934967322396,
                27.901203910714223
              ],
              [
                86.93496737636679,
                27.90111363649604
              ],
              [
                86.93456092268399,
                27.901113444103853
              ],
              [
                86.93456097699614,
                27.90102316988567
              ],
              [
                86.9341545236547,
                27.901022976298727
              ],
              [
                86.93415457829921,
                27.900932702089523
              ],
              [
                86.93364651205137,
                27.90093245841252
              ],
              [
                86.93364656710911,
                27.90084218420332
              ],
              [
                86.93293527496758,
                27.900841839915003
              ],
              [
                86.93293538627783,
                27.90066129148762
              ],
              [
                86.93252893430183,
                27.900661093103672
              ],
              [
                86.93252904628581,
                27.900480544667303
              ],
              [
                86.93212259499253,
                27.900480345088596
              ],
              [
                86.93212270765025,
                27.90029979665223
              ],
              [
                86.93110658111937,
                27.900299292463792
              ],
              [
                86.93110669545693,
                27.900118744027424
              ],
              [
                86.92866799592584,
                27.90011750342707
              ],
              [
                86.92866811432378,
                27.8999369549907
              ],
              [
                86.92765199125141,
                27.89993642534401
              ],
              [
                86.92765187117361,
                27.900116973780378
              ],
              [
                86.92724542127272,
                27.900116759819642
              ],
              [
                86.92724530052118,
                27.900297308247026
              ],
              [
                86.92704207523836,
                27.9002972008175
              ],
              [
                86.92704189359901,
                27.900568023436122
              ],
              [
                86.92663544202725,
                27.900567807678758
              ],
              [
                86.92663538113945,
                27.900658081887958
              ],
              [
                86.9249079605626,
                27.900657151529767
              ],
              [
                86.92490789824647,
                27.900747425729985
              ],
              [
                86.92439983295982,
                27.9007471479709
              ],
              [
                86.92439977022147,
                27.900837422171115
              ],
              [
                86.92358686511065,
                27.900836973866873
              ],
              [
                86.92358680169858,
                27.900927248058107
              ],
              [
                86.92277389593198,
                27.900926794956863
              ],
              [
                86.92277383184617,
                27.901017069148097
              ],
              [
                86.92165608551879,
                27.901016438297205
              ],
              [
                86.92165602049873,
                27.90110671248844
              ],
              [
                86.92124956695967,
                27.90110648083988
              ],
              [
                86.92124950160724,
                27.901196755031112
              ],
              [
                86.92033498040996,
                27.901196229435822
              ],
              [
                86.92033491429395,
                27.901286503618074
              ],
              [
                86.9197252330017,
                27.90128614985253
              ],
              [
                86.91972516638263,
                27.901376424034783
              ],
              [
                86.9189122573372,
                27.90137594814328
              ],
              [
                86.91891232462999,
                27.90128567397001
              ],
              [
                86.91881071108577,
                27.90128561414221
              ],
              [
                86.91881064370314,
                27.901375888324463
              ],
              [
                86.91830257555985,
                27.901375588080548
              ],
              [
                86.918302507764,
                27.901465862262796
              ],
              [
                86.91799766662828,
                27.901465681216337
              ],
              [
                86.91799759857192,
                27.901555955389604
              ],
              [
                86.91769275718468,
                27.90155577367839
              ],
              [
                86.91769268887678,
                27.901646047851656
              ],
              [
                86.9174894611236,
                27.901645926327564
              ],
              [
                86.91748939264502,
                27.90173620050083
              ],
              [
                86.91728616472116,
                27.901736078680297
              ],
              [
                86.9172860960719,
                27.90182635284458
              ],
              [
                86.91698125393906,
                27.901826169552333
              ],
              [
                86.91698118503828,
                27.9019164437256
              ],
              [
                86.91677795678204,
                27.90191632115048
              ],
              [
                86.91677788771057,
                27.902006595314763
              ],
              [
                86.91647304507468,
                27.90200641089962
              ],
              [
                86.91647297575169,
                27.902096685063903
              ],
              [
                86.91626974715408,
                27.902096561743182
              ],
              [
                86.91626967766939,
                27.902186835907468
              ],
              [
                86.91596483453044,
                27.902186650360445
              ],
              [
                86.91596476478524,
                27.90227692452473
              ],
              [
                86.91576153585527,
                27.902276800449425
              ],
              [
                86.91576146593938,
                27.902367074613707
              ],
              [
                86.91464370593964,
                27.902366386863527
              ],
              [
                86.91464377678079,
                27.902276112708225
              ],
              [
                86.91454216232029,
                27.902276049736322
              ],
              [
                86.91454230417325,
                27.902095501416735
              ],
              [
                86.91464391846307,
                27.902095564388638
              ],
              [
                86.91464398930422,
                27.902005290224352
              ],
              [
                86.9147456035042,
                27.902005353124387
              ],
              [
                86.91474588652741,
                27.90164425646725
              ],
              [
                86.91464427265981,
                27.901644193576196
              ],
              [
                86.91464434349197,
                27.90155391940293
              ],
              [
                86.91454272971419,
                27.90155385644001
              ],
              [
                86.91454280063618,
                27.90146358226674
              ],
              [
                86.91444118693026,
                27.901463519222975
              ],
              [
                86.91444125794209,
                27.90137324505869
              ],
              [
                86.914339644326,
                27.901373181934073
              ],
              [
                86.91433978650237,
                27.901192633596523
              ],
              [
                86.91423817305696,
                27.901192570400042
              ],
              [
                86.91423845775104,
                27.90083147370697
              ],
              [
                86.91403523153397,
                27.90083134709841
              ],
              [
                86.9140353028692,
                27.900741072925143
              ],
              [
                86.91352723775321,
                27.90074075508323
              ],
              [
                86.91352730951962,
                27.900650480909963
              ],
              [
                86.91332408364391,
                27.900650353250377
              ],
              [
                86.91332415557203,
                27.90056007907711
              ],
              [
                86.91291770416196,
                27.900559822859623
              ],
              [
                86.91291755963202,
                27.900740371215143
              ],
              [
                86.91312078566942,
                27.900740499467616
              ],
              [
                86.91312071357063,
                27.900830773640884
              ],
              [
                86.91322232667468,
                27.900830837663815
              ],
              [
                86.91322225465674,
                27.900921111837082
              ],
              [
                86.91332386785062,
                27.900921175779164
              ],
              [
                86.91332350818314,
                27.901372546618557
              ],
              [
                86.91322189457604,
                27.901372482676475
              ],
              [
                86.91322167852223,
                27.90164330516933
              ],
              [
                86.91312006465462,
                27.9016432411464
              ],
              [
                86.91311999255583,
                27.901733515310685
              ],
              [
                86.91281515071046,
                27.901733322801718
              ],
              [
                86.91281522306078,
                27.901643048646417
              ],
              [
                86.91261199534352,
                27.901642919926818
              ],
              [
                86.91261221291548,
                27.901372097442948
              ],
              [
                86.9125105992994,
                27.90137203297086
              ],
              [
                86.91251067191023,
                27.901281758806576
              ],
              [
                86.91240905838397,
                27.90128169426262
              ],
              [
                86.91240920376731,
                27.901101145934053
              ],
              [
                86.91230759041174,
                27.901101081318235
              ],
              [
                86.91230766319325,
                27.901010807144964
              ],
              [
                86.91240927645899,
                27.901010871769767
              ],
              [
                86.91240942184234,
                27.90083032342323
              ],
              [
                86.91261264805043,
                27.900830452430288
              ],
              [
                86.91261272057142,
                27.900740178266002
              ],
              [
                86.91251110754821,
                27.900740113793915
              ],
              [
                86.91251118015904,
                27.900649839620648
              ],
              [
                86.91230795429232,
                27.900649710460875
              ],
              [
                86.91230788151081,
                27.900739984634143
              ],
              [
                86.9121046554824,
                27.900739855177928
              ],
              [
                86.91210472842559,
                27.90064958100466
              ],
              [
                86.91200311549223,
                27.90064951616426
              ],
              [
                86.91200318851628,
                27.900559241990994
              ],
              [
                86.9121048013688,
                27.90055930683139
              ],
              [
                86.9121049472462,
                27.900378758484855
              ],
              [
                86.91220655992805,
                27.900378823253387
              ],
              [
                86.91220677849714,
                27.900108000715615
              ],
              [
                86.9120035536455,
                27.90010787111567
              ],
              [
                86.91200362666956,
                27.90001759693342
              ],
              [
                86.9118004019886,
                27.900017467028047
              ],
              [
                86.91180047517436,
                27.899927192845794
              ],
              [
                86.91190208743399,
                27.899927257838904
              ],
              [
                86.91190216054787,
                27.89983698365665
              ],
              [
                86.91200377271765,
                27.899837048568916
              ],
              [
                86.91200391876575,
                27.89965650019543
              ],
              [
                86.91241036678916,
                27.899656759098878
              ],
              [
                86.91241029410648,
                27.89974703329011
              ],
              [
                86.9127151303823,
                27.899747226679427
              ],
              [
                86.91271520281346,
                27.899656952488193
              ],
              [
                86.91281681482155,
                27.899657016807566
              ],
              [
                86.91281688717187,
                27.899566742616333
              ],
              [
                86.91271527524462,
                27.89956667830594
              ],
              [
                86.91271542010695,
                27.89938612992347
              ],
              [
                86.91281703186351,
                27.899386194233863
              ],
              [
                86.91281717655515,
                27.899205645851396
              ],
              [
                86.91322362290771,
                27.89920590235634
              ],
              [
                86.91322376692561,
                27.899025353964888
              ],
              [
                86.91342698976501,
                27.89902548175922
              ],
              [
                86.91342713345054,
                27.89884493336777
              ],
              [
                86.91363035594858,
                27.898845060865657
              ],
              [
                86.91363064262794,
                27.898483964055803
              ],
              [
                86.91342742080363,
                27.898483836557915
              ],
              [
                86.91342756448019,
                27.898303288148497
              ],
              [
                86.91312273224678,
                27.898303096340218
              ],
              [
                86.91312287642639,
                27.898122547921815
              ],
              [
                86.91332609757696,
                27.898122675868862
              ],
              [
                86.91332616949607,
                27.89803240165966
              ],
              [
                86.91363100097489,
                27.898032593018783
              ],
              [
                86.9136309293073,
                27.898122867227983
              ],
              [
                86.91424059277698,
                27.898123247916033
              ],
              [
                86.91424073510605,
                27.89794269948865
              ],
              [
                86.91444395592424,
                27.897942825782795
              ],
              [
                86.91444409791197,
                27.89776227735541
              ],
              [
                86.9148505388836,
                27.897762529045387
              ],
              [
                86.91485068019757,
                27.89758198060902
              ],
              [
                86.91505390034203,
                27.897582106004847
              ],
              [
                86.91505404131465,
                27.897401557559498
              ],
              [
                86.91515565122069,
                27.897401620145125
              ],
              [
                86.91515572162166,
                27.89731134592694
              ],
              [
                86.91525733144685,
                27.89731140843172
              ],
              [
                86.91525740176697,
                27.89722113420455
              ],
              [
                86.91505418228726,
                27.897221009114148
              ],
              [
                86.91505432325988,
                27.897040460659813
              ],
              [
                86.91495271368622,
                27.89704039800232
              ],
              [
                86.91495278425786,
                27.896950123775156
              ],
              [
                86.91525761270937,
                27.89695031153203
              ],
              [
                86.91525747207811,
                27.897130859986365
              ],
              [
                86.91546069139612,
                27.897130984780325
              ],
              [
                86.91546055109724,
                27.897311533225675
              ],
              [
                86.91566377074761,
                27.897311657723193
              ],
              [
                86.91566384072638,
                27.897221383496024
              ],
              [
                86.91596866995043,
                27.897221569671867
              ],
              [
                86.91596873967767,
                27.8971312954447
              ],
              [
                86.9164767879682,
                27.897131604249562
              ],
              [
                86.91647685727321,
                27.897041330022397
              ],
              [
                86.91688329556787,
                27.897041575711626
              ],
              [
                86.91688336454052,
                27.896951301475475
              ],
              [
                86.91739141199561,
                27.89695160690267
              ],
              [
                86.91739148054606,
                27.89686133266652
              ],
              [
                86.91779791818495,
                27.896861575660807
              ],
              [
                86.91779798639402,
                27.896771301424657
              ],
              [
                86.9180012050383,
                27.89677142247264
              ],
              [
                86.91800127307668,
                27.89668114823649
              ],
              [
                86.91881414702496,
                27.89668162941907
              ],
              [
                86.91881421438961,
                27.89659135518292
              ],
              [
                86.9193222602008,
                27.896591653486478
              ],
              [
                86.91932232713427,
                27.896501379241343
              ],
              [
                86.91972876345262,
                27.89650161654031
              ],
              [
                86.91972883005373,
                27.896411342295178
              ],
              [
                86.92013526603971,
                27.8964115783904
              ],
              [
                86.92013533229945,
                27.896321304145268
              ],
              [
                86.92033855012625,
                27.89632142174372
              ],
              [
                86.92033861622429,
                27.896231147489605
              ],
              [
                86.92074505153654,
                27.896231381788194
              ],
              [
                86.92074511729322,
                27.896141107534078
              ],
              [
                86.92094833478764,
                27.896141224234217
              ],
              [
                86.92094840038263,
                27.8960509499801
              ],
              [
                86.92105000904002,
                27.89605100821788
              ],
              [
                86.92105007454516,
                27.895960733963765
              ]
            ],
            [
              [
                86.92105007454516,
                27.895960733963765
              ],
              [
                86.92105014005031,
                27.89587045970965
              ],
              [
                86.921151748546,
                27.89587051787556
              ],
              [
                86.92115168312169,
                27.895960792129678
              ],
              [
                86.92105007454516,
                27.895960733963765
              ]
            ],
            [
              [
                86.92287954088164,
                27.895239575311063
              ],
              [
                86.92298114879341,
                27.89523963212052
              ],
              [
                86.92298108488727,
                27.89532990638362
              ],
              [
                86.92287947689464,
                27.89532984957416
              ],
              [
                86.92287954088164,
                27.895239575311063
              ]
            ],
            [
              [
                86.92359085964024,
                27.89514969714212
              ],
              [
                86.92369246746219,
                27.895149753430555
              ],
              [
                86.92369240415792,
                27.895240027702638
              ],
              [
                86.92359079624613,
                27.895239971414203
              ],
              [
                86.92359085964024,
                27.89514969714212
              ]
            ],
            [
              [
                86.92430236565268,
                27.89478899248282
              ],
              [
                86.92440397314225,
                27.894789048250235
              ],
              [
                86.92440391042187,
                27.894879322522318
              ],
              [
                86.92430230284246,
                27.894879266763887
              ],
              [
                86.92430236565268,
                27.89478899248282
              ]
            ],
            [
              [
                86.92856988050218,
                27.894791269999526
              ],
              [
                86.92867148800973,
                27.89479132261385
              ],
              [
                86.92867142882871,
                27.894881596903904
              ],
              [
                86.92856982124033,
                27.894881544289575
              ],
              [
                86.92856988050218,
                27.894791269999526
              ]
            ],
            [
              [
                86.93497147740064,
                27.894252792743004
              ],
              [
                86.9350730844141,
                27.894252840641172
              ],
              [
                86.93507303055112,
                27.894343114940206
              ],
              [
                86.93497142344782,
                27.894343067051018
              ],
              [
                86.93497147740064,
                27.894252792743004
              ]
            ],
            [
              [
                86.93497158530627,
                27.89407224412697
              ],
              [
                86.93497163925909,
                27.89398196982794
              ],
              [
                86.93507324602102,
                27.89398201771713
              ],
              [
                86.93507319214906,
                27.894072292025143
              ],
              [
                86.93497158530627,
                27.89407224412697
              ]
            ],
            [
              [
                86.93832491832406,
                27.8935321392579
              ],
              [
                86.93832486715601,
                27.89362241358388
              ],
              [
                86.93822326072646,
                27.893622368084213
              ],
              [
                86.93822331197535,
                27.893532093767213
              ],
              [
                86.93832491832406,
                27.8935321392579
              ]
            ],
            [
              [
                86.93934057919525,
                27.894254784667314
              ],
              [
                86.93934052887163,
                27.89434505897533
              ],
              [
                86.93923892175935,
                27.894345014230247
              ],
              [
                86.9392389721728,
                27.894254739913247
              ],
              [
                86.93934057919525,
                27.894254784667314
              ]
            ],
            [
              [
                86.94005192784081,
                27.894074547191764
              ],
              [
                86.94025514155332,
                27.894074635424293
              ],
              [
                86.9402550919843,
                27.894164909741292
              ],
              [
                86.94015348504269,
                27.894164865660958
              ],
              [
                86.9401534353928,
                27.894255139977957
              ],
              [
                86.94005182837036,
                27.894255095825763
              ],
              [
                86.94005192784081,
                27.894074547191764
              ]
            ],
            [
              [
                86.91393554678945,
                27.898393880531987
              ],
              [
                86.91393568962158,
                27.898213332113585
              ],
              [
                86.91413891095182,
                27.89821345886587
              ],
              [
                86.91413876845206,
                27.898394007284274
              ],
              [
                86.91393554678945,
                27.898393880531987
              ]
            ],
            [
              [
                86.92196468124408,
                27.895780706208903
              ],
              [
                86.92196474599464,
                27.895690431945802
              ],
              [
                86.92206635431965,
                27.89569048943798
              ],
              [
                86.92206628965891,
                27.8957807636921
              ],
              [
                86.92196468124408,
                27.895780706208903
              ]
            ],
            [
              [
                86.92318423713705,
                27.89542029405004
              ],
              [
                86.92318436460799,
                27.895239745514857
              ],
              [
                86.92328597251978,
                27.895239802108723
              ],
              [
                86.92328584521952,
                27.895420350643903
              ],
              [
                86.92318423713705,
                27.89542029405004
              ]
            ],
            [
              [
                86.92542004806492,
                27.894789601747195
              ],
              [
                86.92542010994087,
                27.894699327466128
              ],
              [
                86.92562332475833,
                27.894699437267207
              ],
              [
                86.92562326305305,
                27.894789711548274
              ],
              [
                86.92542004806492,
                27.894789601747195
              ]
            ],
            [
              [
                86.92592796262325,
                27.894970424250573
              ],
              [
                86.92592802407701,
                27.89488014996951
              ],
              [
                86.9260296316564,
                27.894880204533177
              ],
              [
                86.9260295702835,
                27.894970478814244
              ],
              [
                86.92592796262325,
                27.894970424250573
              ]
            ],
            [
              [
                86.9263344544036,
                27.89488036777503
              ],
              [
                86.92633463775873,
                27.894609544931832
              ],
              [
                86.92653785241448,
                27.894609653385437
              ],
              [
                86.9265379133562,
                27.89451937909539
              ],
              [
                86.92663952060322,
                27.8945194332099
              ],
              [
                86.92663945974236,
                27.89460970749995
              ],
              [
                86.926944281726,
                27.89460986938535
              ],
              [
                86.92694434233532,
                27.89451959510428
              ],
              [
                86.92684273509728,
                27.894519541214347
              ],
              [
                86.92684279578746,
                27.8944292669243
              ],
              [
                86.92704601011083,
                27.894429374632303
              ],
              [
                86.92704588905387,
                27.894609923203415
              ],
              [
                86.92714749638174,
                27.894609976940636
              ],
              [
                86.9271473150568,
                27.89488079979282
              ],
              [
                86.9273505302156,
                27.894880907051665
              ],
              [
                86.92735046994764,
                27.89497118133273
              ],
              [
                86.92684243161044,
                27.89497091262866
              ],
              [
                86.92684237091127,
                27.89506118690973
              ],
              [
                86.92663915541111,
                27.895061078905282
              ],
              [
                86.92663921628096,
                27.894970804624215
              ],
              [
                86.92643600094249,
                27.894970696323323
              ],
              [
                86.92643606198301,
                27.89488042204226
              ],
              [
                86.9263344544036,
                27.89488036777503
              ]
            ],
            [
              [
                86.9301955426635,
                27.894882377162592
              ],
              [
                86.93019560057789,
                27.894792102872543
              ],
              [
                86.93029720808543,
                27.89479215429211
              ],
              [
                86.93029726591897,
                27.89470188000206
              ],
              [
                86.93060208819006,
                27.89470203380262
              ],
              [
                86.93060197303502,
                27.894882582382717
              ],
              [
                86.9301955426635,
                27.894882377162592
              ]
            ],
            [
              [
                86.93151655501231,
                27.894702491170865
              ],
              [
                86.93151661183074,
                27.894612216880816
              ],
              [
                86.9316182191676,
                27.894612267321218
              ],
              [
                86.931618162439,
                27.89470254162025
              ],
              [
                86.93151655501231,
                27.894702491170865
              ]
            ],
            [
              [
                86.93212636850961,
                27.894431969829224
              ],
              [
                86.9321264811314,
                27.89425142123116
              ],
              [
                86.93222808813589,
                27.894251471222404
              ],
              [
                86.93222797568478,
                27.89443201982047
              ],
              [
                86.93212636850961,
                27.894431969829224
              ]
            ],
            [
              [
                86.93527640584361,
                27.894072387596907
              ],
              [
                86.93527645953591,
                27.893982113288892
              ],
              [
                86.93537806629786,
                27.893982160962484
              ],
              [
                86.9353780126864,
                27.8940724352705
              ],
              [
                86.93527640584361,
                27.894072387596907
              ]
            ],
            [
              [
                86.9355811729312,
                27.894162804692137
              ],
              [
                86.93558122638095,
                27.894072530384122
              ],
              [
                86.93568283322374,
                27.894072577833132
              ],
              [
                86.93568277986381,
                27.89416285214115
              ],
              [
                86.9355811729312,
                27.894162804692137
              ]
            ],
            [
              [
                86.93598765376107,
                27.894072719722033
              ],
              [
                86.93598770686948,
                27.893982445414018
              ],
              [
                86.93608931363141,
                27.893982492557605
              ],
              [
                86.93608926061285,
                27.8940727668746
              ],
              [
                86.93598765376107,
                27.894072719722033
              ]
            ],
            [
              [
                86.93649558262958,
                27.894253503328358
              ],
              [
                86.93649563531577,
                27.894163229020343
              ],
              [
                86.93659724224838,
                27.89416327579562
              ],
              [
                86.93659718964304,
                27.894253550103635
              ],
              [
                86.93649558262958,
                27.894253503328358
              ]
            ],
            [
              [
                86.93659687402895,
                27.89479519592478
              ],
              [
                86.93659697923064,
                27.894614647326716
              ],
              [
                86.93669858658548,
                27.894614694021143
              ],
              [
                86.93669874414098,
                27.89434387110608
              ],
              [
                86.93680035124429,
                27.894343917728644
              ],
              [
                86.93680029880963,
                27.89443419203666
              ],
              [
                86.93690190600276,
                27.89443423858736
              ],
              [
                86.9369020107014,
                27.894253689971325
              ],
              [
                86.93700361771486,
                27.894253736441176
              ],
              [
                86.9370035131869,
                27.894434285057205
              ],
              [
                86.93710512037104,
                27.89443433145519
              ],
              [
                86.93710491164748,
                27.894795428678268
              ],
              [
                86.93659687402895,
                27.89479519592478
              ]
            ],
            [
              [
                86.936698849181,
                27.894163322490048
              ],
              [
                86.9366989016965,
                27.894073048182033
              ],
              [
                86.93680050854827,
                27.894073094804597
              ],
              [
                86.93680045611362,
                27.89416336911261
              ],
              [
                86.936698849181,
                27.894163322490048
              ]
            ],
            [
              [
                86.9369996971256,
                27.901024306254502
              ],
              [
                86.93699980168951,
                27.900843757809152
              ],
              [
                86.93720302803234,
                27.900843850560204
              ],
              [
                86.93720292380081,
                27.901024398996572
              ],
              [
                86.9369996971256,
                27.901024306254502
              ]
            ],
            [
              [
                86.93741035735836,
                27.893712275717895
              ],
              [
                86.93741040928099,
                27.893622001400896
              ],
              [
                86.93751201571055,
                27.893622047493455
              ],
              [
                86.93751196386877,
                27.893712321810455
              ],
              [
                86.93741035735836,
                27.893712275717895
              ]
            ],
            [
              [
                86.93781662863825,
                27.893983282598946
              ],
              [
                86.9378166802285,
                27.89389300829093
              ],
              [
                86.93812150028074,
                27.893893145463675
              ],
              [
                86.93812144894203,
                27.89398341977169
              ],
              [
                86.93801984218008,
                27.89398337412829
              ],
              [
                86.9380196879124,
                27.894254197061322
              ],
              [
                86.93791808088996,
                27.894254151337073
              ],
              [
                86.93791823540917,
                27.893983328404044
              ],
              [
                86.93781662863825,
                27.893983282598946
              ]
            ],
            [
              [
                86.93791833841898,
                27.893802779770045
              ],
              [
                86.93791844142879,
                27.89362223113605
              ],
              [
                86.93812165429689,
                27.89362232251268
              ],
              [
                86.93812160295818,
                27.893712596829676
              ],
              [
                86.93801999643878,
                27.893712551177295
              ],
              [
                86.93801994501922,
                27.893802825494294
              ],
              [
                86.93791833841898,
                27.893802779770045
              ]
            ],
            [
              [
                86.93822018515543,
                27.899038825082922
              ],
              [
                86.93822028768915,
                27.898858276583674
              ],
              [
                86.93842351033092,
                27.89885836752911
              ],
              [
                86.93842340813858,
                27.899038916028363
              ],
              [
                86.93822018515543,
                27.899038825082922
              ]
            ],
            [
              [
                86.93862922820509,
                27.89443501845977
              ],
              [
                86.9386292791216,
                27.89434474414277
              ],
              [
                86.9387308862249,
                27.894344789345997
              ],
              [
                86.93873083539822,
                27.89443506365401
              ],
              [
                86.93862922820509,
                27.89443501845977
              ]
            ],
            [
              [
                86.93873093706055,
                27.894254515037982
              ],
              [
                86.93873098789622,
                27.894164240720983
              ],
              [
                86.93883259482884,
                27.894164285852344
              ],
              [
                86.93883254408301,
                27.89425456016036
              ],
              [
                86.93873093706055,
                27.894254515037982
              ]
            ],
            [
              [
                86.93852777401302,
                27.89416415025165
              ],
              [
                86.93852782501936,
                27.89407387593465
              ],
              [
                86.93862943187114,
                27.894073921209742
              ],
              [
                86.93862938095462,
                27.89416419552674
              ],
              [
                86.93852777401302,
                27.89416415025165
              ]
            ],
            [
              [
                86.93639413392621,
                27.893982633548188
              ],
              [
                86.93639408115916,
                27.894072907865187
              ],
              [
                86.93619086745564,
                27.894072813946323
              ],
              [
                86.93619097334005,
                27.89389226532131
              ],
              [
                86.93629258001216,
                27.893892312321164
              ],
              [
                86.93629252716427,
                27.89398258662918
              ],
              [
                86.93639413392621,
                27.893982633548188
              ]
            ],
            [
              [
                86.93730854279814,
                27.89407332679452
              ],
              [
                86.93730864682304,
                27.893892778169505
              ],
              [
                86.93741025350414,
                27.89389282434291
              ],
              [
                86.9374101496499,
                27.894073372967924
              ],
              [
                86.93730854279814,
                27.89407332679452
              ]
            ],
            [
              [
                86.9368006134176,
                27.893892546179583
              ],
              [
                86.93690222009869,
                27.893892592730282
              ],
              [
                86.93690216774488,
                27.893982867038297
              ],
              [
                86.93680056098295,
                27.893982820496582
              ],
              [
                86.9368006134176,
                27.893892546179583
              ]
            ],
            [
              [
                86.93761341510539,
                27.89398319078214
              ],
              [
                86.93761336335345,
                27.894073465090155
              ],
              [
                86.93751175650168,
                27.894073419069464
              ],
              [
                86.93751180834344,
                27.893983144752465
              ],
              [
                86.93761341510539,
                27.89398319078214
              ]
            ],
            [
              [
                86.93761341510539,
                27.89398319078214
              ],
              [
                86.93761346686631,
                27.89389291646514
              ],
              [
                86.93771507354741,
                27.893892962413968
              ],
              [
                86.9377150218763,
                27.893983236730968
              ],
              [
                86.93761341510539,
                27.89398319078214
              ]
            ],
            [
              [
                86.92389555682992,
                27.895330414327013
              ],
              [
                86.92389549368733,
                27.895420688590114
              ],
              [
                86.92379388560487,
                27.895420632454393
              ],
              [
                86.92379394883729,
                27.89533035818231
              ],
              [
                86.92389555682992,
                27.895330414327013
              ]
            ],
            [
              [
                86.93730849078568,
                27.894163601102534
              ],
              [
                86.9374100977183,
                27.89416364727594
              ],
              [
                86.93741004579567,
                27.894253921592938
              ],
              [
                86.93730843877323,
                27.894253875419533
              ],
              [
                86.93730849078568,
                27.894163601102534
              ]
            ],
            [
              [
                86.93852777401302,
                27.89416415025165
              ],
              [
                86.93852772301567,
                27.894254424559666
              ],
              [
                86.93842611599321,
                27.89425437921271
              ],
              [
                86.93842616708041,
                27.89416410489571
              ],
              [
                86.93852777401302,
                27.89416415025165
              ]
            ],
            [
              [
                86.92409883579606,
                27.895240252101797
              ],
              [
                86.92409896174884,
                27.89505970355763
              ],
              [
                86.92420056948994,
                27.895059759468776
              ],
              [
                86.92420044370783,
                27.895240308021922
              ],
              [
                86.92409883579606,
                27.895240252101797
              ]
            ],
            [
              [
                86.92389555682992,
                27.895330414327013
              ],
              [
                86.9238956199725,
                27.89524014005493
              ],
              [
                86.92409883579606,
                27.895240252101797
              ],
              [
                86.92409877282415,
                27.89533052637388
              ],
              [
                86.92389555682992,
                27.895330414327013
              ]
            ],
            [
              [
                86.93639413392621,
                27.893982633548188
              ],
              [
                86.93639418669325,
                27.893892359240173
              ],
              [
                86.93649579337433,
                27.893892406087314
              ],
              [
                86.93649584606052,
                27.8938021317793
              ],
              [
                86.93680066585226,
                27.893802271871568
              ],
              [
                86.9368006134176,
                27.893892546179583
              ],
              [
                86.93659740005542,
                27.89389245286259
              ],
              [
                86.93659734745009,
                27.893982727170606
              ],
              [
                86.93639413392621,
                27.893982633548188
              ]
            ],
            [
              [
                86.93730849078568,
                27.894163601102534
              ],
              [
                86.93710527692045,
                27.894163508531143
              ],
              [
                86.9371053290946,
                27.89407323422313
              ],
              [
                86.93730854279814,
                27.89407332679452
              ],
              [
                86.93730849078568,
                27.894163601102534
              ]
            ]
          ],
          [
            [
              [
                86.92592833135473,
                27.894428778555195
              ],
              [
                86.92592826990098,
                27.894519052845244
              ],
              [
                86.92572505541591,
                27.894518943493324
              ],
              [
                86.92572511704034,
                27.894428669203275
              ],
              [
                86.92592833135473,
                27.894428778555195
              ]
            ]
          ],
          [
            [
              [
                86.93588636606276,
                27.893531026622554
              ],
              [
                86.93588631287352,
                27.893621300939554
              ],
              [
                86.93578470645294,
                27.893621253643254
              ],
              [
                86.93578475972303,
                27.89353097933524
              ],
              [
                86.93588636606276,
                27.893531026622554
              ]
            ]
          ]
        ]
      },
      "id": "+9391+1463",
      "properties": {
        "area_m2": 1673119.6535216656,
        "count": 16692,
        "image_id": "COPERNICUS/S2_SR_HARMONIZED/20211128T045129_20211128T045610_T45RVL",
        "lake_id": "imja-tsho",
        "observed_at": "2021-11-28T05:01:00.153000Z",
        "water": 1
      }
    }
  ]
}
