{
  "type": "FeatureCollection",
  "features": [
    {
      "type": "Feature",
      "geometry": {
        "geodesic": false,
        "type": "MultiPolygon",
        "coordinates": [
          [
            [
              [
                86.91505418228726,
                27.897221009114148
              ],
              [
                86.9147493530722,
                27.897220820917095
              ],
              [
                86.91474949454788,
                27.89704027246276
              ],
              [
                86.91495271368622,
                27.89704039800232
              ],
              [
                86.91495264311457,
                27.89713067222949
              ],
              [
                86.91505425276908,
                27.89713073488698
              ],
              [
                86.91505418228726,
                27.897221009114148
              ]
            ]
          ],
          [
            [
              [
                86.91525754239822,
                27.8970405857592
              ],
              [
                86.91505432325988,
                27.897040460659813
              ],
              [
                86.9150543937417,
                27.896950186432644
              ],
              [
                86.91525761270937,
                27.89695031153203
              ],
              [
                86.91525754239822,
                27.8970405857592
              ]
            ]
          ],
          [
            [
              [
                86.91668042209227,
                27.896590081847954
              ],
              [
                86.91657881294081,
                27.896590020385226
              ],
              [
                86.916578882156,
                27.896499746149075
              ],
              [
                86.91668049122661,
                27.896499807611807
              ],
              [
                86.91668042209227,
                27.896590081847954
              ]
            ]
          ],
          [
            [
              [
                86.91861113113045,
                27.896410686848412
              ],
              [
                86.91861119866579,
                27.89632041260328
              ],
              [
                86.91881441648361,
                27.896320532447522
              ],
              [
                86.91881434911895,
                27.896410806692653
              ],
              [
                86.91861113113045,
                27.896410686848412
              ]
            ]
          ],
          [
            [
              [
                86.92074518305888,
                27.896050833288946
              ],
              [
                86.92054196573513,
                27.89605071628338
              ],
              [
                86.92054203166249,
                27.895960442038245
              ],
              [
                86.92074524881556,
                27.89596055903483
              ],
              [
                86.92074518305888,
                27.896050833288946
              ]
            ]
          ],
          [
            [
              [
                86.92399722788427,
                27.895240196118788
              ],
              [
                86.923997290946,
                27.895149921846706
              ],
              [
                86.92409889877695,
                27.895149977829714
              ],
              [
                86.92409883579606,
                27.895240252101797
              ],
              [
                86.92399722788427,
                27.895240196118788
              ]
            ]
          ],
          [
            [
              [
                86.92897631051437,
                27.894791480016657
              ],
              [
                86.92887470301582,
                27.89479142762691
              ],
              [
                86.92887476202614,
                27.89470115333686
              ],
              [
                86.92897636944386,
                27.89470120572661
              ],
              [
                86.92897631051437,
                27.894791480016657
              ]
            ]
          ],
          [
            [
              [
                86.93222820059597,
                27.89407092262434
              ],
              [
                86.9321265937532,
                27.894070872633094
              ],
              [
                86.93212665006858,
                27.89398059832508
              ],
              [
                86.93222825682153,
                27.893980648316326
              ],
              [
                86.93222820059597,
                27.89407092262434
              ]
            ]
          ],
          [
            [
              [
                86.93263440438542,
                27.894432219048834
              ],
              [
                86.93253279721027,
                27.894432169354033
              ],
              [
                86.93253290915831,
                27.894251620755966
              ],
              [
                86.93263451616279,
                27.894251670450767
              ],
              [
                86.93263440438542,
                27.894432219048834
              ]
            ]
          ],
          [
            [
              [
                86.9331424957412,
                27.894342192100915
              ],
              [
                86.93314255120318,
                27.89425191780188
              ],
              [
                86.93324415821664,
                27.894251967038542
              ],
              [
                86.93324410282652,
                27.89434224134656
              ],
              [
                86.9331424957412,
                27.894342192100915
              ]
            ]
          ],
          [
            [
              [
                86.93497174715574,
                27.893801421202927
              ],
              [
                86.935073353747,
                27.893801469101096
              ],
              [
                86.93507324602102,
                27.89398201771713
              ],
              [
                86.93497163925909,
                27.89398196982794
              ],
              [
                86.93497174715574,
                27.893801421202927
              ]
            ]
          ],
          [
            [
              [
                86.93558106604065,
                27.894343353308166
              ],
              [
                86.93558122638095,
                27.894072530384122
              ],
              [
                86.93568283322374,
                27.894072577833132
              ],
              [
                86.93568277986381,
                27.89416285214115
              ],
              [
                86.93578438679643,
                27.894162899509315
              ],
              [
                86.93578428023827,
                27.894343448125344
              ],
              [
                86.93558106604065,
                27.894343353308166
              ]
            ]
          ],
          [
            [
              [
                86.93598749443588,
                27.89434354264608
              ],
              [
                86.93598754754427,
                27.894253268338066
              ],
              [
                86.93608915456673,
                27.894253315490634
              ],
              [
                86.93608910153918,
                27.894343589789667
              ],
              [
                86.93598749443588,
                27.89434354264608
              ]
            ]
          ],
          [
            [
              [
                86.93801953364472,
                27.894525019985366
              ],
              [
                86.93791792637074,
                27.89452497426112
              ],
              [
                86.93791802938055,
                27.894344425645087
              ],
              [
                86.93801963648386,
                27.894344471369337
              ],
              [
                86.93801953364472,
                27.894525019985366
              ]
            ]
          ],
          [
            [
              [
                86.93842606490603,
                27.894344653520726
              ],
              [
                86.93832445780272,
                27.894344608092922
              ],
              [
                86.93832450897077,
                27.894254333784907
              ],
              [
                86.93842611599321,
                27.89425437921271
              ],
              [
                86.93842606490603,
                27.894344653520726
              ]
            ]
          ],
          [
            [
              [
                86.91505418228726,
                27.897221009114148
              ],
              [
                86.91515579202263,
                27.89722107169977
              ],
              [
                86.9151558624236,
                27.897130797472606
              ],
              [
                86.91525747207811,
                27.897130859986365
              ],
              [
                86.91525754239822,
                27.8970405857592
              ],
              [
                86.9153591519719,
                27.89704064819211
              ],
              [
                86.91535908173262,
                27.89713092241928
              ],
              [
                86.91546069139612,
                27.897130984780325
              ],
              [
                86.91546062124668,
                27.89722125899851
              ],
              [
                86.91556223098203,
                27.89722132128769
              ],
              [
                86.91556216092243,
                27.897311595514857
              ],
              [
                86.91566377074761,
                27.897311657723193
              ],
              [
                86.91566384072638,
                27.897221383496024
              ],
              [
                86.91586706020608,
                27.897221507688112
              ],
              [
                86.91586713001416,
                27.897131233460946
              ],
              [
                86.91627356865018,
                27.89713148095579
              ],
              [
                86.91627363812589,
                27.89704120671964
              ],
              [
                86.91657846684687,
                27.897041391556993
              ],
              [
                86.91657853606208,
                27.896951117320842
              ],
              [
                86.91647692657824,
                27.896951055786246
              ],
              [
                86.91647699587428,
                27.896860781559077
              ],
              [
                86.91627377706831,
                27.896860658265304
              ],
              [
                86.91627391601074,
                27.896680109793003
              ],
              [
                86.91668035295793,
                27.896680356084104
              ],
              [
                86.91668042209227,
                27.896590081847954
              ],
              [
                86.91678203124371,
                27.89659014322984
              ],
              [
                86.91678189314571,
                27.89677069170214
              ],
              [
                86.91688350246784,
                27.89677075301216
              ],
              [
                86.91688343350418,
                27.89686102724831
              ],
              [
                86.91698504290717,
                27.89686108847748
              ],
              [
                86.91698497403334,
                27.89695136271363
              ],
              [
                86.9172898025028,
                27.896951545969944
              ],
              [
                86.91728987113409,
                27.896861271733794
              ],
              [
                86.91769630877297,
                27.896861515024526
              ],
              [
                86.9176963770629,
                27.896771240788375
              ],
              [
                86.91789959571615,
                27.89677136198907
              ],
              [
                86.9178996638354,
                27.89668108775292
              ],
              [
                86.91779805459412,
                27.896681027188507
              ],
              [
                86.91779825921238,
                27.89641020447107
              ],
              [
                86.91810308618165,
                27.896410385921776
              ],
              [
                86.91810315413022,
                27.89632011167664
              ],
              [
                86.91830637194803,
                27.896320232275468
              ],
              [
                86.9183065075128,
                27.8961396837852
              ],
              [
                86.91840811625103,
                27.896139743972327
              ],
              [
                86.91840798084796,
                27.896320292462594
              ],
              [
                86.91850958975688,
                27.896320352568868
              ],
              [
                86.91850952214068,
                27.896410626814003
              ],
              [
                86.91861113113045,
                27.896410686848412
              ],
              [
                86.91861106360409,
                27.896500961093547
              ],
              [
                86.91891589083387,
                27.89650114074762
              ],
              [
                86.9189159581087,
                27.896410866502485
              ],
              [
                86.91901756709846,
                27.896410926240453
              ],
              [
                86.91901763429244,
                27.896320651995318
              ],
              [
                86.91911924320135,
                27.896320711652436
              ],
              [
                86.91911910898406,
                27.896501260142703
              ],
              [
                86.91922071806366,
                27.896501319727957
              ],
              [
                86.91922078508696,
                27.896411045491806
              ],
              [
                86.91932239407672,
                27.89641110499621
              ],
              [
                86.91932246101918,
                27.896320830751076
              ],
              [
                86.919525678837,
                27.896320949553274
              ],
              [
                86.91952554529345,
                27.89650149804354
              ],
              [
                86.91962715437305,
                27.896501557323365
              ],
              [
                86.91962728774591,
                27.896321008833098
              ],
              [
                86.91993211448163,
                27.896321186241384
              ],
              [
                86.91993218091204,
                27.896230911996252
              ],
              [
                86.92013539856816,
                27.89623102989115
              ],
              [
                86.92013533229945,
                27.896321304145268
              ],
              [
                86.92023694121734,
                27.896321362975932
              ],
              [
                86.92023707357511,
                27.896140814476684
              ],
              [
                86.92074511729322,
                27.896141107534078
              ],
              [
                86.92074518305888,
                27.896050833288946
              ],
              [
                86.92084679171626,
                27.896050891670455
              ],
              [
                86.92084672604044,
                27.896141165924572
              ],
              [
                86.92094833478764,
                27.896141224234217
              ],
              [
                86.9209485971496,
                27.89578012721775
              ],
              [
                86.92216789806477,
                27.895780821103425
              ],
              [
                86.92216796264466,
                27.89569054684931
              ],
              [
                86.92237117930365,
                27.89569066144739
              ],
              [
                86.92237124371286,
                27.89560038718429
              ],
              [
                86.92287928493364,
                27.895600672372446
              ],
              [
                86.92287934892065,
                27.895510398109344
              ],
              [
                86.92298095708395,
                27.895510454918803
              ],
              [
                86.92298102098111,
                27.8954201806557
              ],
              [
                86.92328584521952,
                27.895420350643903
              ],
              [
                86.9232857815649,
                27.895510624907004
              ],
              [
                86.9233873897282,
                27.895510681420017
              ],
              [
                86.92338745329299,
                27.89542040715692
              ],
              [
                86.92379388560487,
                27.895420632454393
              ],
              [
                86.92379401206071,
                27.89524008391921
              ],
              [
                86.92399722788427,
                27.895240196118788
              ],
              [
                86.92399716483152,
                27.89533047039087
              ],
              [
                86.92440359681102,
                27.895330693891715
              ],
              [
                86.92440372225177,
                27.895150145347547
              ],
              [
                86.92450533008271,
                27.895150201034113
              ],
              [
                86.92450526744318,
                27.895240475306196
              ],
              [
                86.92460687536395,
                27.895240530920894
              ],
              [
                86.92460693791364,
                27.89515025664881
              ],
              [
                86.9254198005521,
                27.895150698853495
              ],
              [
                86.92541986242807,
                27.89506042458141
              ],
              [
                86.92582629341942,
                27.89506064388712
              ],
              [
                86.9258264164976,
                27.89488009533397
              ],
              [
                86.9260296316564,
                27.894880204533177
              ],
              [
                86.9260295089106,
                27.895060753086327
              ],
              [
                86.92613111666068,
                27.895060807578133
              ],
              [
                86.92613117795274,
                27.894970533297066
              ],
              [
                86.926232785613,
                27.894970587717005
              ],
              [
                86.92623284681521,
                27.89488031343594
              ],
              [
                86.9263344544036,
                27.89488036777503
              ],
              [
                86.92633439328223,
                27.894970642056098
              ],
              [
                86.9267408239412,
                27.894970858666863
              ],
              [
                86.92674094551022,
                27.89479031010473
              ],
              [
                86.92684255299979,
                27.89479036406653
              ],
              [
                86.9268424923096,
                27.894880638347594
              ],
              [
                86.92694409988901,
                27.89488069223753
              ],
              [
                86.9269440392707,
                27.894970966518596
              ],
              [
                86.92704564693993,
                27.894971020336662
              ],
              [
                86.92704570746841,
                27.8948807460556
              ],
              [
                86.9271473150568,
                27.89488079979282
              ],
              [
                86.92714737549545,
                27.894790525511752
              ],
              [
                86.92724898299402,
                27.89479057917711
              ],
              [
                86.92724892263621,
                27.894880853458172
              ],
              [
                86.9273505302156,
                27.894880907051665
              ],
              [
                86.92735071104647,
                27.89461008419948
              ],
              [
                86.92745231837435,
                27.894610137712124
              ],
              [
                86.927452137804,
                27.894880960564304
              ],
              [
                86.9275537453834,
                27.89488101400508
              ],
              [
                86.92755380549866,
                27.894790739724016
              ],
              [
                86.92765541299721,
                27.894790793083942
              ],
              [
                86.92765529294635,
                27.894971341646073
              ],
              [
                86.92775690061559,
                27.89497139494312
              ],
              [
                86.92775684068,
                27.895061669224187
              ],
              [
                86.92785844843009,
                27.895061722440385
              ],
              [
                86.92785850828483,
                27.894971448159318
              ],
              [
                86.92836654663101,
                27.89497171311741
              ],
              [
                86.92836660607253,
                27.894881438827362
              ],
              [
                86.92897625159387,
                27.894881754306706
              ],
              [
                86.92897631051437,
                27.894791480016657
              ],
              [
                86.92907791802192,
                27.89479153233454
              ],
              [
                86.92907797686156,
                27.89470125804449
              ],
              [
                86.92917958427927,
                27.894701310290507
              ],
              [
                86.92917952552945,
                27.894791584580556
              ],
              [
                86.92938274053554,
                27.894791688839028
              ],
              [
                86.92938268194742,
                27.894881963120095
              ],
              [
                86.9295858971242,
                27.894882067082122
              ],
              [
                86.92958595554164,
                27.894791792792073
              ],
              [
                86.92968756304917,
                27.894791844660798
              ],
              [
                86.92968762138577,
                27.89470157037075
              ],
              [
                86.92978922880349,
                27.894701622167606
              ],
              [
                86.92978928705922,
                27.894611347877557
              ],
              [
                86.9300941090698,
                27.894611502801013
              ],
              [
                86.93009422506925,
                27.894430954220915
              ],
              [
                86.9302974394106,
                27.89443105712293
              ],
              [
                86.93029738157706,
                27.894521331421963
              ],
              [
                86.93039898883308,
                27.89452138276068
              ],
              [
                86.93039904657678,
                27.89443110847063
              ],
              [
                86.93060226091812,
                27.894431210932474
              ],
              [
                86.93060220334509,
                27.894521485222523
              ],
              [
                86.93080541784813,
                27.894521587378936
              ],
              [
                86.93080547525946,
                27.894431313088887
              ],
              [
                86.93090708243462,
                27.894431364059297
              ],
              [
                86.93090702510413,
                27.894521638349346
              ],
              [
                86.93100863236015,
                27.894521689247888
              ],
              [
                86.9310085751195,
                27.894611963537937
              ],
              [
                86.93131339714805,
                27.894612115766446
              ],
              [
                86.93131345413717,
                27.894521841476397
              ],
              [
                86.93151666864918,
                27.894521942581783
              ],
              [
                86.93151661183074,
                27.894612216880816
              ],
              [
                86.9316182191676,
                27.894612267321218
              ],
              [
                86.9316182759052,
                27.89452199303117
              ],
              [
                86.93182149041722,
                27.89452209369638
              ],
              [
                86.93182154698412,
                27.894431819397347
              ],
              [
                86.93212636850961,
                27.894431969829224
              ],
              [
                86.9321264811314,
                27.89425142123116
              ],
              [
                86.93202487412692,
                27.894251371159065
              ],
              [
                86.93202493052316,
                27.894161096860035
              ],
              [
                86.93222814437043,
                27.894161196923374
              ],
              [
                86.93222820059597,
                27.89407092262434
              ],
              [
                86.93232980742978,
                27.89407097254372
              ],
              [
                86.93232963900465,
                27.89434179544082
              ],
              [
                86.93222803191033,
                27.894341745521437
              ],
              [
                86.93222791945922,
                27.894522294119504
              ],
              [
                86.93232952671524,
                27.894522344038883
              ],
              [
                86.93232947057054,
                27.894612618337916
              ],
              [
                86.93243107791638,
                27.894612668176446
              ],
              [
                86.93243113397125,
                27.894522393886398
              ],
              [
                86.93263434849226,
                27.894522493347868
              ],
              [
                86.93263440438542,
                27.894432219048834
              ],
              [
                86.93304083309506,
                27.894432417082438
              ],
              [
                86.93304088864687,
                27.894342142774423
              ],
              [
                86.9331424957412,
                27.894342192100915
              ],
              [
                86.93314244027022,
                27.894432466399948
              ],
              [
                86.93324404744538,
                27.89443251564559
              ],
              [
                86.93324399206425,
                27.894522789944624
              ],
              [
                86.93344720658526,
                27.894522888211334
              ],
              [
                86.93344726180469,
                27.8944326139123
              ],
              [
                86.93354886897986,
                27.894432662933365
              ],
              [
                86.93354881385025,
                27.8945229372324
              ],
              [
                86.93365042110625,
                27.894522986172614
              ],
              [
                86.93365047615502,
                27.89443271187358
              ],
              [
                86.93385369051433,
                27.89443280953842
              ],
              [
                86.93385363563624,
                27.894523083837452
              ],
              [
                86.93415845743122,
                27.894523229777754
              ],
              [
                86.93415851205778,
                27.89443295547872
              ],
              [
                86.9345649407764,
                27.894433149011764
              ],
              [
                86.93456510364095,
                27.894162326105686
              ],
              [
                86.93466671057357,
                27.8941623743003
              ],
              [
                86.93466681897327,
                27.893981825684268
              ],
              [
                86.93476842573521,
                27.893981873807018
              ],
              [
                86.93476820925919,
                27.8943429710301
              ],
              [
                86.93466660216488,
                27.89434292290735
              ],
              [
                86.93466654795155,
                27.89443319720638
              ],
              [
                86.93486976231985,
                27.894433293380015
              ],
              [
                86.93486987038717,
                27.894252744772967
              ],
              [
                86.93497147740064,
                27.894252792743004
              ],
              [
                86.93497142344782,
                27.894343067051018
              ],
              [
                86.93558106604065,
                27.894343353308166
              ],
              [
                86.9355810125909,
                27.8944336276072
              ],
              [
                86.93578422695919,
                27.894433722433362
              ],
              [
                86.9357841736801,
                27.894523996732392
              ],
              [
                86.93588578095408,
                27.894524044028692
              ],
              [
                86.93588588734157,
                27.894343495421644
              ],
              [
                86.93598749443588,
                27.89434354264608
              ],
              [
                86.93598738821908,
                27.89452409125313
              ],
              [
                86.93619060275805,
                27.89452418547742
              ],
              [
                86.93619070864247,
                27.894343636861386
              ],
              [
                86.93649552994339,
                27.894343777636376
              ],
              [
                86.93649542457099,
                27.894524326243424
              ],
              [
                86.93659703183599,
                27.8945243730187
              ],
              [
                86.93659713704668,
                27.894343824411653
              ],
              [
                86.93669874414098,
                27.89434387110608
              ],
              [
                86.93669869162548,
                27.894434145414095
              ],
              [
                86.93680029880963,
                27.89443419203666
              ],
              [
                86.93680035124429,
                27.894343917728644
              ],
              [
                86.93690195834759,
                27.89434396427934
              ],
              [
                86.93690190600276,
                27.89443423858736
              ],
              [
                86.9370035131869,
                27.894434285057205
              ],
              [
                86.93700346092291,
                27.894524559365223
              ],
              [
                86.9371050681879,
                27.894524605763205
              ],
              [
                86.93710501600478,
                27.89461488007122
              ],
              [
                86.9372066233596,
                27.89461492639734
              ],
              [
                86.93720667546188,
                27.894524652089327
              ],
              [
                86.93730828273586,
                27.894524698334596
              ],
              [
                86.93730838676078,
                27.894344149727548
              ],
              [
                86.93720677965747,
                27.894344103473294
              ],
              [
                86.93720688385307,
                27.894163554857265
              ],
              [
                86.93730849078568,
                27.894163601102534
              ],
              [
                86.93730843877323,
                27.894253875419533
              ],
              [
                86.93771486685404,
                27.894254059663997
              ],
              [
                86.93771471182279,
                27.894524882588044
              ],
              [
                86.93761310454882,
                27.894524836639217
              ],
              [
                86.93761300102696,
                27.894705385246265
              ],
              [
                86.93781621590729,
                27.894705477072055
              ],
              [
                86.93781626750652,
                27.894615202764037
              ],
              [
                86.93801948221616,
                27.89461529429338
              ],
              [
                86.93801953364472,
                27.894525019985366
              ],
              [
                86.9381211409187,
                27.89452506563775
              ],
              [
                86.93812108957998,
                27.894615339945766
              ],
              [
                86.93832430428962,
                27.89461543101697
              ],
              [
                86.93832425312159,
                27.894705705324984
              ],
              [
                86.93842586056624,
                27.894705750752788
              ],
              [
                86.93842596274062,
                27.89452520213676
              ],
              [
                86.9385275700146,
                27.894525247492695
              ],
              [
                86.93852762101196,
                27.89443497318468
              ],
              [
                86.93842601381883,
                27.89443492782874
              ],
              [
                86.93842606490603,
                27.894344653520726
              ],
              [
                86.93903570754377,
                27.89434492449753
              ],
              [
                86.9390356063845,
                27.894525473113564
              ],
              [
                86.93923882094143,
                27.894525562846276
              ],
              [
                86.93923877052796,
                27.89461583715429
              ],
              [
                86.93964519997422,
                27.89461601571242
              ],
              [
                86.93964509982105,
                27.894796564328452
              ],
              [
                86.93974670735554,
                27.894796608777092
              ],
              [
                86.9397466573643,
                27.894886883085107
              ],
              [
                86.93954344213361,
                27.894886794097996
              ],
              [
                86.9395433919717,
                27.89497706840601
              ],
              [
                86.93964499966788,
                27.8949771129355
              ],
              [
                86.93964494959579,
                27.895067387234533
              ],
              [
                86.93944173403274,
                27.89506729810369
              ],
              [
                86.93944103058898,
                27.896331138218276
              ],
              [
                86.93903459473775,
                27.896330959049294
              ],
              [
                86.93903449356948,
                27.896511507611425
              ],
              [
                86.9388312753025,
                27.896511417582268
              ],
              [
                86.93883117379288,
                27.8966919661444
              ],
              [
                86.9386279552025,
                27.896691875809815
              ],
              [
                86.93862785335152,
                27.896872424362964
              ],
              [
                86.93842463441977,
                27.896872333731935
              ],
              [
                86.93842453223641,
                27.8970528822761
              ],
              [
                86.93781487442612,
                27.8970526085774
              ],
              [
                86.93781477122766,
                27.897233157121565
              ],
              [
                86.9382212104386,
                27.897233339892793
              ],
              [
                86.93822100538915,
                27.897594436963157
              ],
              [
                86.93801778510995,
                27.89759434573026
              ],
              [
                86.93801757938677,
                27.897955442782656
              ],
              [
                86.93781435843383,
                27.89795535124433
              ],
              [
                86.93781373920713,
                27.89903864229373
              ],
              [
                86.93801696218128,
                27.89903873384104
              ],
              [
                86.93801685930622,
                27.899219282331305
              ],
              [
                86.93822008262173,
                27.89921937357319
              ],
              [
                86.93821998008802,
                27.899399922063456
              ],
              [
                86.93862642740176,
                27.899400103648908
              ],
              [
                86.93862632554179,
                27.899580652139175
              ],
              [
                86.93903277352928,
                27.899580832529868
              ],
              [
                86.93903267234303,
                27.89976138101115
              ],
              [
                86.93913428450385,
                27.899761425926915
              ],
              [
                86.93913423399158,
                27.899851700163065
              ],
              [
                86.93903262174094,
                27.8998516552473
              ],
              [
                86.93903246996159,
                27.900122477964736
              ],
              [
                86.93893085745941,
                27.900122432977106
              ],
              [
                86.93893070541955,
                27.900393255676573
              ],
              [
                86.93882909266586,
                27.900393210608094
              ],
              [
                86.93882894037446,
                27.90066403329858
              ],
              [
                86.93893055337969,
                27.900664078367058
              ],
              [
                86.93893045202277,
                27.900844626812408
              ],
              [
                86.93882883883789,
                27.900844581752914
              ],
              [
                86.93882873731029,
                27.901025130198263
              ],
              [
                86.93862551061711,
                27.901025039845713
              ],
              [
                86.93862510313232,
                27.901747233591184
              ],
              [
                86.93842187509168,
                27.90174714294219
              ],
              [
                86.93842177288136,
                27.90192769136059
              ],
              [
                86.93750724519825,
                27.901927279707614
              ],
              [
                86.93750729706697,
                27.90183700549841
              ],
              [
                86.93699922656111,
                27.901836774182225
              ],
              [
                86.93699927884306,
                27.901746499973026
              ],
              [
                86.93659282277973,
                27.90174631356362
              ],
              [
                86.93659287540304,
                27.90165603935442
              ],
              [
                86.93638964754204,
                27.901655945705052
              ],
              [
                86.93638970033604,
                27.901565671495852
              ],
              [
                86.9360848587961,
                27.901565530460353
              ],
              [
                86.9360849118416,
                27.90147525625115
              ],
              [
                86.93578007055318,
                27.901475114532932
              ],
              [
                86.93578012385022,
                27.90138484032373
              ],
              [
                86.93557689650129,
                27.901384745479604
              ],
              [
                86.935576949969,
                27.90129447126142
              ],
              [
                86.93527210919262,
                27.901294328429287
              ],
              [
                86.93527216291187,
                27.901204054220088
              ],
              [
                86.934967322396,
                27.901203910714223
              ],
              [
                86.93496737636679,
                27.90111363649604
              ],
              [
                86.93456092268399,
                27.901113444103853
              ],
              [
                86.93456097699614,
                27.90102316988567
              ],
              [
                86.9341545236547,
                27.901022976298727
              ],
              [
                86.93415457829921,
                27.900932702089523
              ],
              [
                86.93364651205137,
                27.90093245841252
              ],
              [
                86.93364656710911,
                27.90084218420332
              ],
              [
                86.93252882231785,
                27.900841641531056
              ],
              [
                86.93252887830984,
                27.900751367321856
              ],
              [
                86.93202081292438,
                27.90075111765309
              ],
              [
                86.93202086933857,
                27.900660843443887
              ],
              [
                86.93141119139703,
                27.90066054137639
              ],
              [
                86.93141124831429,
                27.900570267158205
              ],
              [
                86.93090318378222,
                27.90057001338414
              ],
              [
                86.93090324113066,
                27.900479739165956
              ],
              [
                86.93059840267193,
                27.9004795860032
              ],
              [
                86.93059846026293,
                27.900389311785016
              ],
              [
                86.92805814195941,
                27.900388009173955
              ],
              [
                86.92805808225738,
                27.90047828339214
              ],
              [
                86.92755001820142,
                27.90047801724827
              ],
              [
                86.92754995807718,
                27.90056829145747
              ],
              [
                86.9267370549157,
                27.900567861730387
              ],
              [
                86.92673699411772,
                27.900658135939587
              ],
              [
                86.9249079605626,
                27.900657151529767
              ],
              [
                86.92490789824647,
                27.900747425729985
              ],
              [
                86.92450144601894,
                27.90074720367543
              ],
              [
                86.92450138336146,
                27.900837477875648
              ],
              [
                86.92358686511065,
                27.900836973866873
              ],
              [
                86.92358680169858,
                27.900927248058107
              ],
              [
                86.92277389593198,
                27.900926794956863
              ],
              [
                86.92277383184617,
                27.901017069148097
              ],
              [
                86.92246899193218,
                27.901016898001068
              ],
              [
                86.9224690562785,
                27.900926623809834
              ],
              [
                86.92236744305767,
                27.90092656660512
              ],
              [
                86.9223673786305,
                27.901016840796352
              ],
              [
                86.92165608551879,
                27.901016438297205
              ],
              [
                86.92165602049873,
                27.90110671248844
              ],
              [
                86.92135118035117,
                27.901106538862063
              ],
              [
                86.92135111507959,
                27.901196813053296
              ],
              [
                86.92033498040996,
                27.901196229435822
              ],
              [
                86.92033491429395,
                27.901286503618074
              ],
              [
                86.9197252330017,
                27.90128614985253
              ],
              [
                86.91972516638263,
                27.901376424034783
              ],
              [
                86.9189122573372,
                27.90137594814328
              ],
              [
                86.91891232462999,
                27.90128567397001
              ],
              [
                86.91881071108577,
                27.90128561414221
              ],
              [
                86.91881064370314,
                27.901375888324463
              ],
              [
                86.91830257555985,
                27.901375588080548
              ],
              [
                86.918302507764,
                27.901465862262796
              ],
              [
                86.9180992803342,
                27.901465741637022
              ],
              [
                86.91809921236766,
                27.901556015819274
              ],
              [
                86.91769275718468,
                27.90155577367839
              ],
              [
                86.91769268887678,
                27.901646047851656
              ],
              [
                86.9174894611236,
                27.901645926327564
              ],
              [
                86.91748939264502,
                27.90173620050083
              ],
              [
                86.91728616472116,
                27.901736078680297
              ],
              [
                86.9172860960719,
                27.90182635284458
              ],
              [
                86.91708286797736,
                27.9018262307276
              ],
              [
                86.91708279916641,
                27.901916504891886
              ],
              [
                86.91677795678204,
                27.90191632115048
              ],
              [
                86.91677788771057,
                27.902006595314763
              ],
              [
                86.91657465928365,
                27.902006472452182
              ],
              [
                86.91657459005049,
                27.90209674661647
              ],
              [
                86.91626974715408,
                27.902096561743182
              ],
              [
                86.91626967766939,
                27.902186835907468
              ],
              [
                86.91606644891009,
                27.902186712290302
              ],
              [
                86.91606637924575,
                27.902276986445603
              ],
              [
                86.91586315031576,
                27.90227686252301
              ],
              [
                86.91586308048971,
                27.902367136687296
              ],
              [
                86.91464370593964,
                27.902366386863527
              ],
              [
                86.91464398930422,
                27.902005290224352
              ],
              [
                86.9147456035042,
                27.902005353124387
              ],
              [
                86.91474595727873,
                27.901553982302964
              ],
              [
                86.91454272971419,
                27.90155385644001
              ],
              [
                86.91454280063618,
                27.90146358226674
              ],
              [
                86.91444118693026,
                27.901463519222975
              ],
              [
                86.91444132894493,
                27.901282970885422
              ],
              [
                86.9143397154097,
                27.90128290776979
              ],
              [
                86.91433978650237,
                27.901192633596523
              ],
              [
                86.91423817305696,
                27.901192570400042
              ],
              [
                86.91423845775104,
                27.90083147370697
              ],
              [
                86.91413684463802,
                27.900831410438624
              ],
              [
                86.91413691590137,
                27.900741136265353
              ],
              [
                86.91352723775321,
                27.90074075508323
              ],
              [
                86.91352730951962,
                27.900650480909963
              ],
              [
                86.91332408364391,
                27.900650353250377
              ],
              [
                86.91332415557203,
                27.90056007907711
              ],
              [
                86.91301931701447,
                27.900559887026283
              ],
              [
                86.91301917264623,
                27.900740435381802
              ],
              [
                86.91312078566942,
                27.900740499467616
              ],
              [
                86.91312071357063,
                27.900830773640884
              ],
              [
                86.91332393977872,
                27.900830901605897
              ],
              [
                86.91332336431795,
                27.901553094947126
              ],
              [
                86.91322175054017,
                27.901553031005044
              ],
              [
                86.91322167852223,
                27.90164330516933
              ],
              [
                86.91312006465462,
                27.9016432411464
              ],
              [
                86.91311999255583,
                27.901733515310685
              ],
              [
                86.91281515071046,
                27.901733322801718
              ],
              [
                86.91281522306078,
                27.901643048646417
              ],
              [
                86.91261199534352,
                27.901642919926818
              ],
              [
                86.91261221291548,
                27.901372097442948
              ],
              [
                86.9125105992994,
                27.90137203297086
              ],
              [
                86.91251067191023,
                27.901281758806576
              ],
              [
                86.91240905838397,
                27.90128169426262
              ],
              [
                86.91240942184234,
                27.90083032342323
              ],
              [
                86.91261264805043,
                27.900830452430288
              ],
              [
                86.91261272057142,
                27.900740178266002
              ],
              [
                86.91251110754821,
                27.900740113793915
              ],
              [
                86.91251118015904,
                27.900649839620648
              ],
              [
                86.91230795429232,
                27.900649710460875
              ],
              [
                86.91230788151081,
                27.900739984634143
              ],
              [
                86.9121046554824,
                27.900739855177928
              ],
              [
                86.9121049472462,
                27.900378758484855
              ],
              [
                86.91220655992805,
                27.900378823253387
              ],
              [
                86.91220677849714,
                27.900108000715615
              ],
              [
                86.9119019412152,
                27.900107806194423
              ],
              [
                86.91190201432909,
                27.900017532021156
              ],
              [
                86.9118004019886,
                27.900017467028047
              ],
              [
                86.91180047517436,
                27.899927192845794
              ],
              [
                86.91200369969361,
                27.899927322751168
              ],
              [
                86.91200391876575,
                27.89965650019543
              ],
              [
                86.91241036678916,
                27.899656759098878
              ],
              [
                86.91241029410648,
                27.89974703329011
              ],
              [
                86.9127151303823,
                27.899747226679427
              ],
              [
                86.91271520281346,
                27.899656952488193
              ],
              [
                86.91281681482155,
                27.899657016807566
              ],
              [
                86.91281688717187,
                27.899566742616333
              ],
              [
                86.91271527524462,
                27.89956667830594
              ],
              [
                86.91271549253811,
                27.899295855732237
              ],
              [
                86.91261388087136,
                27.89929579134998
              ],
              [
                86.91261395338337,
                27.899205517149763
              ],
              [
                86.91251234179748,
                27.899205452686658
              ],
              [
                86.91251241439933,
                27.899115178495425
              ],
              [
                86.91261402590438,
                27.89911524295853
              ],
              [
                86.91261409841638,
                27.899024968767293
              ],
              [
                86.91271570983159,
                27.899025033149552
              ],
              [
                86.91271578226275,
                27.898934758958315
              ],
              [
                86.91291900493148,
                27.898934887507234
              ],
              [
                86.91291907719196,
                27.898844613307016
              ],
              [
                86.91302068844547,
                27.898844677464695
              ],
              [
                86.9130207606251,
                27.898754403264476
              ],
              [
                86.91332559411615,
                27.89875459530632
              ],
              [
                86.91332573796338,
                27.8985740468969
              ],
              [
                86.91312251596838,
                27.898573918949854
              ],
              [
                86.91312258806717,
                27.898483644749636
              ],
              [
                86.91302097714603,
                27.89848358066382
              ],
              [
                86.91302104932566,
                27.898393306463607
              ],
              [
                86.91312266015697,
                27.898393370549417
              ],
              [
                86.91312287642639,
                27.898122547921815
              ],
              [
                86.91342770815673,
                27.898122739730095
              ],
              [
                86.913427779995,
                27.898032465520895
              ],
              [
                86.91352939048495,
                27.898032529310264
              ],
              [
                86.91352946223338,
                27.89794225509208
              ],
              [
                86.91363107264249,
                27.8979423188006
              ],
              [
                86.9136309293073,
                27.898122867227983
              ],
              [
                86.91383415046685,
                27.898122994420444
              ],
              [
                86.91383386446124,
                27.898484091248264
              ],
              [
                86.91424030812782,
                27.898484344752838
              ],
              [
                86.91424073510605,
                27.89794269948865
              ],
              [
                86.91444395592424,
                27.897942825782795
              ],
              [
                86.91444416890582,
                27.897672003137227
              ],
              [
                86.91474899937853,
                27.897672192016998
              ],
              [
                86.91474907012085,
                27.897581917798814
              ],
              [
                86.91485068019757,
                27.89758198060902
              ],
              [
                86.91485075085006,
                27.897491706390834
              ],
              [
                86.91495236083696,
                27.89749176912019
              ],
              [
                86.91495250198025,
                27.89731122068382
              ],
              [
                86.91505411180545,
                27.897311283341313
              ],
              [
                86.91505418228726,
                27.897221009114148
              ]
            ],
            [
              [
                86.9178996638354,
                27.89668108775292
              ],
              [
                86.91789973196363,
                27.89659081350779
              ],
              [
                86.91810295027553,
                27.896590934403058
              ],
              [
                86.91810288232696,
                27.896681208648193
              ],
              [
                86.9178996638354,
                27.89668108775292
              ]
            ],
            [
              [
                86.91932239407672,
                27.89641110499621
              ],
              [
                86.91942400307546,
                27.896411164437733
              ],
              [
                86.91942393621386,
                27.89650143868287
              ],
              [
                86.91932232713427,
                27.896501379241343
              ],
              [
                86.91932239407672,
                27.89641110499621
              ]
            ],
            [
              [
                86.91993211448163,
                27.896321186241384
              ],
              [
                86.92003372339053,
                27.89632124523375
              ],
              [
                86.92003365704097,
                27.89641151947888
              ],
              [
                86.91993204804223,
                27.8964114604955
              ],
              [
                86.91993211448163,
                27.896321186241384
              ]
            ],
            [
              [
                86.93029738157706,
                27.894521331421963
              ],
              [
                86.93029732374352,
                27.89461160571201
              ],
              [
                86.93019571640666,
                27.894611554292442
              ],
              [
                86.93019577432105,
                27.894521280002394
              ],
              [
                86.93029738157706,
                27.894521331421963
              ]
            ],
            [
              [
                86.93151661183074,
                27.894612216880816
              ],
              [
                86.93151655501231,
                27.894702491170865
              ],
              [
                86.93141494758561,
                27.894702440658595
              ],
              [
                86.9314150044849,
                27.894612166359565
              ],
              [
                86.93151661183074,
                27.894612216880816
              ]
            ],
            [
              [
                86.93699927884306,
                27.901746499973026
              ],
              [
                86.93699938341594,
                27.901565951545642
              ],
              [
                86.93720261110624,
                27.901566044296693
              ],
              [
                86.93720250687473,
                27.901746592724077
              ],
              [
                86.93699927884306,
                27.901746499973026
              ]
            ],
            [
              [
                86.91668007642055,
                27.89704145301074
              ],
              [
                86.91668014555489,
                27.896951178783574
              ],
              [
                86.91678175504771,
                27.896951240165457
              ],
              [
                86.91678168599421,
                27.897041514401607
              ],
              [
                86.91668007642055,
                27.89704145301074
              ]
            ],
            [
              [
                86.92105007454516,
                27.895960733963765
              ],
              [
                86.92105014005031,
                27.89587045970965
              ],
              [
                86.921151748546,
                27.89587051787556
              ],
              [
                86.92115168312169,
                27.895960792129678
              ],
              [
                86.92105007454516,
                27.895960733963765
              ]
            ],
            [
              [
                86.93039887333667,
                27.89470193134976
              ],
              [
                86.93039893108936,
                27.894611657050728
              ],
              [
                86.93060214576307,
                27.89461175951257
              ],
              [
                86.93060208819006,
                27.89470203380262
              ],
              [
                86.93039887333667,
                27.89470193134976
              ]
            ],
            [
              [
                86.93111006815472,
                27.89479256293573
              ],
              [
                86.93111012530554,
                27.894702288645682
              ],
              [
                86.93121173273224,
                27.894702339391515
              ],
              [
                86.93121167566225,
                27.894792613681563
              ],
              [
                86.93111006815472,
                27.89479256293573
              ]
            ],
            [
              [
                86.93283750729076,
                27.894612866811922
              ],
              [
                86.93283756301325,
                27.89452259251289
              ],
              [
                86.93314238479925,
                27.894522740698978
              ],
              [
                86.93314232932829,
                27.89461301499801
              ],
              [
                86.93283750729076,
                27.894612866811922
              ]
            ],
            [
              [
                86.93669848154546,
                27.89479524262819
              ],
              [
                86.93669853406996,
                27.894704968320177
              ],
              [
                86.93680014150563,
                27.89470501495172
              ],
              [
                86.93680008907097,
                27.894795289250755
              ],
              [
                86.93669848154546,
                27.89479524262819
              ]
            ],
            [
              [
                86.93679647044141,
                27.901024213198024
              ],
              [
                86.93679657534668,
                27.900843664761656
              ],
              [
                86.93720302803234,
                27.900843850560204
              ],
              [
                86.93720281957827,
                27.90120494743294
              ],
              [
                86.93699959255272,
                27.90120485469087
              ],
              [
                86.9369996971256,
                27.901024306254502
              ],
              [
                86.93679647044141,
                27.901024213198024
              ]
            ],
            [
              [
                86.93740615049398,
                27.90102449145118
              ],
              [
                86.93740656605465,
                27.900302297642828
              ],
              [
                86.93760979139137,
                27.90030238979201
              ],
              [
                86.93760989494017,
                27.900121841328694
              ],
              [
                86.93781311994451,
                27.90012193318143
              ],
              [
                86.93781301672809,
                27.900302481644747
              ],
              [
                86.9380162420648,
                27.900302573192057
              ],
              [
                86.93801613918974,
                27.900483121646392
              ],
              [
                86.9384225905459,
                27.900483303842698
              ],
              [
                86.93842248833559,
                27.900663852297033
              ],
              [
                86.93821926232512,
                27.900663761351595
              ],
              [
                86.93821905723975,
                27.90102485825128
              ],
              [
                86.93801583054658,
                27.90102476700041
              ],
              [
                86.9380157276715,
                27.90120531543678
              ],
              [
                86.9376092736204,
                27.901205132036733
              ],
              [
                86.93760937717819,
                27.901024583600364
              ],
              [
                86.93740615049398,
                27.90102449145118
              ]
            ],
            [
              [
                86.93740989000085,
                27.894524744508
              ],
              [
                86.93740994193246,
                27.89443447020897
              ],
              [
                86.93751154912559,
                27.894434516301526
              ],
              [
                86.93751149727483,
                27.89452479060954
              ],
              [
                86.93740989000085,
                27.894524744508
              ]
            ],
            [
              [
                86.93821977502061,
                27.899761019026023
              ],
              [
                86.93821987755432,
                27.89958047054474
              ],
              [
                86.93842310154356,
                27.89958056149018
              ],
              [
                86.93842299935122,
                27.899761109971465
              ],
              [
                86.93821977502061,
                27.899761019026023
              ]
            ],
            [
              [
                86.9386284644215,
                27.89578913295424
              ],
              [
                86.9386285662635,
                27.89560858437414
              ],
              [
                86.93903499941082,
                27.8956087647289
              ],
              [
                86.93903479707429,
                27.89596986189808
              ],
              [
                86.93883157982239,
                27.895969771868923
              ],
              [
                86.93883168133202,
                27.895789223288823
              ],
              [
                86.9386284644215,
                27.89578913295424
              ]
            ],
            [
              [
                86.93923861928761,
                27.894886660069353
              ],
              [
                86.93923872011452,
                27.89470611146231
              ],
              [
                86.93934032755918,
                27.894706156216376
              ],
              [
                86.93934022690294,
                27.894886704823424
              ],
              [
                86.93923861928761,
                27.894886660069353
              ]
            ],
            [
              [
                86.93893389778054,
                27.89470597675993
              ],
              [
                86.93913711266985,
                27.894706066636374
              ],
              [
                86.93913706217556,
                27.894796340935407
              ],
              [
                86.93903545465005,
                27.894796296037608
              ],
              [
                86.93903540406592,
                27.894886570345623
              ],
              [
                86.93893379645058,
                27.894886525366978
              ],
              [
                86.9389337457856,
                27.89497679966601
              ],
              [
                86.93883213808941,
                27.8949767546155
              ],
              [
                86.93883218883525,
                27.894886480316465
              ],
              [
                86.9387305812289,
                27.894886435185107
              ],
              [
                86.9387307337269,
                27.894615612270044
              ],
              [
                86.9388323410907,
                27.894615657401403
              ],
              [
                86.93883239183653,
                27.894525383093388
              ],
              [
                86.9390356063845,
                27.894525473113564
              ],
              [
                86.93903555580934,
                27.89461574742158
              ],
              [
                86.93893394844552,
                27.894615702451915
              ],
              [
                86.93893389778054,
                27.89470597675993
              ]
            ]
          ],
          [
            [
              [
                86.93893389778054,
                27.89470597675993
              ],
              [
                86.93893384711556,
                27.894796251058963
              ],
              [
                86.93883223959006,
                27.89479620600845
              ],
              [
                86.9388322903359,
                27.894705931700436
              ],
              [
                86.93893389778054,
                27.89470597675993
              ]
            ]
          ],
          [
            [
              [
                86.93243113397125,
                27.894522393886398
              ],
              [
                86.93232952671524,
                27.894522344038883
              ],
              [
                86.93232958285994,
                27.89443206973985
              ],
              [
                86.9324311900351,
                27.894432119587364
              ],
              [
                86.93243113397125,
                27.894522393886398
              ]
            ]
          ],
          [
            [
              [
                86.93456542937008,
                27.89362068024861
              ],
              [
                86.9345653750759,
                27.89371095456561
              ],
              [
                86.93446376857447,
                27.893710906290146
              ],
              [
                86.9344638229495,
                27.893620631982127
              ],
              [
                86.93456542937008,
                27.89362068024861
              ]
            ]
          ],
          [
            [
              [
                86.9345653750759,
                27.89371095456561
              ],
              [
                86.9346669815863,
                27.893711002760224
              ],
              [
                86.93466703579065,
                27.893620728443224
              ],
              [
                86.93456542937008,
                27.89362068024861
              ],
              [
                86.93456548365526,
                27.893530405940595
              ],
              [
                86.93476869633473,
                27.893530502248975
              ],
              [
                86.93476864221122,
                27.893620776565974
              ],
              [
                86.93487024863181,
                27.893620824607876
              ],
              [
                86.93487019459815,
                27.893711098924875
              ],
              [
                86.93497180110855,
                27.89371114689491
              ],
              [
                86.93497174715574,
                27.893801421202927
              ],
              [
                86.93487014056448,
                27.89380137323289
              ],
              [
                86.93487008653082,
                27.893891647540904
              ],
              [
                86.93466687317762,
                27.893891551376253
              ],
              [
                86.93466681897327,
                27.893981825684268
              ],
              [
                86.93456521222032,
                27.893981777489653
              ],
              [
                86.9345653750759,
                27.89371095456561
              ]
            ]
          ]
        ]
      },
      "id": "+9361+1460",
      "properties": {
        "area_m2": 1590626.307405216,
        "count": 15869,
        "image_id": "COPERNICUS/S2_SR_HARMONIZED/20211213T045211_20211213T045210_T45RVL",
        "lake_id": "imja-tsho",
        "observed_at": "2021-12-13T05:01:03.993000Z",
        "water": 1
      }
    }
  ]
}
