{
  "type": "FeatureCollection",
  "features": [
    {
      "type": "Feature",
      "geometry": {
        "geodesic": false,
        "type": "MultiPolygon",
        "coordinates": [
          [
            [
              [
                86.91464377678079,
                27.902276112708225
              ],
              [
                86.91464370593964,
                27.902366386863527
              ],
              [
                86.9145420913983,
                27.902366323891627
              ],
              [
                86.91454216232029,
                27.902276049736322
              ],
              [
                86.91464377678079,
                27.902276112708225
              ]
            ]
          ],
          [
            [
              [
                86.92084679171626,
                27.896050891670455
              ],
              [
                86.92074518305888,
                27.896050833288946
              ],
              [
                86.92074524881556,
                27.89596055903483
              ],
              [
                86.92084685739209,
                27.89596061741634
              ],
              [
                86.92084679171626,
                27.896050891670455
              ]
            ]
          ],
          [
            [
              [
                86.92084679171626,
                27.896050891670455
              ],
              [
                86.92115161769739,
                27.896051066383794
              ],
              [
                86.92115168312169,
                27.895960792129678
              ],
              [
                86.92135490027476,
                27.895960908227945
              ],
              [
                86.92135496552838,
                27.89587063397383
              ],
              [
                86.92176139951113,
                27.895870865272048
              ],
              [
                86.92176146442338,
                27.89578059100895
              ],
              [
                86.92257433171514,
                27.895781050003144
              ],
              [
                86.92257439596264,
                27.895690775749028
              ],
              [
                86.92267600428765,
                27.895690832783064
              ],
              [
                86.92267606844533,
                27.895600558519966
              ],
              [
                86.92298089317781,
                27.895600729181904
              ],
              [
                86.92298076537449,
                27.895781277708103
              ],
              [
                86.92379363269319,
                27.895781729515775
              ],
              [
                86.92379375914904,
                27.895601180989576
              ],
              [
                86.92420019214363,
                27.89560140509229
              ],
              [
                86.92420031792572,
                27.895420856557106
              ],
              [
                86.92602926341901,
                27.895421850192626
              ],
              [
                86.9260293861738,
                27.895241301639476
              ],
              [
                86.92989048721671,
                27.895243319596965
              ],
              [
                86.92989060355752,
                27.895062771034834
              ],
              [
                86.93192275878378,
                27.89506378966148
              ],
              [
                86.93192287175592,
                27.894883241081384
              ],
              [
                86.93232930213641,
                27.894883441217047
              ],
              [
                86.93232941442582,
                27.894702892627965
              ],
              [
                86.93375191844441,
                27.894703583639032
              ],
              [
                86.93375202837125,
                27.894523035040965
              ],
              [
                86.93456488648222,
                27.894523423310797
              ],
              [
                86.93456477790285,
                27.894703971917846
              ],
              [
                86.93578406713094,
                27.89470454533944
              ],
              [
                86.93578396057278,
                27.894885093937507
              ],
              [
                86.9363936062109,
                27.894885376601394
              ],
              [
                86.93639350065885,
                27.895065925199457
              ],
              [
                86.93761279398325,
                27.895066482451377
              ],
              [
                86.9376128975051,
                27.894885933853313
              ],
              [
                86.9378161127268,
                27.894886025679103
              ],
              [
                86.93781600953731,
                27.895066574277166
              ],
              [
                86.93822244065443,
                27.895066757030428
              ],
              [
                86.93822233814768,
                27.89524730562849
              ],
              [
                86.93984806534702,
                27.895248024666994
              ],
              [
                86.93984816515884,
                27.89506747606893
              ],
              [
                86.94025459629391,
                27.895067652830427
              ],
              [
                86.94025469544097,
                27.894887104223383
              ],
              [
                86.94167720208264,
                27.894887713451823
              ],
              [
                86.94167710529815,
                27.89506826205887
              ],
              [
                86.94188032087916,
                27.89506834790188
              ],
              [
                86.94188022443603,
                27.895248896508928
              ],
              [
                86.94208344034944,
                27.89524898204651
              ],
              [
                86.94208334423868,
                27.895429530644574
              ],
              [
                86.94228656049343,
                27.89542961588571
              ],
              [
                86.94228636895464,
                27.89579071308184
              ],
              [
                86.94248958588314,
                27.89579079801755
              ],
              [
                86.94248949044612,
                27.895971346615614
              ],
              [
                86.94269270770698,
                27.895971431254882
              ],
              [
                86.94269251751567,
                27.89633252842406
              ],
              [
                86.94289573545028,
                27.896332612766884
              ],
              [
                86.94289554592372,
                27.896693709918097
              ],
              [
                86.94309876454103,
                27.896693793964474
              ],
              [
                86.94309848125731,
                27.897235439659855
              ],
              [
                86.94330170088973,
                27.897235523409787
              ],
              [
                86.94330151270167,
                27.897596620516087
              ],
              [
                86.94350473299883,
                27.89759670396059
              ],
              [
                86.9435045454845,
                27.897957801057906
              ],
              [
                86.9437077664644,
                27.89795788420597
              ],
              [
                86.943707486199,
                27.898499529811517
              ],
              [
                86.94350426420402,
                27.898499446663454
              ],
              [
                86.94350417044686,
                27.89867999518067
              ],
              [
                86.94330094811949,
                27.898679911736163
              ],
              [
                86.94330104221801,
                27.898499363209964
              ],
              [
                86.94248815426502,
                27.8984990264136
              ],
              [
                86.94248805881902,
                27.898679574930814
              ],
              [
                86.94228483649165,
                27.898679489986122
              ],
              [
                86.9422847407043,
                27.89886003850334
              ],
              [
                86.94167507273406,
                27.89885978185466
              ],
              [
                86.9416749759316,
                27.899040330362894
              ],
              [
                86.94147175293948,
                27.899040244214458
              ],
              [
                86.94147165580465,
                27.89922079272269
              ],
              [
                86.94126843247118,
                27.899220706268828
              ],
              [
                86.94126833499499,
                27.89940125476808
              ],
              [
                86.94106511132912,
                27.89940116801777
              ],
              [
                86.94106501352056,
                27.899581716508038
              ],
              [
                86.94086178951335,
                27.899581629461288
              ],
              [
                86.94086169136342,
                27.899762177951555
              ],
              [
                86.94065846702382,
                27.899762090599378
              ],
              [
                86.94065836853254,
                27.89994263908066
              ],
              [
                86.94025191917963,
                27.899942463486973
              ],
              [
                86.9402518200146,
                27.900123011959273
              ],
              [
                86.94004859500127,
                27.90012292370878
              ],
              [
                86.94004769944381,
                27.90174785977982
              ],
              [
                86.93984447139418,
                27.9017477712239
              ],
              [
                86.93984437154644,
                27.901928319651283
              ],
              [
                86.9390314580184,
                27.90192796242723
              ],
              [
                86.9390313568232,
                27.90210851084563
              ],
              [
                86.93882812809981,
                27.902108420789524
              ],
              [
                86.93882807733603,
                27.902198694998724
              ],
              [
                86.93842161956589,
                27.902198513988193
              ],
              [
                86.93842167067105,
                27.902108239778993
              ],
              [
                86.93811682760396,
                27.90210810323507
              ],
              [
                86.93811687896064,
                27.90201782902587
              ],
              [
                86.93760880761036,
                27.90201759995547
              ],
              [
                86.93760885938926,
                27.90192732574627
              ],
              [
                86.93730401682522,
                27.901927187405718
              ],
              [
                86.93730406886463,
                27.901836913196515
              ],
              [
                86.93699922656111,
                27.901836774182225
              ],
              [
                86.93699927884306,
                27.901746499973026
              ],
              [
                86.93659282277973,
                27.90174631356362
              ],
              [
                86.93659287540304,
                27.90165603935442
              ],
              [
                86.93618641968106,
                27.90165585175924
              ],
              [
                86.93618647264573,
                27.901565577550038
              ],
              [
                86.93598324494644,
                27.9015654832988
              ],
              [
                86.9359832980818,
                27.901475209089597
              ],
              [
                86.93588168432198,
                27.9014751618472
              ],
              [
                86.93588173752919,
                27.901384887637995
              ],
              [
                86.93578012385022,
                27.90138484032373
              ],
              [
                86.93578023044432,
                27.901204291896345
              ],
              [
                86.93557700343673,
                27.90120419705222
              ],
              [
                86.9355771103632,
                27.90102364861585
              ],
              [
                86.93537388368799,
                27.90102355347528
              ],
              [
                86.93537399095582,
                27.90084300503891
              ],
              [
                86.93456108560245,
                27.900842621458285
              ],
              [
                86.93456097699614,
                27.90102316988567
              ],
              [
                86.9341545236547,
                27.901022976298727
              ],
              [
                86.93415457829921,
                27.900932702089523
              ],
              [
                86.93374812529913,
                27.900932507298837
              ],
              [
                86.93374818027604,
                27.900842233080656
              ],
              [
                86.93252882231785,
                27.900841641531056
              ],
              [
                86.93252887830984,
                27.900751367321856
              ],
              [
                86.93191919984727,
                27.900751067500146
              ],
              [
                86.9319192563513,
                27.90066079328196
              ],
              [
                86.9315128043843,
                27.900660591906625
              ],
              [
                86.9315128612207,
                27.90057031768844
              ],
              [
                86.93100479668864,
                27.900570064282682
              ],
              [
                86.93100485394724,
                27.900479790073483
              ],
              [
                86.93070001548853,
                27.90047963712632
              ],
              [
                86.93070007299866,
                27.90038936291712
              ],
              [
                86.92795652923266,
                27.900387956101486
              ],
              [
                86.92795646944978,
                27.90047823031069
              ],
              [
                86.92734679257724,
                27.900477910267902
              ],
              [
                86.92734673228232,
                27.900568184477102
              ],
              [
                86.92683866781313,
                27.900567915710152
              ],
              [
                86.926838607096,
                27.900658189919355
              ],
              [
                86.92663538113945,
                27.900658081887958
              ],
              [
                86.92663544202725,
                27.900567807678758
              ],
              [
                86.92653382912982,
                27.90056775355526
              ],
              [
                86.92653376816116,
                27.90065802775548
              ],
              [
                86.92521279947947,
                27.90065731727792
              ],
              [
                86.92521273741487,
                27.90074759148712
              ],
              [
                86.92429821990967,
                27.900747092194504
              ],
              [
                86.9242981570815,
                27.900837366394722
              ],
              [
                86.92358686511065,
                27.900836973866873
              ],
              [
                86.92358680169858,
                27.900927248058107
              ],
              [
                86.9228755091528,
                27.900926851856152
              ],
              [
                86.92287544514785,
                27.901017126047385
              ],
              [
                86.92155447221712,
                27.9010163804996
              ],
              [
                86.92155440711622,
                27.901106654690835
              ],
              [
                86.92114795357715,
                27.90110642274583
              ],
              [
                86.92114788814386,
                27.90119669692808
              ],
              [
                86.92023336694659,
                27.901196170659052
              ],
              [
                86.92023330074075,
                27.90128644485029
              ],
              [
                86.9197252330017,
                27.90128614985253
              ],
              [
                86.91972516638263,
                27.901376424034783
              ],
              [
                86.9189122573372,
                27.90137594814328
              ],
              [
                86.91891232462999,
                27.90128567397001
              ],
              [
                86.91881071108577,
                27.90128561414221
              ],
              [
                86.91881064370314,
                27.901375888324463
              ],
              [
                86.91830257555985,
                27.901375588080548
              ],
              [
                86.918302507764,
                27.901465862262796
              ],
              [
                86.91799766662828,
                27.901465681216337
              ],
              [
                86.91799759857192,
                27.901555955389604
              ],
              [
                86.91769275718468,
                27.90155577367839
              ],
              [
                86.91769268887678,
                27.901646047851656
              ],
              [
                86.9174894611236,
                27.901645926327564
              ],
              [
                86.91748939264502,
                27.90173620050083
              ],
              [
                86.91728616472116,
                27.901736078680297
              ],
              [
                86.9172860960719,
                27.90182635284458
              ],
              [
                86.91698125393906,
                27.901826169552333
              ],
              [
                86.91698118503828,
                27.9019164437256
              ],
              [
                86.91677795678204,
                27.90191632115048
              ],
              [
                86.91677788771057,
                27.902006595314763
              ],
              [
                86.91647304507468,
                27.90200641089962
              ],
              [
                86.91647297575169,
                27.902096685063903
              ],
              [
                86.91626974715408,
                27.902096561743182
              ],
              [
                86.91626967766939,
                27.902186835907468
              ],
              [
                86.91596483453044,
                27.902186650360445
              ],
              [
                86.91596476478524,
                27.90227692452473
              ],
              [
                86.91565992139476,
                27.90227673830397
              ],
              [
                86.91565985139803,
                27.902367012468257
              ],
              [
                86.91484693503132,
                27.902366512582752
              ],
              [
                86.91484700570179,
                27.902276238427447
              ],
              [
                86.91464377678079,
                27.902276112708225
              ],
              [
                86.91464406013638,
                27.90191501606905
              ],
              [
                86.91484728838364,
                27.90191514177929
              ],
              [
                86.9148475710655,
                27.90155404512215
              ],
              [
                86.91464434349197,
                27.90155391940293
              ],
              [
                86.91464448517425,
                27.901373371074357
              ],
              [
                86.914339644326,
                27.901373181934073
              ],
              [
                86.91433978650237,
                27.901192633596523
              ],
              [
                86.91423817305696,
                27.901192570400042
              ],
              [
                86.91423838657752,
                27.90092174788922
              ],
              [
                86.91413677338365,
                27.900921684620872
              ],
              [
                86.91413691590137,
                27.900741136265353
              ],
              [
                86.9138320768228,
                27.90074094601116
              ],
              [
                86.91383214833768,
                27.90065067183789
              ],
              [
                86.91342569658626,
                27.900650417120595
              ],
              [
                86.91342584027178,
                27.900469868765075
              ],
              [
                86.91301938920309,
                27.900469612853016
              ],
              [
                86.9130191004666,
                27.900830709555073
              ],
              [
                86.91322232667468,
                27.900830837663815
              ],
              [
                86.91322203861192,
                27.90119193433892
              ],
              [
                86.91332365205731,
                27.901191998289985
              ],
              [
                86.91332343625504,
                27.90146282078284
              ],
              [
                86.91322182255811,
                27.901462756840758
              ],
              [
                86.91322175054017,
                27.901553031005044
              ],
              [
                86.91301852297563,
                27.901552902896302
              ],
              [
                86.91301837860738,
                27.90173345121589
              ],
              [
                86.91281515071046,
                27.901733322801718
              ],
              [
                86.91281522306078,
                27.901643048646417
              ],
              [
                86.91271360920214,
                27.901642984327044
              ],
              [
                86.91271368164229,
                27.901552710162758
              ],
              [
                86.91261206786452,
                27.901552645771517
              ],
              [
                86.91261221291548,
                27.901372097442948
              ],
              [
                86.91281544012968,
                27.901372226153562
              ],
              [
                86.91281616366874,
                27.90046948444783
              ],
              [
                86.91261293813439,
                27.900469355737215
              ],
              [
                86.91261322820938,
                27.900108259026176
              ],
              [
                86.91281645307,
                27.90010838772781
              ],
              [
                86.91281703186351,
                27.899386194233863
              ],
              [
                86.91302025537665,
                27.89938632263905
              ],
              [
                86.91302039973593,
                27.899205774256583
              ],
              [
                86.91322362290771,
                27.89920590235634
              ],
              [
                86.91322391094351,
                27.898844805564455
              ],
              [
                86.91342713345054,
                27.89884493336777
              ],
              [
                86.91342742080363,
                27.898483836557915
              ],
              [
                86.91363064262794,
                27.898483964055803
              ],
              [
                86.91363078597212,
                27.898303415646385
              ],
              [
                86.91383400746405,
                27.898303542838846
              ],
              [
                86.91383415046685,
                27.898122994420444
              ],
              [
                86.91403737161743,
                27.898123121316463
              ],
              [
                86.91403751427887,
                27.89794257289806
              ],
              [
                86.91444395592424,
                27.897942825782795
              ],
              [
                86.91444409791197,
                27.89776227735541
              ],
              [
                86.91464731839778,
                27.897762403353113
              ],
              [
                86.91464746004414,
                27.897581854916744
              ],
              [
                86.91546034064892,
                27.897582355898194
              ],
              [
                86.9154604809478,
                27.897401807452844
              ],
              [
                86.916070140411,
                27.897402180038092
              ],
              [
                86.91607027969478,
                27.897221631583758
              ],
              [
                86.91688315764054,
                27.89722212416596
              ],
              [
                86.91688329556787,
                27.897041575711626
              ],
              [
                86.91769617219312,
                27.897042063496826
              ],
              [
                86.91769630877297,
                27.896861515024526
              ],
              [
                86.91871240288366,
                27.896862118009675
              ],
              [
                86.91871253778366,
                27.896681569537375
              ],
              [
                86.91972863024145,
                27.896682165030576
              ],
              [
                86.91972876345262,
                27.89650161654031
              ],
              [
                86.92033841793017,
                27.896501970233988
              ],
              [
                86.92033868232232,
                27.89614087324447
              ],
              [
                86.92084672604044,
                27.896141165924572
              ],
              [
                86.92084679171626,
                27.896050891670455
              ]
            ],
            [
              [
                86.91393561820551,
                27.898303606322788
              ],
              [
                86.91393568962158,
                27.898213332113585
              ],
              [
                86.91413891095182,
                27.89821345886587
              ],
              [
                86.91413883970642,
                27.898303733075075
              ],
              [
                86.91393561820551,
                27.898303606322788
              ]
            ]
          ]
        ]
      },
      "id": "+9359+1449",
      "properties": {
        "area_m2": 1725943.386577005,
        "count": 17219,
        "image_id": "COPERNICUS/S2_SR_HARMONIZED/20241008T044701_20241008T045601_T45RVL",
        "lake_id": "imja-tsho",
        "observed_at": "2024-10-08T05:01:02.832000Z",
        "water": 1
      }
    }
  ]
}
