{
  "type": "FeatureCollection",
  "features": [
    {
      "type": "Feature",
      "geometry": {
        "geodesic": false,
        "type": "Polygon",
        "coordinates": [
          [
            [
              86.93882812809981,
              27.902108420789524
            ],
            [
              86.93882807733603,
              27.902198694998724
            ],
            [
              86.93842161956589,
              27.902198513988193
            ],
            [
              86.93842167067105,
              27.902108239778993
            ],
            [
              86.93811682760396,
              27.90210810323507
            ],
            [
              86.93811687896064,
              27.90201782902587
            ],
            [
              86.93760880761036,
              27.90201759995547
            ],
            [
              86.93760906650483,
              27.901566228900485
            ],
            [
              86.93699938341594,
              27.901565951545642
            ],
            [
              86.93699948798883,
              27.901385403118255
            ],
            [
              86.93659303327297,
              27.901385216717834
            ],
            [
              86.93659324375722,
              27.901024119854082
            ],
            [
              86.93639001707302,
              27.901024026204713
            ],
            [
              86.93638991149403,
              27.90120457464108
            ],
            [
              86.93618668447746,
              27.90120448069527
            ],
            [
              86.93618679039781,
              27.9010239322589
            ],
            [
              86.93517065701278,
              27.90102345802928
            ],
            [
              86.9351705494036,
              27.901204006456663
            ],
            [
              86.934967322396,
              27.901203910714223
            ],
            [
              86.93496737636679,
              27.90111363649604
            ],
            [
              86.93456092268399,
              27.901113444103853
            ],
            [
              86.93456108560245,
              27.900842621458285
            ],
            [
              86.93435785927758,
              27.900842524817527
            ],
            [
              86.93435796822526,
              27.900661976372174
            ],
            [
              86.93313861227031,
              27.90066139022145
            ],
            [
              86.93313850129245,
              27.90084193865782
            ],
            [
              86.93263043547579,
              27.900841691243823
            ],
            [
              86.93263049138693,
              27.900751417025642
            ],
            [
              86.93202081292438,
              27.90075111765309
            ],
            [
              86.93202086933857,
              27.900660843443887
            ],
            [
              86.9315128043843,
              27.900660591906625
            ],
            [
              86.9315128612207,
              27.90057031768844
            ],
            [
              86.93090318378222,
              27.90057001338414
            ],
            [
              86.93090324113066,
              27.900479739165956
            ],
            [
              86.93059840267193,
              27.9004795860032
            ],
            [
              86.93059846026293,
              27.900389311785016
            ],
            [
              86.9304968475272,
              27.900389260581044
            ],
            [
              86.93049690520802,
              27.90029898636286
            ],
            [
              86.93029367990724,
              27.90029888373034
            ],
            [
              86.93029379560126,
              27.90011833529397
            ],
            [
              86.93009057063284,
              27.90011823235602
            ],
            [
              86.93009068666824,
              27.899937683919653
            ],
            [
              86.92948101279606,
              27.89993737331816
            ],
            [
              86.92948112983755,
              27.89975682487281
            ],
            [
              86.92805855987365,
              27.89975608966463
            ],
            [
              86.92805844046958,
              27.899936638101
            ],
            [
              86.9278552158605,
              27.89993653187522
            ],
            [
              86.92785509612406,
              27.900117080311585
            ],
            [
              86.92765187117361,
              27.900116973780378
            ],
            [
              86.92765175109581,
              27.90029752220776
            ],
            [
              86.92744852580401,
              27.900297415371124
            ],
            [
              86.92744840538484,
              27.900477963789527
            ],
            [
              86.92724517976964,
              27.90047785666543
            ],
            [
              86.92724511939387,
              27.90056813087463
            ],
            [
              86.92683866781313,
              27.900567915710152
            ],
            [
              86.926838607096,
              27.900658189919355
            ],
            [
              86.92531441245775,
              27.90065737238058
            ],
            [
              86.925314350474,
              27.900747646580797
            ],
            [
              86.92511112435574,
              27.900747536303612
            ],
            [
              86.92511118651018,
              27.900657262103394
            ],
            [
              86.9249079605626,
              27.900657151529767
            ],
            [
              86.92490789824647,
              27.900747425729985
            ],
            [
              86.92460305907807,
              27.900747259299113
            ],
            [
              86.92460299650143,
              27.90083753349933
            ],
            [
              86.92409493080154,
              27.90083725461735
            ],
            [
              86.92409486781168,
              27.90092752881757
            ],
            [
              86.92348518847776,
              27.90092719167984
            ],
            [
              86.92348512497584,
              27.90101746588006
            ],
            [
              86.92318028506185,
              27.90101729630508
            ],
            [
              86.92318034881528,
              27.900927022104867
            ],
            [
              86.92307873559446,
              27.900926965430155
            ],
            [
              86.92307867176018,
              27.90101723962139
            ],
            [
              86.92165608551879,
              27.901016438297205
            ],
            [
              86.92165602049873,
              27.90110671248844
            ],
            [
              86.92124956695967,
              27.90110648083988
            ],
            [
              86.92124950160724,
              27.901196755031112
            ],
            [
              86.92033498040996,
              27.901196229435822
            ],
            [
              86.92033491429395,
              27.901286503618074
            ],
            [
              86.9197252330017,
              27.90128614985253
            ],
            [
              86.91972516638263,
              27.901376424034783
            ],
            [
              86.9189122573372,
              27.90137594814328
            ],
            [
              86.91891232462999,
              27.90128567397001
            ],
            [
              86.91881071108577,
              27.90128561414221
            ],
            [
              86.91881064370314,
              27.901375888324463
            ],
            [
              86.91830257555985,
              27.901375588080548
            ],
            [
              86.918302507764,
              27.901465862262796
            ],
            [
              86.9180992803342,
              27.901465741637022
            ],
            [
              86.91809921236766,
              27.901556015819274
            ],
            [
              86.91769275718468,
              27.90155577367839
            ],
            [
              86.91769268887678,
              27.901646047851656
            ],
            [
              86.9174894611236,
              27.901645926327564
            ],
            [
              86.91748939264502,
              27.90173620050083
            ],
            [
              86.91728616472116,
              27.901736078680297
            ],
            [
              86.9172860960719,
              27.90182635284458
            ],
            [
              86.91708286797736,
              27.9018262307276
            ],
            [
              86.91708279916641,
              27.901916504891886
            ],
            [
              86.91677795678204,
              27.90191632115048
            ],
            [
              86.91677788771057,
              27.902006595314763
            ],
            [
              86.91657465928365,
              27.902006472452182
            ],
            [
              86.91657459005049,
              27.90209674661647
            ],
            [
              86.91626974715408,
              27.902096561743182
            ],
            [
              86.91626967766939,
              27.902186835907468
            ],
            [
              86.91606644891009,
              27.902186712290302
            ],
            [
              86.91606637924575,
              27.902276986445603
            ],
            [
              86.91576153585527,
              27.902276800449425
            ],
            [
              86.91576146593938,
              27.902367074613707
            ],
            [
              86.9145420913983,
              27.902366323891627
            ],
            [
              86.91454237509525,
              27.902005227252452
            ],
            [
              86.91464398930422,
              27.902005290224352
            ],
            [
              86.91464413097752,
              27.901824741904765
            ],
            [
              86.91474574501581,
              27.90182480479582
            ],
            [
              86.91474588652741,
              27.90164425646725
            ],
            [
              86.91464427265981,
              27.901644193576196
            ],
            [
              86.91464434349197,
              27.90155391940293
            ],
            [
              86.91454272971419,
              27.90155385644001
            ],
            [
              86.91454280063618,
              27.90146358226674
            ],
            [
              86.91444118693026,
              27.901463519222975
            ],
            [
              86.91444132894493,
              27.901282970885422
            ],
            [
              86.9143397154097,
              27.90128290776979
            ],
            [
              86.91433985759504,
              27.901102359423252
            ],
            [
              86.91423824423049,
              27.901102296235756
            ],
            [
              86.91423845775104,
              27.90083147370697
            ],
            [
              86.91413684463802,
              27.900831410438624
            ],
            [
              86.91413691590137,
              27.900741136265353
            ],
            [
              86.91352723775321,
              27.90074075508323
            ],
            [
              86.91352730951962,
              27.900650480909963
            ],
            [
              86.91332408364391,
              27.900650353250377
            ],
            [
              86.91332415557203,
              27.90056007907711
            ],
            [
              86.91301931701447,
              27.900559887026283
            ],
            [
              86.91301917264623,
              27.900740435381802
            ],
            [
              86.91322239869261,
              27.900740563490547
            ],
            [
              86.91322232667468,
              27.900830837663815
            ],
            [
              86.91332393977872,
              27.900830901605897
            ],
            [
              86.91332329238087,
              27.90164336911141
            ],
            [
              86.91312006465462,
              27.9016432411464
            ],
            [
              86.91311999255583,
              27.901733515310685
            ],
            [
              86.91281515071046,
              27.901733322801718
            ],
            [
              86.91281522306078,
              27.901643048646417
            ],
            [
              86.91271360920214,
              27.901642984327044
            ],
            [
              86.91271368164229,
              27.901552710162758
            ],
            [
              86.91261206786452,
              27.901552645771517
            ],
            [
              86.91261221291548,
              27.901372097442948
            ],
            [
              86.9125105992994,
              27.90137203297086
            ],
            [
              86.91251067191023,
              27.901281758806576
            ],
            [
              86.91240905838397,
              27.90128169426262
            ],
            [
              86.91240913107565,
              27.901191420098336
            ],
            [
              86.91230751763922,
              27.901191355482517
            ],
            [
              86.91230766319325,
              27.901010807144964
            ],
            [
              86.91240927645899,
              27.901010871769767
            ],
            [
              86.91240942184234,
              27.90083032342323
            ],
            [
              86.91251103494638,
              27.900830387967183
            ],
            [
              86.91251118015904,
              27.900649839620648
            ],
            [
              86.91240956722568,
              27.900649775076694
            ],
            [
              86.912409494534,
              27.90074004924996
            ],
            [
              86.9121046554824,
              27.900739855177928
            ],
            [
              86.91210487430301,
              27.900469032658123
            ],
            [
              86.91220648707467,
              27.900469097426654
            ],
            [
              86.9122066327904,
              27.900288549071135
            ],
            [
              86.91261308317638,
              27.900288807381695
            ],
            [
              86.91261337325136,
              27.89992771066167
            ],
            [
              86.91281659777061,
              27.899927839363304
            ],
            [
              86.91281703186351,
              27.899386194233863
            ],
            [
              86.91271542010695,
              27.89938612992347
            ],
            [
              86.91271549253811,
              27.899295855732237
            ],
            [
              86.91261388087136,
              27.89929579134998
            ],
            [
              86.91261395338337,
              27.899205517149763
            ],
            [
              86.91251234179748,
              27.899205452686658
            ],
            [
              86.91251241439933,
              27.899115178495425
            ],
            [
              86.91261402590438,
              27.89911524295853
            ],
            [
              86.91261409841638,
              27.899024968767293
            ],
            [
              86.91271570983159,
              27.899025033149552
            ],
            [
              86.91271578226275,
              27.898934758958315
            ],
            [
              86.91281739359711,
              27.898934823268707
            ],
            [
              86.91281732125579,
              27.89902509745994
            ],
            [
              86.91342698976501,
              27.89902548175922
            ],
            [
              86.91342713345054,
              27.89884493336777
            ],
            [
              86.91363035594858,
              27.898845060865657
            ],
            [
              86.91363078597212,
              27.898303415646385
            ],
            [
              86.91383400746405,
              27.898303542838846
            ],
            [
              86.91383386446124,
              27.898484091248264
            ],
            [
              86.91424030812782,
              27.898484344752838
            ],
            [
              86.91424073510605,
              27.89794269948865
            ],
            [
              86.91444395592424,
              27.897942825782795
            ],
            [
              86.91444409791197,
              27.89776227735541
            ],
            [
              86.9148505388836,
              27.897762529045387
            ],
            [
              86.91485068019757,
              27.89758198060902
            ],
            [
              86.91546034064892,
              27.897582355898194
            ],
            [
              86.9154604809478,
              27.897401807452844
            ],
            [
              86.916070140411,
              27.897402180038092
            ],
            [
              86.91607027969478,
              27.897221631583758
            ],
            [
              86.91728959661792,
              27.89722236866043
            ],
            [
              86.9172897338805,
              27.897041820206095
            ],
            [
              86.91789939134942,
              27.89704218468854
            ],
            [
              86.9178995275969,
              27.89686163622522
            ],
            [
              86.91932205937343,
              27.896862476212895
            ],
            [
              86.91932219325834,
              27.89668192773161
            ],
            [
              86.919931848742,
              27.896682283221917
            ],
            [
              86.91993198161181,
              27.896501734740635
            ],
            [
              86.92033841793017,
              27.896501970233988
            ],
            [
              86.92033855012625,
              27.89632142174372
            ],
            [
              86.92074498577986,
              27.89632165604231
            ],
            [
              86.92074511729322,
              27.896141107534078
            ],
            [
              86.92135476976752,
              27.896141456736178
            ],
            [
              86.92135490027476,
              27.895960908227945
            ],
            [
              86.92237098607603,
              27.895961484227705
            ],
            [
              86.92237111489445,
              27.89578093571049
            ],
            [
              86.92277754854481,
              27.895781164008337
            ],
            [
              86.92277767668949,
              27.895600615482138
            ],
            [
              86.92399697564633,
              27.895601293189152
            ],
            [
              86.9239971017698,
              27.895420744653972
            ],
            [
              86.92409870985226,
              27.89542080064596
            ],
            [
              86.92409877282415,
              27.89533052637388
            ],
            [
              86.92440359681102,
              27.895330693891715
            ],
            [
              86.92440353409066,
              27.895420968154813
            ],
            [
              86.92460675025558,
              27.89542107946506
            ],
            [
              86.92460687536395,
              27.895240530920894
            ],
            [
              86.9260293861738,
              27.895241301639476
            ],
            [
              86.9260295089106,
              27.895060753086327
            ],
            [
              86.92643593991095,
              27.895060970595406
            ],
            [
              86.92643581783888,
              27.895241519148556
            ],
            [
              86.9266390336804,
              27.89524162745843
            ],
            [
              86.92663891194071,
              27.895422176002594
            ],
            [
              86.92623247959291,
              27.895421959095387
            ],
            [
              86.92623235718847,
              27.895602507639552
            ],
            [
              86.92602914067321,
              27.895602398727807
            ],
            [
              86.92602840416247,
              27.896685689885004
            ],
            [
              86.92704449683586,
              27.896686231443358
            ],
            [
              86.9270446179108,
              27.89650568292614
            ],
            [
              86.9272478361059,
              27.8965057903377
            ],
            [
              86.92724771538131,
              27.896686338854916
            ],
            [
              86.92765415245425,
              27.8966865527887
            ],
            [
              86.92765427251409,
              27.896506004262502
            ],
            [
              86.9278574907182,
              27.896506110775743
            ],
            [
              86.92785773015515,
              27.896145013723345
            ],
            [
              86.92806094768551,
              27.896145119931163
            ],
            [
              86.92806106706263,
              27.89596457139598
            ],
            [
              86.9282642842606,
              27.89596467730735
            ],
            [
              86.92826440329637,
              27.895784128772167
            ],
            [
              86.928467620153,
              27.895784234378112
            ],
            [
              86.92846750144962,
              27.895964782922277
            ],
            [
              86.9286707186476,
              27.895964888231777
            ],
            [
              86.92867060028557,
              27.896145436775946
            ],
            [
              86.92887381781594,
              27.896145541789
            ],
            [
              86.92887393584559,
              27.895964993244835
            ],
            [
              86.92907715304356,
              27.895965097961447
            ],
            [
              86.92907703535528,
              27.896145646505612
            ],
            [
              86.92948347042498,
              27.89614585503154
            ],
            [
              86.92948335341043,
              27.896326403566725
            ],
            [
              86.92968657128216,
              27.89632650738502
            ],
            [
              86.92968645459999,
              27.896507055920203
            ],
            [
              86.9302961092482,
              27.896507365569484
            ],
            [
              86.93029622492426,
              27.8963268170343
            ],
            [
              86.93009300704357,
              27.8963267141233
            ],
            [
              86.93009323906044,
              27.895965617034967
            ],
            [
              86.93029645625842,
              27.89596571995495
            ],
            [
              86.93029657193448,
              27.8957851714018
            ],
            [
              86.93049978880008,
              27.895785274016358
            ],
            [
              86.93050013478621,
              27.895243628338942
            ],
            [
              86.9296872713662,
              27.895243216084094
            ],
            [
              86.9296873880394,
              27.895062667521962
            ],
            [
              86.93171954325668,
              27.895063689148984
            ],
            [
              86.93171965656117,
              27.894883140568886
            ],
            [
              86.93232930213641,
              27.894883441217047
            ],
            [
              86.93232918984701,
              27.895063989797144
            ],
            [
              86.93253240537412,
              27.895064089411328
            ],
            [
              86.93253251733115,
              27.894883540831227
            ],
            [
              86.9327357325259,
              27.894883640148965
            ],
            [
              86.93273562091022,
              27.895064188729062
            ],
            [
              86.93293883644633,
              27.895064287741373
            ],
            [
              86.93293861387973,
              27.89542538490157
            ],
            [
              86.93253218146904,
              27.89542518656254
            ],
            [
              86.93253229342608,
              27.895244637991425
            ],
            [
              86.9323290775576,
              27.89524453836826
            ],
            [
              86.93232885296979,
              27.89560563551049
            ],
            [
              86.93395458533445,
              27.895606424069612
            ],
            [
              86.93395447573998,
              27.895786972640728
            ],
            [
              86.93415769263254,
              27.895787069865392
            ],
            [
              86.93415780188565,
              27.895606521294276
            ],
            [
              86.93517388465959,
              27.89560700290805
            ],
            [
              86.93517420737038,
              27.89506535715877
            ],
            [
              86.9345645607441,
              27.89506506909601
            ],
            [
              86.93456488648222,
              27.894523423310797
            ],
            [
              86.93537774461115,
              27.89452380679261
            ],
            [
              86.93537763737926,
              27.894704355390672
            ],
            [
              86.9365969266253,
              27.894704921625745
            ],
            [
              86.9365968214236,
              27.894885470223812
            ],
            [
              86.93740968228342,
              27.894885841722097
            ],
            [
              86.93740957842918,
              27.895066390320164
            ],
            [
              86.93801922510036,
              27.89506666580651
            ],
            [
              86.93801912225226,
              27.895247214404574
            ],
            [
              86.93984806534702,
              27.895248024666994
            ],
            [
              86.93984816515884,
              27.89506747606893
            ],
            [
              86.94025459629391,
              27.895067652830427
            ],
            [
              86.94025469544097,
              27.894887104223383
            ],
            [
              86.94066112590232,
              27.894887279781138
            ],
            [
              86.94066117513898,
              27.894797005482104
            ],
            [
              86.94096599773347,
              27.89479713636664
            ],
            [
              86.94096594875731,
              27.894887410674656
            ],
            [
              86.94147398684298,
              27.89488762731237
            ],
            [
              86.94147388972611,
              27.8950681759284
            ],
            [
              86.94188032087916,
              27.89506834790188
            ],
            [
              86.94188022443603,
              27.895248896508928
            ],
            [
              86.94208344034944,
              27.89524898204651
            ],
            [
              86.94208334423868,
              27.895429530644574
            ],
            [
              86.94259138487556,
              27.895429743176987
            ],
            [
              86.94259128960923,
              27.895610291784035
            ],
            [
              86.94269289790728,
              27.895610334058752
            ],
            [
              86.94269280281162,
              27.895790882656815
            ],
            [
              86.94289601974012,
              27.895790966999638
            ],
            [
              86.94289587759968,
              27.896061789887753
            ],
            [
              86.94299748631097,
              27.896061831946874
            ],
            [
              86.94299743901466,
              27.896152106236922
            ],
            [
              86.9434038742281,
              27.896152273727807
            ],
            [
              86.94340382726418,
              27.896242548017856
            ],
            [
              86.94350543615512,
              27.896242589699686
            ],
            [
              86.94350520177568,
              27.896693961149932
            ],
            [
              86.94340359247151,
              27.896693919468103
            ],
            [
              86.94340354550759,
              27.89678419375815
            ],
            [
              86.94350515490159,
              27.89678423543998
            ],
            [
              86.94350496739624,
              27.897145332573228
            ],
            [
              86.94360657712262,
              27.897145374183193
            ],
            [
              86.94360653032938,
              27.89723564846426
            ],
            [
              86.94350492051316,
              27.897235606854295
            ],
            [
              86.9435045454845,
              27.897957801057906
            ],
            [
              86.9433013245136,
              27.897957717604417
            ],
            [
              86.94330113631655,
              27.898318814683766
            ],
            [
              86.94309791466291,
              27.89831873093383
            ],
            [
              86.94309782023201,
              27.898499279460033
            ],
            [
              86.94289459823702,
              27.898499195413653
            ],
            [
              86.94289450346476,
              27.89867974393087
            ],
            [
              86.94248805881902,
              27.898679574930814
            ],
            [
              86.94248796337301,
              27.89886012344803
            ],
            [
              86.94187829539379,
              27.898859867706655
            ],
            [
              86.9418781989327,
              27.899040416214888
            ],
            [
              86.94147175293948,
              27.899040244214458
            ],
            [
              86.94147165580465,
              27.89922079272269
            ],
            [
              86.94126843247118,
              27.899220706268828
            ],
            [
              86.941268091309,
              27.899852625993745
            ],
            [
              86.94116647904937,
              27.899852582659015
            ],
            [
              86.94116643022593,
              27.899942856895166
            ],
            [
              86.9408615932135,
              27.89994272643284
            ],
            [
              86.94086149505458,
              27.900123274914122
            ],
            [
              86.94045504502793,
              27.900123099913323
            ],
            [
              86.94045494620426,
              27.900303648385623
            ],
            [
              86.94025172084957,
              27.900303560431574
            ],
            [
              86.94025162168455,
              27.90048410889489
            ],
            [
              86.9400483959975,
              27.900484020644395
            ],
            [
              86.9400482964911,
              27.900664569107715
            ],
            [
              86.93984507047166,
              27.900664480551793
            ],
            [
              86.93984477093741,
              27.901206125905812
            ],
            [
              86.93964154390288,
              27.90120603705345
            ],
            [
              86.93964144372276,
              27.9013865854988
            ],
            [
              86.93943821634686,
              27.901386496341008
            ],
            [
              86.93943791478242,
              27.901928141632144
            ],
            [
              86.93923468640041,
              27.901928052177908
            ],
            [
              86.93923458553758,
              27.902108600605295
            ],
            [
              86.93882812809981,
              27.902108420789524
            ]
          ],
          [
            [
              86.93882812809981,
              27.902108420789524
            ],
            [
              86.93862489938543,
              27.90210833043697
            ],
            [
              86.93862500126336,
              27.90192778201857
            ],
            [
              86.9388282296364,
              27.90192787237112
            ],
            [
              86.93882812809981,
              27.902108420789524
            ]
          ],
          [
            [
              86.93212248233482,
              27.900660893524964
            ],
            [
              86.93212259499253,
              27.900480345088596
            ],
            [
              86.93232582064367,
              27.900480445026172
            ],
            [
              86.93232570831833,
              27.90066099346254
            ],
            [
              86.93212248233482,
              27.900660893524964
            ]
          ],
          [
            [
              86.92623076574209,
              27.89794963826455
            ],
            [
              86.92623088817348,
              27.897769089783267
            ],
            [
              86.92643410873117,
              27.897769198407552
            ],
            [
              86.92643423081222,
              27.897588649917285
            ],
            [
              86.92684067125384,
              27.89758886624957
            ],
            [
              86.92684054984653,
              27.897769414739837
            ],
            [
              86.92704377040421,
              27.897769522456823
            ],
            [
              86.92704352825434,
              27.89813061941939
            ],
            [
              86.92724674948578,
              27.89813072683993
            ],
            [
              86.9272466287432,
              27.89831127531223
            ],
            [
              86.92704340717043,
              27.89831116789169
            ],
            [
              86.9270432860955,
              27.898491716363992
            ],
            [
              86.92684006418136,
              27.898491608647007
            ],
            [
              86.92684018559765,
              27.898311060174706
            ],
            [
              86.92663696403386,
              27.898310952152293
            ],
            [
              86.92663708578253,
              27.898130403679993
            ],
            [
              86.92643386455111,
              27.898130295361135
            ],
            [
              86.92643398664114,
              27.897949746888834
            ],
            [
              86.92623076574209,
              27.89794963826455
            ]
          ],
          [
            [
              86.92623076574209,
              27.89794963826455
            ],
            [
              86.9262305208883,
              27.898310735218136
            ],
            [
              86.92582407776071,
              27.898310517080233
            ],
            [
              86.92582420085685,
              27.898129968607932
            ],
            [
              86.92562097963442,
              27.89812985909432
            ],
            [
              86.92562134994692,
              27.89758821365945
            ],
            [
              86.92602779037956,
              27.897588432381255
            ],
            [
              86.92602754485203,
              27.897949529352804
            ],
            [
              86.92623076574209,
              27.89794963826455
            ]
          ]
        ]
      },
      "id": "+9367+1449",
      "properties": {
        "area_m2": 1636132.9534022089,
        "count": 16323,
        "image_id": "COPERNICUS/S2_SR_HARMONIZED/20241018T044811_20241018T045820_T45RVL",
        "lake_id": "imja-tsho",
        "observed_at": "2024-10-18T05:01:04.448000Z",
        "water": 1
      }
    }
  ]
}
