{
  "type": "FeatureCollection",
  "features": [
    {
      "type": "Feature",
      "geometry": {
        "geodesic": false,
        "type": "MultiPolygon",
        "coordinates": [
          [
            [
              [
                86.91180047517436,
                27.899927192845794
              ],
              [
                86.91169886292371,
                27.899927127780817
              ],
              [
                86.91169893619929,
                27.89983685359857
              ],
              [
                86.91180054836909,
                27.899836918663542
              ],
              [
                86.91180047517436,
                27.899927192845794
              ]
            ]
          ],
          [
            [
              [
                86.92277774075734,
                27.895510341219037
              ],
              [
                86.92267613260302,
                27.895510284256865
              ],
              [
                86.92267626090938,
                27.895329735730666
              ],
              [
                86.922777868902,
                27.895329792692838
              ],
              [
                86.92277774075734,
                27.895510341219037
              ]
            ]
          ],
          [
            [
              [
                86.91180047517436,
                27.899927192845794
              ],
              [
                86.91190208743399,
                27.899927257838904
              ],
              [
                86.91190216054787,
                27.89983698365665
              ],
              [
                86.91200377271765,
                27.899837048568916
              ],
              [
                86.91200391876575,
                27.89965650019543
              ],
              [
                86.91210553077386,
                27.899656565035826
              ],
              [
                86.91210560370807,
                27.899566290853574
              ],
              [
                86.91220721563532,
                27.899566355613125
              ],
              [
                86.9122070699196,
                27.89974690398661
              ],
              [
                86.91241029410648,
                27.89974703329011
              ],
              [
                86.9124101487321,
                27.899927581654616
              ],
              [
                86.91281659777061,
                27.899927839363304
              ],
              [
                86.91281674247125,
                27.89974729098982
              ],
              [
                86.91301996665813,
                27.899747419395005
              ],
              [
                86.91302011101739,
                27.89956687102152
              ],
              [
                86.91281688717187,
                27.899566742616333
              ],
              [
                86.91281717655515,
                27.899205645851396
              ],
              [
                86.91251234179748,
                27.899205452686658
              ],
              [
                86.91251241439933,
                27.899115178495425
              ],
              [
                86.91261402590438,
                27.89911524295853
              ],
              [
                86.91261417093737,
                27.898934694567078
              ],
              [
                86.91291900493148,
                27.898934887507234
              ],
              [
                86.91291907719196,
                27.898844613307016
              ],
              [
                86.91342713345054,
                27.89884493336777
              ],
              [
                86.91342727712708,
                27.898664384967333
              ],
              [
                86.91363049929275,
                27.89866451246522
              ],
              [
                86.91363078597212,
                27.898303415646385
              ],
              [
                86.9142404504479,
                27.898303796334435
              ],
              [
                86.91424059277698,
                27.898123247916033
              ],
              [
                86.91403737161743,
                27.898123121316463
              ],
              [
                86.91403751427887,
                27.89794257289806
              ],
              [
                86.91444395592424,
                27.897942825782795
              ],
              [
                86.91444409791197,
                27.89776227735541
              ],
              [
                86.9148505388836,
                27.897762529045387
              ],
              [
                86.91485068019757,
                27.89758198060902
              ],
              [
                86.91505390034203,
                27.897582106004847
              ],
              [
                86.91505404131465,
                27.897401557559498
              ],
              [
                86.91586692058992,
                27.897402056142447
              ],
              [
                86.91586706020608,
                27.897221507688112
              ],
              [
                86.91688315764054,
                27.89722212416596
              ],
              [
                86.91688329556787,
                27.897041575711626
              ],
              [
                86.9174929530368,
                27.89704194199968
              ],
              [
                86.91749308995801,
                27.89686139352738
              ],
              [
                86.9178995275969,
                27.89686163622522
              ],
              [
                86.9178996638354,
                27.89668108775292
              ],
              [
                86.91891575627523,
                27.896681689228902
              ],
              [
                86.91891582355005,
                27.896591414992752
              ],
              [
                86.91911904187093,
                27.896591534387838
              ],
              [
                86.91911897476679,
                27.89668180863297
              ],
              [
                86.91932219325834,
                27.89668192773161
              ],
              [
                86.91932232713427,
                27.896501379241343
              ],
              [
                86.91993198161181,
                27.896501734740635
              ],
              [
                86.91993204804223,
                27.8964114604955
              ],
              [
                86.92013526603971,
                27.8964115783904
              ],
              [
                86.92013533229945,
                27.896321304145268
              ],
              [
                86.92033855012625,
                27.89632142174372
              ],
              [
                86.92033861622429,
                27.896231147489605
              ],
              [
                86.92074505153654,
                27.896231381788194
              ],
              [
                86.92074511729322,
                27.896141107534078
              ],
              [
                86.92094833478764,
                27.896141224234217
              ],
              [
                86.92094840038263,
                27.8960509499801
              ],
              [
                86.92115161769739,
                27.896051066383794
              ],
              [
                86.92115168312169,
                27.895960792129678
              ],
              [
                86.92125329169822,
                27.895960850214745
              ],
              [
                86.92125348771063,
                27.89569002744341
              ],
              [
                86.92135509603563,
                27.895690085456614
              ],
              [
                86.92135496552838,
                27.89587063397383
              ],
              [
                86.92145657402408,
                27.895870691906183
              ],
              [
                86.92145663919685,
                27.895780417652066
              ],
              [
                86.92216789806477,
                27.895780821103425
              ],
              [
                86.92216796264466,
                27.89569054684931
              ],
              [
                86.92247278762866,
                27.895690718634143
              ],
              [
                86.92247285195701,
                27.89560044437104
              ],
              [
                86.92277767668949,
                27.895600615482138
              ],
              [
                86.92277774075734,
                27.895510341219037
              ],
              [
                86.92287934892065,
                27.895510398109344
              ],
              [
                86.92287941290765,
                27.895420123846243
              ],
              [
                86.92298102098111,
                27.8954201806557
              ],
              [
                86.92298095708395,
                27.895510454918803
              ],
              [
                86.92308256524726,
                27.895510511656397
              ],
              [
                86.92308262906359,
                27.895420237393296
              ],
              [
                86.92318423713705,
                27.89542029405004
              ],
              [
                86.9231841734016,
                27.895510568322123
              ],
              [
                86.92359060605483,
                27.89551079422147
              ],
              [
                86.92359066944893,
                27.895420519949386
              ],
              [
                86.9239971017698,
                27.895420744653972
              ],
              [
                86.92399716483152,
                27.89533047039087
              ],
              [
                86.92440359681102,
                27.895330693891715
              ],
              [
                86.9244036595314,
                27.895240419619633
              ],
              [
                86.92481009118751,
                27.895240641925714
              ],
              [
                86.92481015356651,
                27.89515036764465
              ],
              [
                86.9254198005521,
                27.895150698853495
              ],
              [
                86.92541986242807,
                27.89506042458141
              ],
              [
                86.92582629341942,
                27.89506064388712
              ],
              [
                86.92582635496301,
                27.894970369606057
              ],
              [
                86.9260295702835,
                27.894970478814244
              ],
              [
                86.9260295089106,
                27.895060753086327
              ],
              [
                86.92643593991095,
                27.895060970595406
              ],
              [
                86.92643581783888,
                27.895241519148556
              ],
              [
                86.92846797625415,
                27.895242588727648
              ],
              [
                86.92846809495754,
                27.895062040165516
              ],
              [
                86.92887452597584,
                27.895062250479093
              ],
              [
                86.92887464400549,
                27.894881701907977
              ],
              [
                86.92907785918226,
                27.89488180662459
              ],
              [
                86.92907774149397,
                27.89506235518672
              ],
              [
                86.9296873880394,
                27.895062667521962
              ],
              [
                86.92968750471259,
                27.894882118950846
              ],
              [
                86.92989071988936,
                27.894882222463718
              ],
              [
                86.92989077806426,
                27.89479194817367
              ],
              [
                86.92999238556281,
                27.894791999817812
              ],
              [
                86.92999244364788,
                27.894701725527764
              ],
              [
                86.93019565849228,
                27.894701828582495
              ],
              [
                86.9301955426635,
                27.894882377162592
              ],
              [
                86.93131322618068,
                27.894882938645576
              ],
              [
                86.93131334015892,
                27.894702390056494
              ],
              [
                86.93171976986568,
                27.89470259198879
              ],
              [
                86.93171982651344,
                27.894612317689756
              ],
              [
                86.93232947057054,
                27.894612618337916
              ],
              [
                86.93232941442582,
                27.894702892627965
              ],
              [
                86.93456477790285,
                27.894703971917846
              ],
              [
                86.93456488648222,
                27.894523423310797
              ],
              [
                86.93476810101221,
                27.894523519637147
              ],
              [
                86.93476820925919,
                27.8943429710301
              ],
              [
                86.93507303055112,
                27.894343114940206
              ],
              [
                86.9350730844141,
                27.894252840641172
              ],
              [
                86.93517469142758,
                27.894252888458496
              ],
              [
                86.9351745838633,
                27.894433437065544
              ],
              [
                86.93527619104745,
                27.894433484819984
              ],
              [
                86.93527613734615,
                27.894523759119018
              ],
              [
                86.93588578095408,
                27.894524044028692
              ],
              [
                86.93588572775586,
                27.894614318336707
              ],
              [
                86.93598733511068,
                27.894614365552158
              ],
              [
                86.93598738821908,
                27.89452409125313
              ],
              [
                86.93608899549305,
                27.894524138405696
              ],
              [
                86.9360889424655,
                27.89461441270473
              ],
              [
                86.93649537187582,
                27.89461460055144
              ],
              [
                86.93649531918963,
                27.89470487485047
              ],
              [
                86.9365969266253,
                27.894704921625745
              ],
              [
                86.93659687402895,
                27.89479519592478
              ],
              [
                86.93700330412199,
                27.8947953822713
              ],
              [
                86.93700325184902,
                27.894885656579316
              ],
              [
                86.93720646707071,
                27.89488574930342
              ],
              [
                86.93720636287512,
                27.895066297901487
              ],
              [
                86.93923851846968,
                27.8950672086764
              ],
              [
                86.93923841764277,
                27.89524775727447
              ],
              [
                86.93984806534702,
                27.895248024666994
              ],
              [
                86.93984816515884,
                27.89506747606893
              ],
              [
                86.94005138073086,
                27.895067564597902
              ],
              [
                86.94005152994103,
                27.89479674168284
              ],
              [
                86.94015313747552,
                27.894796785835034
              ],
              [
                86.94015323678428,
                27.894616237219005
              ],
              [
                86.94025484414809,
                27.894616281299335
              ],
              [
                86.94025474501001,
                27.894796829915364
              ],
              [
                86.94147403539692,
                27.894797353004357
              ],
              [
                86.94147408395985,
                27.89470707869634
              ],
              [
                86.94167729885814,
                27.89470716482681
              ],
              [
                86.9416772504659,
                27.894797439143808
              ],
              [
                86.94177885800039,
                27.89479748209226
              ],
              [
                86.94177880969798,
                27.894887756400276
              ],
              [
                86.9418804173223,
                27.89488779928585
              ],
              [
                86.94188036910073,
                27.894978073593865
              ],
              [
                86.94208358450209,
                27.894978159122463
              ],
              [
                86.9420835364512,
                27.895068433430477
              ],
              [
                86.9421851442462,
                27.89506847609147
              ],
              [
                86.94218519220725,
                27.894978201783456
              ],
              [
                86.94228679991242,
                27.8949782443636
              ],
              [
                86.94228670414303,
                27.895158792970648
              ],
              [
                86.94238831201888,
                27.895158835478927
              ],
              [
                86.94238816862081,
                27.89542965839399
              ],
              [
                86.94269299300294,
                27.89542978546069
              ],
              [
                86.94269289790728,
                27.895610334058752
              ],
              [
                86.94279450619635,
                27.895610376270586
              ],
              [
                86.94279431634641,
                27.895971473457735
              ],
              [
                86.94289592497684,
                27.895971515597704
              ],
              [
                86.94289587759968,
                27.896061789887753
              ],
              [
                86.94299748631097,
                27.896061831946874
              ],
              [
                86.94299743901466,
                27.896152106236922
              ],
              [
                86.943302265427,
                27.89615223196513
              ],
              [
                86.94330221838221,
                27.89624250625518
              ],
              [
                86.94340382726418,
                27.896242548017856
              ],
              [
                86.94340373334532,
                27.896423096597957
              ],
              [
                86.94350534240694,
                27.896423138288768
              ],
              [
                86.94350501427033,
                27.897055058292164
              ],
              [
                86.94360662391587,
                27.897055099902126
              ],
              [
                86.94360653032938,
                27.89723564846426
              ],
              [
                86.9438097499618,
                27.89723573145961
              ],
              [
                86.94380970333923,
                27.897326005740673
              ],
              [
                86.94391131323628,
                27.897326047126057
              ],
              [
                86.94391122015286,
                27.897506595679207
              ],
              [
                86.9440128302206,
                27.897506636992727
              ],
              [
                86.94401259793423,
                27.897958008362124
              ],
              [
                86.94411420842418,
                27.89795804960378
              ],
              [
                86.94411416205314,
                27.898048323875862
              ],
              [
                86.94401255148234,
                27.898048282634207
              ],
              [
                86.94401250502148,
                27.898138556906293
              ],
              [
                86.94391089436085,
                27.89813851559277
              ],
              [
                86.94391080127743,
                27.898319064127953
              ],
              [
                86.94350435797017,
                27.898318898128274
              ],
              [
                86.94350426420402,
                27.898499446663454
              ],
              [
                86.94330104221801,
                27.898499363209964
              ],
              [
                86.94330094811949,
                27.898679911736163
              ],
              [
                86.94248805881902,
                27.898679574930814
              ],
              [
                86.94248796337301,
                27.89886012344803
              ],
              [
                86.9422847407043,
                27.89886003850334
              ],
              [
                86.94228454912958,
                27.899221135519806
              ],
              [
                86.9420813257961,
                27.899221050269684
              ],
              [
                86.94208127773624,
                27.8993113245238
              ],
              [
                86.94177644248448,
                27.89931119608268
              ],
              [
                86.94177639416411,
                27.899401470327813
              ],
              [
                86.94157317049826,
                27.899401384332094
              ],
              [
                86.94157312201618,
                27.899491658577226
              ],
              [
                86.94136989817964,
                27.899491572276077
              ],
              [
                86.9413698495269,
                27.89958184652121
              ],
              [
                86.94126823751878,
                27.899581803258346
              ],
              [
                86.94126818878519,
                27.899672077503478
              ],
              [
                86.94116657669623,
                27.89967203416875
              ],
              [
                86.94116647904937,
                27.899852582659015
              ],
              [
                86.94106486679873,
                27.89985253924344
              ],
              [
                86.94106476898118,
                27.900033087724722
              ],
              [
                86.94096315655985,
                27.90003304423728
              ],
              [
                86.94096305857163,
                27.90021359270958
              ],
              [
                86.94086144597962,
                27.900213549150273
              ],
              [
                86.94086139690465,
                27.900303823386423
              ],
              [
                86.94065817154997,
                27.900303736034246
              ],
              [
                86.94065827004125,
                27.900123187561945
              ],
              [
                86.94045504502793,
                27.900123099913323
              ],
              [
                86.94045514386058,
                27.899942551432037
              ],
              [
                86.94025191917963,
                27.899942463486973
              ],
              [
                86.94025211750967,
                27.89958136651542
              ],
              [
                86.94004889351145,
                27.89958127826493
              ],
              [
                86.94004899300884,
                27.899400729774662
              ],
              [
                86.93984576935198,
                27.899400641227725
              ],
              [
                86.93984586918175,
                27.89922009273746
              ],
              [
                86.93943942254174,
                27.899219914745267
              ],
              [
                86.93943932202924,
                27.899400463235533
              ],
              [
                86.93923609837238,
                27.89940037379028
              ],
              [
                86.93923589667365,
                27.89976147076183
              ],
              [
                86.93943912100426,
                27.899761560207082
              ],
              [
                86.93943902049176,
                27.899942108688368
              ],
              [
                86.93903257114782,
                27.899941929492435
              ],
              [
                86.93903246996159,
                27.900122477964736
              ],
              [
                86.93923569496593,
                27.900122567706433
              ],
              [
                86.93923559411208,
                27.900303116178733
              ],
              [
                86.93943881945778,
                27.90030320563297
              ],
              [
                86.93943871894528,
                27.900483754096285
              ],
              [
                86.93923549325822,
                27.90048366464205
              ],
              [
                86.93923539240436,
                27.90066421310537
              ],
              [
                86.93964184444324,
                27.90066439169943
              ],
              [
                86.939641644083,
                27.9010254886081
              ],
              [
                86.94004809747834,
                27.901025666016384
              ],
              [
                86.94004799797194,
                27.901206214461734
              ],
              [
                86.94025122500649,
                27.90120630272121
              ],
              [
                86.94025112583248,
                27.90138685115758
              ],
              [
                86.94035273952043,
                27.901386895175026
              ],
              [
                86.9403526405171,
                27.901567443611395
              ],
              [
                86.93984457124192,
                27.90156722278753
              ],
              [
                86.93984467108967,
                27.901386674351166
              ],
              [
                86.93943821634686,
                27.901386496341008
              ],
              [
                86.93943811582538,
                27.901567044777376
              ],
              [
                86.93964134353365,
                27.901567133935167
              ],
              [
                86.93964124334455,
                27.90174768236255
              ],
              [
                86.93923478726325,
                27.90174750375951
              ],
              [
                86.93923468640041,
                27.901928052177908
              ],
              [
                86.9390314580184,
                27.90192796242723
              ],
              [
                86.93903155921362,
                27.901747413999843
              ],
              [
                86.93821864706001,
                27.90174705198777
              ],
              [
                86.93821895469706,
                27.901205406687648
              ],
              [
                86.93862540874817,
                27.901205588291067
              ],
              [
                86.93862551061711,
                27.901025039845713
              ],
              [
                86.93882873731029,
                27.901025130198263
              ],
              [
                86.93882883883789,
                27.900844581752914
              ],
              [
                86.93903206519869,
                27.900844671800037
              ],
              [
                86.93903236877536,
                27.900303026428052
              ],
              [
                86.93882914342964,
                27.90030293638093
              ],
              [
                86.93882924495725,
                27.900122387917612
              ],
              [
                86.93842279494855,
                27.900122206916063
              ],
              [
                86.93842269274722,
                27.900302755379382
              ],
              [
                86.93821946740152,
                27.90030266443394
              ],
              [
                86.93821936486782,
                27.90048321289726
              ],
              [
                86.93781291351165,
                27.900483030099082
              ],
              [
                86.93781281029523,
                27.900663578553416
              ],
              [
                86.93760958428477,
                27.90066348670068
              ],
              [
                86.93760948072699,
                27.900844035155014
              ],
              [
                86.93740625438416,
                27.90084394300583
              ],
              [
                86.93740615049398,
                27.90102449145118
              ],
              [
                86.93720292380081,
                27.901024398996572
              ],
              [
                86.93720281957827,
                27.90120494743294
              ],
              [
                86.93699959255272,
                27.90120485469087
              ],
              [
                86.93699948798883,
                27.901385403118255
              ],
              [
                86.9367962606309,
                27.901385310070758
              ],
              [
                86.93679610326402,
                27.901656132707345
              ],
              [
                86.93628803361156,
                27.901655898768077
              ],
              [
                86.9362880864864,
                27.901565624558877
              ],
              [
                86.9360848587961,
                27.901565530460353
              ],
              [
                86.9360849118416,
                27.90147525625115
              ],
              [
                86.93588168432198,
                27.9014751618472
              ],
              [
                86.93588173752919,
                27.901384887637995
              ],
              [
                86.93557689650129,
                27.901384745479604
              ],
              [
                86.935576949969,
                27.90129447126142
              ],
              [
                86.93537372278176,
                27.90129437612085
              ],
              [
                86.93537377642016,
                27.901204101902664
              ],
              [
                86.9350689359043,
                27.901203958621377
              ],
              [
                86.93506898978524,
                27.901113684403192
              ],
              [
                86.93466253610245,
                27.901113492316433
              ],
              [
                86.93466259032476,
                27.90102321809825
              ],
              [
                86.93425613698332,
                27.90102302480775
              ],
              [
                86.934256191547,
                27.90093275059855
              ],
              [
                86.93384973854691,
                27.90093255610431
              ],
              [
                86.93384979344296,
                27.900842281895105
              ],
              [
                86.93313850129245,
                27.90084193865782
              ],
              [
                86.93313872323921,
                27.900480841785082
              ],
              [
                86.93293549758808,
                27.90048074305125
              ],
              [
                86.93293572020858,
                27.900119646160547
              ],
              [
                86.93273249523118,
                27.90011954712129
              ],
              [
                86.9327326068738,
                27.899938998666954
              ],
              [
                86.93252938223776,
                27.89993889933125
              ],
              [
                86.93252949422175,
                27.899758350876915
              ],
              [
                86.93191982132873,
                27.899758051073174
              ],
              [
                86.93191993431884,
                27.89957750261884
              ],
              [
                86.92988769477671,
                27.89957648379456
              ],
              [
                86.92988781113549,
                27.899395935340227
              ],
              [
                86.92805879867281,
                27.899394992782913
              ],
              [
                86.92805867927773,
                27.899575541228266
              ],
              [
                86.92765223139804,
                27.899575328471272
              ],
              [
                86.92765211132922,
                27.89975587690764
              ],
              [
                86.9272456627758,
                27.89975566295589
              ],
              [
                86.92724542127272,
                27.900116759819642
              ],
              [
                86.92704219633126,
                27.900116652390118
              ],
              [
                86.92704207523836,
                27.9002972008175
              ],
              [
                86.92683884995554,
                27.90029709308255
              ],
              [
                86.92683872853026,
                27.900477641500952
              ],
              [
                86.92643227729089,
                27.900477425141716
              ],
              [
                86.92643215518288,
                27.900657973551134
              ],
              [
                86.92470473461502,
                27.90065704065071
              ],
              [
                86.92470467212821,
                27.90074731485093
              ],
              [
                86.92419660685054,
                27.900747036346242
              ],
              [
                86.92419654394152,
                27.90083731054646
              ],
              [
                86.92338363883968,
                27.900836861038474
              ],
              [
                86.92338357525693,
                27.900927135229708
              ],
              [
                86.922164216625,
                27.900926451980087
              ],
              [
                86.92216415202715,
                27.90101672617132
              ],
              [
                86.92145285891544,
                27.90101632263013
              ],
              [
                86.92145279373369,
                27.90110659681238
              ],
              [
                86.92094472681211,
                27.901106306315185
              ],
              [
                86.92094466120814,
                27.90119658050642
              ],
              [
                86.92023336694659,
                27.901196170659052
              ],
              [
                86.92023330074075,
                27.90128644485029
              ],
              [
                86.91962361945748,
                27.901286090626606
              ],
              [
                86.91962355274859,
                27.901376364808858
              ],
              [
                86.9189122573372,
                27.90137594814328
              ],
              [
                86.91891232462999,
                27.90128567397001
              ],
              [
                86.91870909754155,
                27.90128555424255
              ],
              [
                86.91870903007808,
                27.9013758284248
              ],
              [
                86.91830257555985,
                27.901375588080548
              ],
              [
                86.918302507764,
                27.901465862262796
              ],
              [
                86.91799766662828,
                27.901465681216337
              ],
              [
                86.91799759857192,
                27.901555955389604
              ],
              [
                86.91759114338893,
                27.901555712952273
              ],
              [
                86.91759107500019,
                27.901645987125544
              ],
              [
                86.917387847247,
                27.90164586545772
              ],
              [
                86.9173877786786,
                27.901736139622006
              ],
              [
                86.91718455075473,
                27.90173601765774
              ],
              [
                86.91718448202462,
                27.901826291822026
              ],
              [
                86.91698125393906,
                27.901826169552333
              ],
              [
                86.91698118503828,
                27.9019164437256
              ],
              [
                86.91687957091015,
                27.901916382478465
              ],
              [
                86.91687970887342,
                27.90173583414091
              ],
              [
                86.91667648094955,
                27.90173571142206
              ],
              [
                86.91667634264493,
                27.901916259750628
              ],
              [
                86.91586342962893,
                27.901915765874854
              ],
              [
                86.91586328997684,
                27.902096314203423
              ],
              [
                86.91566006138822,
                27.902096189984384
              ],
              [
                86.91565985139803,
                27.902367012468257
              ],
              [
                86.9145420913983,
                27.902366323891627
              ],
              [
                86.91454237509525,
                27.902005227252452
              ],
              [
                86.91464398930422,
                27.902005290224352
              ],
              [
                86.91464420181866,
                27.901734467740482
              ],
              [
                86.9147458157761,
                27.901734530631533
              ],
              [
                86.91474588652741,
                27.90164425646725
              ],
              [
                86.91464427265981,
                27.901644193576196
              ],
              [
                86.91464434349197,
                27.90155391940293
              ],
              [
                86.91454272971419,
                27.90155385644001
              ],
              [
                86.91454280063618,
                27.90146358226674
              ],
              [
                86.91444118693026,
                27.901463519222975
              ],
              [
                86.91444125794209,
                27.90137324505869
              ],
              [
                86.914339644326,
                27.901373181934073
              ],
              [
                86.91433978650237,
                27.901192633596523
              ],
              [
                86.91423817305696,
                27.901192570400042
              ],
              [
                86.914238315404,
                27.90101202206249
              ],
              [
                86.91413670212928,
                27.901011958794143
              ],
              [
                86.91413691590137,
                27.900741136265353
              ],
              [
                86.91352723775321,
                27.90074075508323
              ],
              [
                86.91352730951962,
                27.900650480909963
              ],
              [
                86.91342569658626,
                27.900650417120595
              ],
              [
                86.91342584027178,
                27.900469868765075
              ],
              [
                86.91322261473744,
                27.900469740961757
              ],
              [
                86.91322254271951,
                27.900560015135028
              ],
              [
                86.91301931701447,
                27.900559887026283
              ],
              [
                86.91301917264623,
                27.900740435381802
              ],
              [
                86.91312078566942,
                27.900740499467616
              ],
              [
                86.91312071357063,
                27.900830773640884
              ],
              [
                86.91322232667468,
                27.900830837663815
              ],
              [
                86.91322225465674,
                27.900921111837082
              ],
              [
                86.91332386785062,
                27.900921175779164
              ],
              [
                86.91332350818314,
                27.901372546618557
              ],
              [
                86.91322189457604,
                27.901372482676475
              ],
              [
                86.91322167852223,
                27.90164330516933
              ],
              [
                86.913018450796,
                27.901643177060585
              ],
              [
                86.91301837860738,
                27.90173345121589
              ],
              [
                86.91281515071046,
                27.901733322801718
              ],
              [
                86.91281522306078,
                27.901643048646417
              ],
              [
                86.91271360920214,
                27.901642984327044
              ],
              [
                86.91271368164229,
                27.901552710162758
              ],
              [
                86.91261206786452,
                27.901552645771517
              ],
              [
                86.91261221291548,
                27.901372097442948
              ],
              [
                86.9125105992994,
                27.90137203297086
              ],
              [
                86.91251067191023,
                27.901281758806576
              ],
              [
                86.91240905838397,
                27.90128169426262
              ],
              [
                86.91240913107565,
                27.901191420098336
              ],
              [
                86.91230751763922,
                27.901191355482517
              ],
              [
                86.91230766319325,
                27.901010807144964
              ],
              [
                86.91240927645899,
                27.901010871769767
              ],
              [
                86.91240942184234,
                27.90083032342323
              ],
              [
                86.91251103494638,
                27.900830387967183
              ],
              [
                86.91251118015904,
                27.900649839620648
              ],
              [
                86.91230795429232,
                27.900649710460875
              ],
              [
                86.91230788151081,
                27.900739984634143
              ],
              [
                86.9121046554824,
                27.900739855177928
              ],
              [
                86.91210472842559,
                27.90064958100466
              ],
              [
                86.91200311549223,
                27.90064951616426
              ],
              [
                86.91200326154032,
                27.900468967817726
              ],
              [
                86.91210487430301,
                27.900469032658123
              ],
              [
                86.9121049472462,
                27.900378758484855
              ],
              [
                86.91220655992805,
                27.900378823253387
              ],
              [
                86.91220670564377,
                27.900198274897868
              ],
              [
                86.91210509313261,
                27.900198210129336
              ],
              [
                86.91210516607582,
                27.900107935947084
              ],
              [
                86.9119019412152,
                27.900107806194423
              ],
              [
                86.91190201432909,
                27.900017532021156
              ],
              [
                86.9118004019886,
                27.900017467028047
              ],
              [
                86.91180047517436,
                27.899927192845794
              ]
            ],
            [
              [
                86.91322290279122,
                27.900108644241737
              ],
              [
                86.913223190845,
                27.899747547494766
              ],
              [
                86.91342641503188,
                27.89974767529808
              ],
              [
                86.91342612765183,
                27.90010877204505
              ],
              [
                86.91322290279122,
                27.900108644241737
              ]
            ],
            [
              [
                86.94086237840393,
                27.898498338438838
              ],
              [
                86.9408625746948,
                27.89813724138644
              ],
              [
                86.94106579599809,
                27.89813732843319
              ],
              [
                86.94106589380665,
                27.89795677990699
              ],
              [
                86.94147233573949,
                27.897956953093196
              ],
              [
                86.94147223861364,
                27.898137501619395
              ],
              [
                86.94167545991692,
                27.89813758776783
              ],
              [
                86.94167526632998,
                27.89849868482023
              ],
              [
                86.94147204434398,
                27.898498598671793
              ],
              [
                86.94147194720915,
                27.89867914718901
              ],
              [
                86.94106550257239,
                27.898678974002806
              ],
              [
                86.94106560038095,
                27.898498425485588
              ],
              [
                86.94086237840393,
                27.898498338438838
              ]
            ]
          ]
        ]
      },
      "id": "+9365+1452",
      "properties": {
        "area_m2": 1689858.8965014655,
        "count": 16859,
        "image_id": "COPERNICUS/S2_SR_HARMONIZED/20241112T044929_20241112T045529_T45RVL",
        "lake_id": "imja-tsho",
        "observed_at": "2024-11-12T05:00:59.783000Z",
        "water": 1
      }
    }
  ]
}
