{
  "type": "FeatureCollection",
  "features": [
    {
      "type": "Feature",
      "geometry": {
        "geodesic": false,
        "type": "MultiPolygon",
        "coordinates": [
          [
            [
              [
                86.94391028929161,
                27.899312080986117
              ],
              [
                86.94401190104819,
                27.899312122308622
              ],
              [
                86.94401185458732,
                27.899402396553754
              ],
              [
                86.9439102427499,
                27.899402355240234
              ],
              [
                86.94391028929161,
                27.899312080986117
              ]
            ]
          ],
          [
            [
              [
                86.91383400746405,
                27.898303542838846
              ],
              [
                86.91383415046685,
                27.898122994420444
              ],
              [
                86.91424059277698,
                27.898123247916033
              ],
              [
                86.91424073510605,
                27.89794269948865
              ],
              [
                86.91444395592424,
                27.897942825782795
              ],
              [
                86.91444409791197,
                27.89776227735541
              ],
              [
                86.9148505388836,
                27.897762529045387
              ],
              [
                86.91485068019757,
                27.89758198060902
              ],
              [
                86.91525712049547,
                27.897582231104234
              ],
              [
                86.91525726113571,
                27.897401682658884
              ],
              [
                86.916070140411,
                27.897402180038092
              ],
              [
                86.91607027969478,
                27.897221631583758
              ],
              [
                86.91688315764054,
                27.89722212416596
              ],
              [
                86.91688329556787,
                27.897041575711626
              ],
              [
                86.91769617219312,
                27.897042063496826
              ],
              [
                86.91769630877297,
                27.896861515024526
              ],
              [
                86.91871240288366,
                27.896862118009675
              ],
              [
                86.91871253778366,
                27.896681569537375
              ],
              [
                86.9195254117499,
                27.896682046524823
              ],
              [
                86.91952554529345,
                27.89650149804354
              ],
              [
                86.92033841793017,
                27.896501970233988
              ],
              [
                86.92033855012625,
                27.89632142174372
              ],
              [
                86.92044015903517,
                27.896321480430657
              ],
              [
                86.92044022505235,
                27.89623120617654
              ],
              [
                86.92064344270848,
                27.896231323325836
              ],
              [
                86.92064350855499,
                27.89614104907172
              ],
              [
                86.92084672604044,
                27.896141165924572
              ],
              [
                86.92084679171626,
                27.896050891670455
              ],
              [
                86.92094840038263,
                27.8960509499801
              ],
              [
                86.92094833478764,
                27.896141224234217
              ],
              [
                86.92104994353485,
                27.896141282471998
              ],
              [
                86.92105000904002,
                27.89605100821788
              ],
              [
                86.92125322636376,
                27.896051124468862
              ],
              [
                86.92125329169822,
                27.895960850214745
              ],
              [
                86.92135490027476,
                27.895960908227945
              ],
              [
                86.92135496552838,
                27.89587063397383
              ],
              [
                86.92155818251976,
                27.89587074976667
              ],
              [
                86.92155811743682,
                27.89596102402977
              ],
              [
                86.92277742040014,
                27.89596171252555
              ],
              [
                86.92277754854481,
                27.895781164008337
              ],
              [
                86.92298076537449,
                27.895781277708103
              ],
              [
                86.92298089317781,
                27.895600729181904
              ],
              [
                86.92379375914904,
                27.895601180989576
              ],
              [
                86.92379388560487,
                27.895420632454393
              ],
              [
                86.92582604725409,
                27.895421740984435
              ],
              [
                86.92582617033226,
                27.89524119244027
              ],
              [
                86.9296872713662,
                27.895243216084094
              ],
              [
                86.9296873880394,
                27.895062667521962
              ],
              [
                86.93029703459379,
                27.895062977153273
              ],
              [
                86.93029691892671,
                27.89524352572439
              ],
              [
                86.9309065665052,
                27.895243832660757
              ],
              [
                86.93090668115718,
                27.89506328408964
              ],
              [
                86.93131311220243,
                27.895063487216692
              ],
              [
                86.93131322618068,
                27.894882938645576
              ],
              [
                86.93192287175592,
                27.894883241081384
              ],
              [
                86.93192298471907,
                27.894702692501284
              ],
              [
                86.93334548871968,
                27.894703387707484
              ],
              [
                86.93334559932026,
                27.89452283910942
              ],
              [
                86.93456488648222,
                27.894523423310797
              ],
              [
                86.93456477790285,
                27.894703971917846
              ],
              [
                86.93558085225959,
                27.89470445051328
              ],
              [
                86.93558074536007,
                27.894884999111344
              ],
              [
                86.9363936062109,
                27.894885376601394
              ],
              [
                86.93639350065885,
                27.895065925199457
              ],
              [
                86.93761279398325,
                27.895066482451377
              ],
              [
                86.9376128975051,
                27.894885933853313
              ],
              [
                86.93801932794848,
                27.894886117199462
              ],
              [
                86.93801922510036,
                27.89506666580651
              ],
              [
                86.93822244065443,
                27.895066757030428
              ],
              [
                86.93822233814768,
                27.89524730562849
              ],
              [
                86.93984806534702,
                27.895248024666994
              ],
              [
                86.93984816515884,
                27.89506747606893
              ],
              [
                86.94005138073086,
                27.895067564597902
              ],
              [
                86.9400514802103,
                27.894887015990854
              ],
              [
                86.94066112590232,
                27.894887279781138
              ],
              [
                86.94066117513898,
                27.894797005482104
              ],
              [
                86.94106760526795,
                27.894797179845103
              ],
              [
                86.94106755637266,
                27.894887454153118
              ],
              [
                86.94167720208264,
                27.894887713451823
              ],
              [
                86.94167710529815,
                27.89506826205887
              ],
              [
                86.94188032087916,
                27.89506834790188
              ],
              [
                86.94188022443603,
                27.895248896508928
              ],
              [
                86.94208344034944,
                27.89524898204651
              ],
              [
                86.94208334423868,
                27.895429530644574
              ],
              [
                86.94228656049343,
                27.89542961588571
              ],
              [
                86.94228646472403,
                27.895610164483777
              ],
              [
                86.94248968131117,
                27.89561024942847
              ],
              [
                86.94248949044612,
                27.895971346615614
              ],
              [
                86.94269270770698,
                27.895971431254882
              ],
              [
                86.94269251751567,
                27.89633252842406
              ],
              [
                86.94289573545028,
                27.896332612766884
              ],
              [
                86.942895640687,
                27.89651316134698
              ],
              [
                86.9433020772479,
                27.89651332913431
              ],
              [
                86.94330198315836,
                27.896693877705424
              ],
              [
                86.94350520177568,
                27.896693961149932
              ],
              [
                86.9435051080275,
                27.896874509721048
              ],
              [
                86.94330188906882,
                27.89687442627654
              ],
              [
                86.94330151270167,
                27.897596620516087
              ],
              [
                86.94350473299883,
                27.89759670396059
              ],
              [
                86.94350463924167,
                27.89777725251374
              ],
              [
                86.94370785988919,
                27.897777335661804
              ],
              [
                86.9437077664644,
                27.89795788420597
              ],
              [
                86.94401259793423,
                27.897958008362124
              ],
              [
                86.94401250502148,
                27.898138556906293
              ],
              [
                86.94391089436085,
                27.89813851559277
              ],
              [
                86.94391080127743,
                27.898319064127953
              ],
              [
                86.94401241210873,
                27.898319105441473
              ],
              [
                86.94401227272613,
                27.898589928239755
              ],
              [
                86.9439106616433,
                27.898589886926235
              ],
              [
                86.94391028929161,
                27.899312080986117
              ],
              [
                86.94380867753505,
                27.899312039600733
              ],
              [
                86.94380877079814,
                27.8991314910925
              ],
              [
                86.94370715921225,
                27.899131449626267
              ],
              [
                86.94370720592464,
                27.89904117537215
              ],
              [
                86.9436055944196,
                27.89904113383405
              ],
              [
                86.94360554762636,
                27.899131408088166
              ],
              [
                86.94350393604047,
                27.899131366478205
              ],
              [
                86.94350398292354,
                27.899041092215104
              ],
              [
                86.94330075992244,
                27.8990410087706
              ],
              [
                86.94330080696722,
                27.898950734507498
              ],
              [
                86.9430975841368,
                27.898950650757563
              ],
              [
                86.94309763135225,
                27.898860376503446
              ],
              [
                86.94187829539379,
                27.898859867706655
              ],
              [
                86.9418781989327,
                27.899040416214888
              ],
              [
                86.94147175293948,
                27.899040244214458
              ],
              [
                86.94147165580465,
                27.89922079272269
              ],
              [
                86.94126843247118,
                27.899220706268828
              ],
              [
                86.9412681400426,
                27.899762351748613
              ],
              [
                86.94106491570301,
                27.899762264998305
              ],
              [
                86.94106481788546,
                27.899942813488572
              ],
              [
                86.94045514386058,
                27.899942551432037
              ],
              [
                86.94045504502793,
                27.900123099913323
              ],
              [
                86.9402518200146,
                27.900123011959273
              ],
              [
                86.94025172084957,
                27.900303560431574
              ],
              [
                86.94004849550387,
                27.90030347218108
              ],
              [
                86.94004750041309,
                27.902108956625607
              ],
              [
                86.94025072913645,
                27.902109044885083
              ],
              [
                86.94025058037543,
                27.902379867512686
              ],
              [
                86.93984412191361,
                27.902379690697288
              ],
              [
                86.93984417184197,
                27.902289416488088
              ],
              [
                86.93892964109561,
                27.90228901426742
              ],
              [
                86.93892969177855,
                27.902198740067202
              ],
              [
                86.93842161956589,
                27.902198513988193
              ],
              [
                86.93842167067105,
                27.902108239778993
              ],
              [
                86.93821844195666,
                27.90210814882457
              ],
              [
                86.93821854450833,
                27.901927600406168
              ],
              [
                86.9380153161353,
                27.901927509155303
              ],
              [
                86.93801526468879,
                27.902017783364503
              ],
              [
                86.93760880761036,
                27.90201759995547
              ],
              [
                86.93760885938926,
                27.90192732574627
              ],
              [
                86.93781208776228,
                27.90192741759901
              ],
              [
                86.9378121909787,
                27.901746869180606
              ],
              [
                86.93720250687473,
                27.901746592724077
              ],
              [
                86.93720245476345,
                27.90183686693328
              ],
              [
                86.93699922656111,
                27.901836774182225
              ],
              [
                86.93699927884306,
                27.901746499973026
              ],
              [
                86.93669443680005,
                27.901746360285
              ],
              [
                86.93669448933353,
                27.901656086066815
              ],
              [
                86.93628803361156,
                27.901655898768077
              ],
              [
                86.9362880864864,
                27.901565624558877
              ],
              [
                86.93598324494644,
                27.9015654832988
              ],
              [
                86.9359832980818,
                27.901475209089597
              ],
              [
                86.93578007055318,
                27.901475114532932
              ],
              [
                86.93578012385022,
                27.90138484032373
              ],
              [
                86.93557689650129,
                27.901384745479604
              ],
              [
                86.935576949969,
                27.90129447126142
              ],
              [
                86.93527210919262,
                27.901294328429287
              ],
              [
                86.93527216291187,
                27.901204054220088
              ],
              [
                86.934967322396,
                27.901203910714223
              ],
              [
                86.93496737636679,
                27.90111363649604
              ],
              [
                86.93456092268399,
                27.901113444103853
              ],
              [
                86.93456097699614,
                27.90102316988567
              ],
              [
                86.9341545236547,
                27.901022976298727
              ],
              [
                86.93415457829921,
                27.900932702089523
              ],
              [
                86.93364651205137,
                27.90093245841252
              ],
              [
                86.93364656710911,
                27.90084218420332
              ],
              [
                86.93263043547579,
                27.900841691243823
              ],
              [
                86.93263049138693,
                27.900751417025642
              ],
              [
                86.93202081292438,
                27.90075111765309
              ],
              [
                86.93202086933857,
                27.900660843443887
              ],
              [
                86.9315128043843,
                27.900660591906625
              ],
              [
                86.9315128612207,
                27.90057031768844
              ],
              [
                86.93090318378222,
                27.90057001338414
              ],
              [
                86.93090324113066,
                27.900479739165956
              ],
              [
                86.93059840267193,
                27.9004795860032
              ],
              [
                86.93059846026293,
                27.900389311785016
              ],
              [
                86.9304968475272,
                27.900389260581044
              ],
              [
                86.93049690520802,
                27.90029898636286
              ],
              [
                86.93029367990724,
                27.90029888373034
              ],
              [
                86.93029379560126,
                27.90011833529397
              ],
              [
                86.93009057063284,
                27.90011823235602
              ],
              [
                86.93009068666824,
                27.899937683919653
              ],
              [
                86.92948101279606,
                27.89993737331816
              ],
              [
                86.92948089575457,
                27.90011792175453
              ],
              [
                86.92927767079513,
                27.900117817621823
              ],
              [
                86.92927755341228,
                27.90029836605819
              ],
              [
                86.92907432812048,
                27.900298261620055
              ],
              [
                86.92907426926286,
                27.90038853583824
              ],
              [
                86.92805814195941,
                27.900388009173955
              ],
              [
                86.92805808225738,
                27.90047828339214
              ],
              [
                86.92734679257724,
                27.900477910267902
              ],
              [
                86.92734673228232,
                27.900568184477102
              ],
              [
                86.92663544202725,
                27.900567807678758
              ],
              [
                86.92663538113945,
                27.900658081887958
              ],
              [
                86.9250095735319,
                27.900657206857005
              ],
              [
                86.9250095113056,
                27.900747481057223
              ],
              [
                86.92429821990967,
                27.900747092194504
              ],
              [
                86.9242981570815,
                27.900837366394722
              ],
              [
                86.92368847825063,
                27.900837030164293
              ],
              [
                86.9236884149194,
                27.90092730436451
              ],
              [
                86.9228755091528,
                27.900926851856152
              ],
              [
                86.92287544514785,
                27.901017126047385
              ],
              [
                86.92257060523384,
                27.901016955124938
              ],
              [
                86.92257066949034,
                27.900926680933704
              ],
              [
                86.92236744305767,
                27.90092656660512
              ],
              [
                86.9223673786305,
                27.901016840796352
              ],
              [
                86.92165608551879,
                27.901016438297205
              ],
              [
                86.92165602049873,
                27.90110671248844
              ],
              [
                86.92114795357715,
                27.90110642274583
              ],
              [
                86.92114788814386,
                27.90119669692808
              ],
              [
                86.92033498040996,
                27.901196229435822
              ],
              [
                86.92033491429395,
                27.901286503618074
              ],
              [
                86.9197252330017,
                27.90128614985253
              ],
              [
                86.91972516638263,
                27.901376424034783
              ],
              [
                86.91830257555985,
                27.901375588080548
              ],
              [
                86.918302507764,
                27.901465862262796
              ],
              [
                86.9180992803342,
                27.901465741637022
              ],
              [
                86.91809921236766,
                27.901556015819274
              ],
              [
                86.91769275718468,
                27.90155577367839
              ],
              [
                86.91769268887678,
                27.901646047851656
              ],
              [
                86.9174894611236,
                27.901645926327564
              ],
              [
                86.91748939264502,
                27.90173620050083
              ],
              [
                86.91728616472116,
                27.901736078680297
              ],
              [
                86.9172860960719,
                27.90182635284458
              ],
              [
                86.91698125393906,
                27.901826169552333
              ],
              [
                86.91698118503828,
                27.9019164437256
              ],
              [
                86.91677795678204,
                27.90191632115048
              ],
              [
                86.91677788771057,
                27.902006595314763
              ],
              [
                86.91647304507468,
                27.90200641089962
              ],
              [
                86.91647297575169,
                27.902096685063903
              ],
              [
                86.91626974715408,
                27.902096561743182
              ],
              [
                86.91626967766939,
                27.902186835907468
              ],
              [
                86.91606644891009,
                27.902186712290302
              ],
              [
                86.91606637924575,
                27.902276986445603
              ],
              [
                86.91565992139476,
                27.90227673830397
              ],
              [
                86.91565985139803,
                27.902367012468257
              ],
              [
                86.9145420913983,
                27.902366323891627
              ],
              [
                86.91454237509525,
                27.902005227252452
              ],
              [
                86.91464398930422,
                27.902005290224352
              ],
              [
                86.91464406013638,
                27.90191501606905
              ],
              [
                86.9147456742645,
                27.901915078960105
              ],
              [
                86.91474588652741,
                27.90164425646725
              ],
              [
                86.91464427265981,
                27.901644193576196
              ],
              [
                86.91464434349197,
                27.90155391940293
              ],
              [
                86.91454272971419,
                27.90155385644001
              ],
              [
                86.91454280063618,
                27.90146358226674
              ],
              [
                86.91444118693026,
                27.901463519222975
              ],
              [
                86.91444132894493,
                27.901282970885422
              ],
              [
                86.9143397154097,
                27.90128290776979
              ],
              [
                86.91433985759504,
                27.901102359423252
              ],
              [
                86.91423824423049,
                27.901102296235756
              ],
              [
                86.91423845775104,
                27.90083147370697
              ],
              [
                86.91413684463802,
                27.900831410438624
              ],
              [
                86.91413691590137,
                27.900741136265353
              ],
              [
                86.91352723775321,
                27.90074075508323
              ],
              [
                86.91352730951962,
                27.900650480909963
              ],
              [
                86.91332408364391,
                27.900650353250377
              ],
              [
                86.91332415557203,
                27.90056007907711
              ],
              [
                86.91301931701447,
                27.900559887026283
              ],
              [
                86.91301917264623,
                27.900740435381802
              ],
              [
                86.91322239869261,
                27.900740563490547
              ],
              [
                86.91322232667468,
                27.900830837663815
              ],
              [
                86.91332393977872,
                27.900830901605897
              ],
              [
                86.91332336431795,
                27.901553094947126
              ],
              [
                86.91322175054017,
                27.901553031005044
              ],
              [
                86.91322167852223,
                27.90164330516933
              ],
              [
                86.91312006465462,
                27.9016432411464
              ],
              [
                86.91311999255583,
                27.901733515310685
              ],
              [
                86.91281515071046,
                27.901733322801718
              ],
              [
                86.91281522306078,
                27.901643048646417
              ],
              [
                86.91271360920214,
                27.901642984327044
              ],
              [
                86.91271368164229,
                27.901552710162758
              ],
              [
                86.91261206786452,
                27.901552645771517
              ],
              [
                86.91261221291548,
                27.901372097442948
              ],
              [
                86.9125105992994,
                27.90137203297086
              ],
              [
                86.91251067191023,
                27.901281758806576
              ],
              [
                86.91240905838397,
                27.90128169426262
              ],
              [
                86.91240934915066,
                27.9009205975965
              ],
              [
                86.91251096233556,
                27.90092066214045
              ],
              [
                86.91251103494638,
                27.900830387967183
              ],
              [
                86.91261264805043,
                27.900830452430288
              ],
              [
                86.91261272057142,
                27.900740178266002
              ],
              [
                86.91251110754821,
                27.900740113793915
              ],
              [
                86.91251118015904,
                27.900649839620648
              ],
              [
                86.91230795429232,
                27.900649710460875
              ],
              [
                86.91230788151081,
                27.900739984634143
              ],
              [
                86.9121046554824,
                27.900739855177928
              ],
              [
                86.91210487430301,
                27.900469032658123
              ],
              [
                86.91240971260004,
                27.900469226730156
              ],
              [
                86.91240985798339,
                27.900288678374636
              ],
              [
                86.91261308317638,
                27.900288807381695
              ],
              [
                86.91261322820938,
                27.900108259026176
              ],
              [
                86.91281645307,
                27.90010838772781
              ],
              [
                86.91281703186351,
                27.899386194233863
              ],
              [
                86.91302025537665,
                27.89938632263905
              ],
              [
                86.91302039973593,
                27.899205774256583
              ],
              [
                86.91322362290771,
                27.89920590235634
              ],
              [
                86.91322376692561,
                27.899025353964888
              ],
              [
                86.91342698976501,
                27.89902548175922
              ],
              [
                86.91342713345054,
                27.89884493336777
              ],
              [
                86.91363035594858,
                27.898845060865657
              ],
              [
                86.91363078597212,
                27.898303415646385
              ],
              [
                86.91383400746405,
                27.898303542838846
              ]
            ],
            [
              [
                86.91383400746405,
                27.898303542838846
              ],
              [
                86.91403722895598,
                27.89830366973486
              ],
              [
                86.91403730029118,
                27.898213395525662
              ],
              [
                86.91413891095182,
                27.89821345886587
              ],
              [
                86.91413883970642,
                27.898303733075075
              ],
              [
                86.9142404504479,
                27.898303796334435
              ],
              [
                86.91424030812782,
                27.898484344752838
              ],
              [
                86.91383386446124,
                27.898484091248264
              ],
              [
                86.91383400746405,
                27.898303542838846
              ]
            ]
          ]
        ]
      },
      "id": "+9359+1449",
      "properties": {
        "area_m2": 1752906.554523127,
        "count": 17488,
        "image_id": "COPERNICUS/S2_SR_HARMONIZED/20241013T044659_20241013T045225_T45RVL",
        "lake_id": "imja-tsho",
        "observed_at": "2024-10-13T05:01:00.143000Z",
        "water": 1
      }
    }
  ]
}
