{
  "type": "FeatureCollection",
  "features": [
    {
      "type": "Feature",
      "geometry": {
        "geodesic": false,
        "type": "MultiPolygon",
        "coordinates": [
          [
            [
              [
                86.91180047517436,
                27.899927192845794
              ],
              [
                86.91169886292371,
                27.899927127780817
              ],
              [
                86.91169893619929,
                27.89983685359857
              ],
              [
                86.91180054836909,
                27.899836918663542
              ],
              [
                86.91180047517436,
                27.899927192845794
              ]
            ]
          ],
          [
            [
              [
                86.93222791945922,
                27.894522294119504
              ],
              [
                86.93212631219423,
                27.894522244128257
              ],
              [
                86.93212636850961,
                27.894431969829224
              ],
              [
                86.93222797568478,
                27.89443201982047
              ],
              [
                86.93222791945922,
                27.894522294119504
              ]
            ]
          ],
          [
            [
              [
                86.91180047517436,
                27.899927192845794
              ],
              [
                86.91190208743399,
                27.899927257838904
              ],
              [
                86.91190216054787,
                27.89983698365665
              ],
              [
                86.91200377271765,
                27.899837048568916
              ],
              [
                86.91200391876575,
                27.89965650019543
              ],
              [
                86.91210553077386,
                27.899656565035826
              ],
              [
                86.91210560370807,
                27.899566290853574
              ],
              [
                86.91220721563532,
                27.899566355613125
              ],
              [
                86.91220714278195,
                27.899656629795377
              ],
              [
                86.91241036678916,
                27.899656759098878
              ],
              [
                86.91241029410648,
                27.89974703329011
              ],
              [
                86.91281674247125,
                27.89974729098982
              ],
              [
                86.91281688717187,
                27.899566742616333
              ],
              [
                86.91271527524462,
                27.89956667830594
              ],
              [
                86.91271549253811,
                27.899295855732237
              ],
              [
                86.91261388087136,
                27.89929579134998
              ],
              [
                86.91261395338337,
                27.899205517149763
              ],
              [
                86.91251234179748,
                27.899205452686658
              ],
              [
                86.91251241439933,
                27.899115178495425
              ],
              [
                86.91261402590438,
                27.89911524295853
              ],
              [
                86.91261409841638,
                27.899024968767293
              ],
              [
                86.91271570983159,
                27.899025033149552
              ],
              [
                86.91271578226275,
                27.898934758958315
              ],
              [
                86.91291900493148,
                27.898934887507234
              ],
              [
                86.91291907719196,
                27.898844613307016
              ],
              [
                86.91342713345054,
                27.89884493336777
              ],
              [
                86.91342727712708,
                27.898664384967333
              ],
              [
                86.91363049929275,
                27.89866451246522
              ],
              [
                86.91363078597212,
                27.898303415646385
              ],
              [
                86.9142404504479,
                27.898303796334435
              ],
              [
                86.91424059277698,
                27.898123247916033
              ],
              [
                86.91403737161743,
                27.898123121316463
              ],
              [
                86.91403751427887,
                27.89794257289806
              ],
              [
                86.91444395592424,
                27.897942825782795
              ],
              [
                86.91444409791197,
                27.89776227735541
              ],
              [
                86.9148505388836,
                27.897762529045387
              ],
              [
                86.91485068019757,
                27.89758198060902
              ],
              [
                86.91505390034203,
                27.897582106004847
              ],
              [
                86.91505404131465,
                27.897401557559498
              ],
              [
                86.91586692058992,
                27.897402056142447
              ],
              [
                86.91586706020608,
                27.897221507688112
              ],
              [
                86.91688315764054,
                27.89722212416596
              ],
              [
                86.91688329556787,
                27.897041575711626
              ],
              [
                86.9174929530368,
                27.89704194199968
              ],
              [
                86.91749308995801,
                27.89686139352738
              ],
              [
                86.91830596523579,
                27.89686187771932
              ],
              [
                86.91830610080953,
                27.896681329238035
              ],
              [
                86.91932219325834,
                27.89668192773161
              ],
              [
                86.91932232713427,
                27.896501379241343
              ],
              [
                86.91962715437305,
                27.896501557323365
              ],
              [
                86.91962728774591,
                27.896321008833098
              ],
              [
                86.91972889665482,
                27.896321068050042
              ],
              [
                86.91972876345262,
                27.89650161654031
              ],
              [
                86.92033841793017,
                27.896501970233988
              ],
              [
                86.92033855012625,
                27.89632142174372
              ],
              [
                86.92054176795305,
                27.896321539036748
              ],
              [
                86.92054183388042,
                27.896231264791613
              ],
              [
                86.92064344270848,
                27.896231323325836
              ],
              [
                86.92064350855499,
                27.89614104907172
              ],
              [
                86.92094833478764,
                27.896141224234217
              ],
              [
                86.92094840038263,
                27.8960509499801
              ],
              [
                86.92125322636376,
                27.896051124468862
              ],
              [
                86.92125329169822,
                27.895960850214745
              ],
              [
                86.92135490027476,
                27.895960908227945
              ],
              [
                86.92135496552838,
                27.89587063397383
              ],
              [
                86.92176139951113,
                27.895870865272048
              ],
              [
                86.92176146442338,
                27.89578059100895
              ],
              [
                86.92216789806477,
                27.895780821103425
              ],
              [
                86.92216796264466,
                27.89569054684931
              ],
              [
                86.92247278762866,
                27.895690718634143
              ],
              [
                86.92247285195701,
                27.89560044437104
              ],
              [
                86.92287928493364,
                27.895600672372446
              ],
              [
                86.92287934892065,
                27.895510398109344
              ],
              [
                86.92359060605483,
                27.89551079422147
              ],
              [
                86.92359066944893,
                27.895420519949386
              ],
              [
                86.9239971017698,
                27.895420744653972
              ],
              [
                86.92399716483152,
                27.89533047039087
              ],
              [
                86.92450520481263,
                27.895330749578278
              ],
              [
                86.92450526744318,
                27.895240475306196
              ],
              [
                86.92491169909928,
                27.895240697306853
              ],
              [
                86.92491176139745,
                27.895150423034767
              ],
              [
                86.9254198005521,
                27.895150698853495
              ],
              [
                86.92541986242807,
                27.89506042458141
              ],
              [
                86.9260295089106,
                27.895060753086327
              ],
              [
                86.9260293861738,
                27.895241301639476
              ],
              [
                86.92846797625415,
                27.895242588727648
              ],
              [
                86.92846809495754,
                27.895062040165516
              ],
              [
                86.92887452597584,
                27.895062250479093
              ],
              [
                86.92887464400549,
                27.894881701907977
              ],
              [
                86.93111001099491,
                27.894882837225783
              ],
              [
                86.93111012530554,
                27.894702288645682
              ],
              [
                86.93151655501231,
                27.894702491170865
              ],
              [
                86.93151661183074,
                27.894612216880816
              ],
              [
                86.93171982651344,
                27.894612317689756
              ],
              [
                86.93171988316121,
                27.894522043399707
              ],
              [
                86.93192309768222,
                27.894522143912205
              ],
              [
                86.93192304119614,
                27.894612418202254
              ],
              [
                86.9322278632247,
                27.894612568418534
              ],
              [
                86.93222791945922,
                27.894522294119504
              ],
              [
                86.93232952671524,
                27.894522344038883
              ],
              [
                86.93232947057054,
                27.894612618337916
              ],
              [
                86.9329391146366,
                27.894612916282146
              ],
              [
                86.93293917027825,
                27.894522641983112
              ],
              [
                86.93304077753426,
                27.894522691372487
              ],
              [
                86.93304072198244,
                27.89461296567152
              ],
              [
                86.93334554401997,
                27.89461311340845
              ],
              [
                86.93334559932026,
                27.89452283910942
              ],
              [
                86.93497131555118,
                27.89452361564908
              ],
              [
                86.93497120764555,
                27.89470416425613
              ],
              [
                86.93578406713094,
                27.89470454533944
              ],
              [
                86.93578396057278,
                27.894885093937507
              ],
              [
                86.9365968214236,
                27.894885470223812
              ],
              [
                86.93659671621292,
                27.895066018821876
              ],
              [
                86.93761279398325,
                27.895066482451377
              ],
              [
                86.9376128975051,
                27.894885933853313
              ],
              [
                86.93801932794848,
                27.894886117199462
              ],
              [
                86.93801922510036,
                27.89506666580651
              ],
              [
                86.93903530289765,
                27.89506711894369
              ],
              [
                86.93903520173836,
                27.895247667550738
              ],
              [
                86.93984806534702,
                27.895248024666994
              ],
              [
                86.93984816515884,
                27.89506747606893
              ],
              [
                86.94025459629391,
                27.895067652830427
              ],
              [
                86.94025469544097,
                27.894887104223383
              ],
              [
                86.94045791067165,
                27.89488719215048
              ],
              [
                86.94045796007,
                27.894796917842466
              ],
              [
                86.94106760526795,
                27.894797179845103
              ],
              [
                86.94106755637266,
                27.894887454153118
              ],
              [
                86.94137237922764,
                27.894887584139337
              ],
              [
                86.94137242787141,
                27.894797309831322
              ],
              [
                86.94177885800039,
                27.89479748209226
              ],
              [
                86.94177880969798,
                27.894887756400276
              ],
              [
                86.9418804173223,
                27.89488779928585
              ],
              [
                86.94188036910073,
                27.894978073593865
              ],
              [
                86.94218519220725,
                27.894978201783456
              ],
              [
                86.9421851442462,
                27.89506847609147
              ],
              [
                86.94228675203222,
                27.895068518671614
              ],
              [
                86.94228665626282,
                27.895249067278662
              ],
              [
                86.94238826421952,
                27.895249109786942
              ],
              [
                86.94238821642017,
                27.895339384085975
              ],
              [
                86.94248982446669,
                27.895339426522387
              ],
              [
                86.94248972902967,
                27.895519975120454
              ],
              [
                86.9425913372379,
                27.895520017485
              ],
              [
                86.94259128960923,
                27.895610291784035
              ],
              [
                86.94269289790728,
                27.895610334058752
              ],
              [
                86.94269285035945,
                27.895700608366766
              ],
              [
                86.94279445873836,
                27.89570065056962
              ],
              [
                86.9427943638044,
                27.895881199167682
              ],
              [
                86.94289597235398,
                27.89588124129867
              ],
              [
                86.94289592497684,
                27.895971515597704
              ],
              [
                86.94299753360727,
                27.89597155764784
              ],
              [
                86.94299743901466,
                27.896152106236922
              ],
              [
                86.94309904781578,
                27.89615214822418
              ],
              [
                86.94309900060931,
                27.896242422514227
              ],
              [
                86.94350543615512,
                27.896242589699686
              ],
              [
                86.94350506114442,
                27.896964784011097
              ],
              [
                86.9436066707091,
                27.896964825621062
              ],
              [
                86.94360653032938,
                27.89723564846426
              ],
              [
                86.94370814014559,
                27.897235690002358
              ],
              [
                86.94370809343319,
                27.897325964283425
              ],
              [
                86.94380970333923,
                27.897326005740673
              ],
              [
                86.94380965670769,
                27.89741628002174
              ],
              [
                86.94391126669457,
                27.897416321407125
              ],
              [
                86.94391112706943,
                27.897687144232357
              ],
              [
                86.94401273730784,
                27.897687185545877
              ],
              [
                86.94401236564786,
                27.898409379704574
              ],
              [
                86.94391075473571,
                27.898409338391055
              ],
              [
                86.9439106616433,
                27.898589886926235
              ],
              [
                86.94401227272613,
                27.898589928239755
              ],
              [
                86.94401208689165,
                27.89895102528317
              ],
              [
                86.94411369830686,
                27.898951066515842
              ],
              [
                86.94411355917579,
                27.899221889287176
              ],
              [
                86.94401194750905,
                27.89922184804552
              ],
              [
                86.94401185458732,
                27.899402396553754
              ],
              [
                86.9439102427499,
                27.899402355240234
              ],
              [
                86.94391028929161,
                27.899312080986117
              ],
              [
                86.94370706577847,
                27.8993119981345
              ],
              [
                86.94370715921225,
                27.899131449626267
              ],
              [
                86.94350393604047,
                27.899131366478205
              ],
              [
                86.94350388915738,
                27.89922164073232
              ],
              [
                86.94340227749065,
                27.899221599041507
              ],
              [
                86.94340232445458,
                27.89913132478739
              ],
              [
                86.9431991012828,
                27.899131241181188
              ],
              [
                86.94319914841739,
                27.89904096692707
              ],
              [
                86.9429959254163,
                27.899040883024423
              ],
              [
                86.94299597272158,
                27.898950608770306
              ],
              [
                86.94279274989115,
                27.898950524571216
              ],
              [
                86.94279279735814,
                27.8988602503171
              ],
              [
                86.94269118603276,
                27.89886020809628
              ],
              [
                86.94269113847595,
                27.898950482359382
              ],
              [
                86.94258952706073,
                27.8989504400667
              ],
              [
                86.94258943177644,
                27.899130988583913
              ],
              [
                86.94228459702775,
                27.89913086126569
              ],
              [
                86.94228454912958,
                27.899221135519806
              ],
              [
                86.94197971412936,
                27.899221007527842
              ],
              [
                86.94197966598864,
                27.89931128178196
              ],
              [
                86.94177644248448,
                27.89931119608268
              ],
              [
                86.94177639416411,
                27.899401470327813
              ],
              [
                86.94147155866084,
                27.899401341221942
              ],
              [
                86.94147151009791,
                27.899491615467074
              ],
              [
                86.94136989817964,
                27.899491572276077
              ],
              [
                86.9413698495269,
                27.89958184652121
              ],
              [
                86.94126823751878,
                27.899581803258346
              ],
              [
                86.94126818878519,
                27.899672077503478
              ],
              [
                86.94116657669623,
                27.89967203416875
              ],
              [
                86.94116647904937,
                27.899852582659015
              ],
              [
                86.94106486679873,
                27.89985253924344
              ],
              [
                86.94106476898118,
                27.900033087724722
              ],
              [
                86.94096315655985,
                27.90003304423728
              ],
              [
                86.94096305857163,
                27.90021359270958
              ],
              [
                86.94086144597962,
                27.900213549150273
              ],
              [
                86.94086139690465,
                27.900303823386423
              ],
              [
                86.94045494620426,
                27.900303648385623
              ],
              [
                86.94045489678794,
                27.90039392261279
              ],
              [
                86.94035328402525,
                27.90039387867619
              ],
              [
                86.94035323452809,
                27.900484152912338
              ],
              [
                86.94025162168455,
                27.90048410889489
              ],
              [
                86.94025157209755,
                27.90057438313104
              ],
              [
                86.94035318503092,
                27.900574427139507
              ],
              [
                86.94035313552476,
                27.900664701375657
              ],
              [
                86.94014990950531,
                27.900664613268894
              ],
              [
                86.94014976049277,
                27.90093543595938
              ],
              [
                86.94025137375851,
                27.90093548004869
              ],
              [
                86.94025132417151,
                27.901025754266875
              ],
              [
                86.94035293752708,
                27.901025798284326
              ],
              [
                86.94035288802093,
                27.901116072511492
              ],
              [
                86.94025127459349,
                27.901116028494044
              ],
              [
                86.94025102665847,
                27.90156739960293
              ],
              [
                86.93984457124192,
                27.90156722278753
              ],
              [
                86.93984447139418,
                27.9017477712239
              ],
              [
                86.9394380153039,
                27.901747593213745
              ],
              [
                86.93943791478242,
                27.901928141632144
              ],
              [
                86.9390314580184,
                27.90192796242723
              ],
              [
                86.9390313568232,
                27.90210851084563
              ],
              [
                86.93882812809981,
                27.902108420789524
              ],
              [
                86.93882807733603,
                27.902198694998724
              ],
              [
                86.93842161956589,
                27.902198513988193
              ],
              [
                86.93842167067105,
                27.902108239778993
              ],
              [
                86.93811682760396,
                27.90210810323507
              ],
              [
                86.93811687896064,
                27.90201782902587
              ],
              [
                86.93791365041693,
                27.90201773762229
              ],
              [
                86.9379137019443,
                27.901927463413088
              ],
              [
                86.93730401682522,
                27.901927187405718
              ],
              [
                86.93730406886463,
                27.901836913196515
              ],
              [
                86.93699922656111,
                27.901836774182225
              ],
              [
                86.93699927884306,
                27.901746499973026
              ],
              [
                86.93669443680005,
                27.901746360285
              ],
              [
                86.93669448933353,
                27.901656086066815
              ],
              [
                86.93638964754204,
                27.901655945705052
              ],
              [
                86.93638970033604,
                27.901565671495852
              ],
              [
                86.93598324494644,
                27.9015654832988
              ],
              [
                86.9359832980818,
                27.901475209089597
              ],
              [
                86.93588168432198,
                27.9014751618472
              ],
              [
                86.93588173752919,
                27.901384887637995
              ],
              [
                86.93557689650129,
                27.901384745479604
              ],
              [
                86.935576949969,
                27.90129447126142
              ],
              [
                86.93537372278176,
                27.90129437612085
              ],
              [
                86.93537377642016,
                27.901204101902664
              ],
              [
                86.934967322396,
                27.901203910714223
              ],
              [
                86.93496737636679,
                27.90111363649604
              ],
              [
                86.93456092268399,
                27.901113444103853
              ],
              [
                86.93456097699614,
                27.90102316988567
              ],
              [
                86.93425613698332,
                27.90102302480775
              ],
              [
                86.934256191547,
                27.90093275059855
              ],
              [
                86.93384973854691,
                27.90093255610431
              ],
              [
                86.93384979344296,
                27.900842281895105
              ],
              [
                86.93273204864272,
                27.900841740875745
              ],
              [
                86.93273210446402,
                27.90075146665756
              ],
              [
                86.93202081292438,
                27.90075111765309
              ],
              [
                86.93202086933857,
                27.900660843443887
              ],
              [
                86.93161441737156,
                27.900660642364993
              ],
              [
                86.93161447412712,
                27.90057036814681
              ],
              [
                86.93100479668864,
                27.900570064282682
              ],
              [
                86.93100485394724,
                27.900479790073483
              ],
              [
                86.93070001548853,
                27.90047963712632
              ],
              [
                86.93070007299866,
                27.90038936291712
              ],
              [
                86.92998878385751,
                27.90038900342931
              ],
              [
                86.92998884195156,
                27.900298729211126
              ],
              [
                86.92948077871307,
                27.900298470190897
              ],
              [
                86.92948072018783,
                27.90038874440908
              ],
              [
                86.92917588199859,
                27.90038858809324
              ],
              [
                86.92917594076637,
                27.900298313875055
              ],
              [
                86.92876949018277,
                27.90029810441488
              ],
              [
                86.92876943107362,
                27.900388378624083
              ],
              [
                86.92785491650592,
                27.90038790294817
              ],
              [
                86.9278548566332,
                27.90047817715737
              ],
              [
                86.92724517976964,
                27.90047785666543
              ],
              [
                86.92724511939387,
                27.90056813087463
              ],
              [
                86.92643221624138,
                27.900567699350916
              ],
              [
                86.92643215518288,
                27.900657973551134
              ],
              [
                86.9248063475933,
                27.900657096130665
              ],
              [
                86.92480628518734,
                27.90074737033088
              ],
              [
                86.92419660685054,
                27.900747036346242
              ],
              [
                86.92419654394152,
                27.90083731054646
              ],
              [
                86.92338363883968,
                27.900836861038474
              ],
              [
                86.92338357525693,
                27.900927135229708
              ],
              [
                86.922164216625,
                27.900926451980087
              ],
              [
                86.92216415202715,
                27.90101672617132
              ],
              [
                86.92145285891544,
                27.90101632263013
              ],
              [
                86.92145279373369,
                27.90110659681238
              ],
              [
                86.92094472681211,
                27.901106306315185
              ],
              [
                86.92094466120814,
                27.90119658050642
              ],
              [
                86.92013175348322,
                27.901196111810417
              ],
              [
                86.92013168719653,
                27.90128638599267
              ],
              [
                86.91942039236007,
                27.901285971959155
              ],
              [
                86.91942032548947,
                27.901376246141407
              ],
              [
                86.91901387096226,
                27.901376007890228
              ],
              [
                86.9190139381742,
                27.90128573371696
              ],
              [
                86.91860748399733,
                27.901285494271022
              ],
              [
                86.91860741644403,
                27.90137576845327
              ],
              [
                86.91820096193479,
                27.901375527812572
              ],
              [
                86.9182008940491,
                27.901465801985843
              ],
              [
                86.91789605291339,
                27.901465620723783
              ],
              [
                86.91789598477617,
                27.90155589489705
              ],
              [
                86.91759114338893,
                27.901555712952273
              ],
              [
                86.91759107500019,
                27.901645987125544
              ],
              [
                86.917387847247,
                27.90164586545772
              ],
              [
                86.9173877786786,
                27.901736139622006
              ],
              [
                86.91718455075473,
                27.90173601765774
              ],
              [
                86.91718448202462,
                27.901826291822026
              ],
              [
                86.91698125393906,
                27.901826169552333
              ],
              [
                86.91698118503828,
                27.9019164437256
              ],
              [
                86.91667634264493,
                27.901916259750628
              ],
              [
                86.91667627349261,
                27.9020065339239
              ],
              [
                86.91637143085673,
                27.90200634927519
              ],
              [
                86.91637136145289,
                27.902096623439476
              ],
              [
                86.91616813286426,
                27.902096499975023
              ],
              [
                86.91616806328975,
                27.902186774130325
              ],
              [
                86.9158632201508,
                27.90218658836771
              ],
              [
                86.91586315031576,
                27.90227686252301
              ],
              [
                86.91535507800428,
                27.90227655140948
              ],
              [
                86.91535500775602,
                27.90236682557376
              ],
              [
                86.9145420913983,
                27.902366323891627
              ],
              [
                86.91454237509525,
                27.902005227252452
              ],
              [
                86.91464398930422,
                27.902005290224352
              ],
              [
                86.91464413097752,
                27.901824741904765
              ],
              [
                86.91474574501581,
                27.90182480479582
              ],
              [
                86.91474588652741,
                27.90164425646725
              ],
              [
                86.91464427265981,
                27.901644193576196
              ],
              [
                86.91464434349197,
                27.90155391940293
              ],
              [
                86.91454272971419,
                27.90155385644001
              ],
              [
                86.91454280063618,
                27.90146358226674
              ],
              [
                86.91444118693026,
                27.901463519222975
              ],
              [
                86.91444132894493,
                27.901282970885422
              ],
              [
                86.9143397154097,
                27.90128290776979
              ],
              [
                86.91433978650237,
                27.901192633596523
              ],
              [
                86.91423817305696,
                27.901192570400042
              ],
              [
                86.91423845775104,
                27.90083147370697
              ],
              [
                86.91413684463802,
                27.900831410438624
              ],
              [
                86.91413691590137,
                27.900741136265353
              ],
              [
                86.9136288507764,
                27.900740818800735
              ],
              [
                86.91362892246197,
                27.900650544627464
              ],
              [
                86.91332408364391,
                27.900650353250377
              ],
              [
                86.91332415557203,
                27.90056007907711
              ],
              [
                86.91301931701447,
                27.900559887026283
              ],
              [
                86.91301917264623,
                27.900740435381802
              ],
              [
                86.91312078566942,
                27.900740499467616
              ],
              [
                86.91312071357063,
                27.900830773640884
              ],
              [
                86.91322232667468,
                27.900830837663815
              ],
              [
                86.91322225465674,
                27.900921111837082
              ],
              [
                86.91332386785062,
                27.900921175779164
              ],
              [
                86.91332350818314,
                27.901372546618557
              ],
              [
                86.91322189457604,
                27.901372482676475
              ],
              [
                86.91322167852223,
                27.90164330516933
              ],
              [
                86.91291683692839,
                27.901643112884944
              ],
              [
                86.91291676465892,
                27.901733387049227
              ],
              [
                86.91281515071046,
                27.901733322801718
              ],
              [
                86.91281522306078,
                27.901643048646417
              ],
              [
                86.91271360920214,
                27.901642984327044
              ],
              [
                86.91271368164229,
                27.901552710162758
              ],
              [
                86.91261206786452,
                27.901552645771517
              ],
              [
                86.91261221291548,
                27.901372097442948
              ],
              [
                86.9125105992994,
                27.90137203297086
              ],
              [
                86.91251067191023,
                27.901281758806576
              ],
              [
                86.91240905838397,
                27.90128169426262
              ],
              [
                86.91240913107565,
                27.901191420098336
              ],
              [
                86.91230751763922,
                27.901191355482517
              ],
              [
                86.91230766319325,
                27.901010807144964
              ],
              [
                86.91240927645899,
                27.901010871769767
              ],
              [
                86.91240942184234,
                27.90083032342323
              ],
              [
                86.91251103494638,
                27.900830387967183
              ],
              [
                86.91251110754821,
                27.900740113793915
              ],
              [
                86.91261272057142,
                27.900740178266002
              ],
              [
                86.9126127930924,
                27.900649904092734
              ],
              [
                86.91200311549223,
                27.90064951616426
              ],
              [
                86.91200318851628,
                27.900559241990994
              ],
              [
                86.9121048013688,
                27.90055930683139
              ],
              [
                86.9121049472462,
                27.900378758484855
              ],
              [
                86.91220655992805,
                27.900378823253387
              ],
              [
                86.91220677849714,
                27.900108000715615
              ],
              [
                86.9119019412152,
                27.900107806194423
              ],
              [
                86.91190201432909,
                27.900017532021156
              ],
              [
                86.9118004019886,
                27.900017467028047
              ],
              [
                86.91180047517436,
                27.899927192845794
              ]
            ]
          ]
        ]
      },
      "id": "+9336+1450",
      "properties": {
        "area_m2": 1807634.7895547727,
        "count": 18034,
        "image_id": "COPERNICUS/S2_SR_HARMONIZED/20241028T044911_20241028T045458_T45RVL",
        "lake_id": "imja-tsho",
        "observed_at": "2024-10-28T05:01:05.277000Z",
        "water": 1
      }
    }
  ]
}
