{
  "type": "FeatureCollection",
  "features": [
    {
      "type": "Feature",
      "geometry": {
        "geodesic": false,
        "type": "MultiPolygon",
        "coordinates": [
          [
            [
              [
                86.91810308618165,
                27.896410385921776
              ],
              [
                86.91779825921238,
                27.89641020447107
              ],
              [
                86.91779832742145,
                27.89631993022594
              ],
              [
                86.91769671851254,
                27.896319869589657
              ],
              [
                86.91769678680247,
                27.896229595344522
              ],
              [
                86.91810322208777,
                27.89622983743151
              ],
              [
                86.91810308618165,
                27.896410385921776
              ]
            ]
          ],
          [
            [
              [
                86.91830637194803,
                27.896320232275468
              ],
              [
                86.91820476303913,
                27.89632017201648
              ],
              [
                86.91820489877456,
                27.896139623526214
              ],
              [
                86.9183065075128,
                27.8961396837852
              ],
              [
                86.91830637194803,
                27.896320232275468
              ]
            ]
          ],
          [
            [
              [
                86.92369234084465,
                27.89533030197472
              ],
              [
                86.92348912485042,
                27.895330189325986
              ],
              [
                86.92348918833436,
                27.895239915053903
              ],
              [
                86.92369240415792,
                27.895240027702638
              ],
              [
                86.92369234084465,
                27.89533030197472
              ]
            ]
          ],
          [
            [
              [
                86.93558111949042,
                27.89425307900015
              ],
              [
                86.93558122638095,
                27.894072530384122
              ],
              [
                86.93568283322374,
                27.894072577833132
              ],
              [
                86.93568272650388,
                27.894253126449165
              ],
              [
                86.93558111949042,
                27.89425307900015
              ]
            ]
          ],
          [
            [
              [
                86.93578422695919,
                27.894433722433362
              ],
              [
                86.93568261977504,
                27.894433675056213
              ],
              [
                86.93568267314396,
                27.8943434007482
              ],
              [
                86.93578428023827,
                27.894343448125344
              ],
              [
                86.93578422695919,
                27.894433722433362
              ]
            ]
          ],
          [
            [
              [
                86.93944238718879,
                27.893893732081523
              ],
              [
                86.93934078049872,
                27.8938936874083
              ],
              [
                86.93934083083133,
                27.893803413091305
              ],
              [
                86.93944243743157,
                27.893803457764523
              ],
              [
                86.93944238718879,
                27.893893732081523
              ]
            ]
          ],
          [
            [
              [
                86.93954349229554,
                27.894796519798962
              ],
              [
                86.93954344213361,
                27.894886794097996
              ],
              [
                86.93944183451828,
                27.894886749496642
              ],
              [
                86.93944188476105,
                27.89479647519761
              ],
              [
                86.93954349229554,
                27.894796519798962
              ]
            ]
          ],
          [
            [
              [
                86.94106780084017,
                27.894436082604056
              ],
              [
                86.94106789863078,
                27.89425553397006
              ],
              [
                86.94076307755445,
                27.8942554033101
              ],
              [
                86.94076312669229,
                27.894165129002086
              ],
              [
                86.94086473364287,
                27.894165172624277
              ],
              [
                86.94086483176585,
                27.893984623990278
              ],
              [
                86.94106804530769,
                27.893984711019062
              ],
              [
                86.94106799642138,
                27.89407498533606
              ],
              [
                86.94116960327315,
                27.894075028742655
              ],
              [
                86.9411696520876,
                27.893984754425656
              ],
              [
                86.94127125885852,
                27.893984797751404
              ],
              [
                86.94127116140928,
                27.8941653463854
              ],
              [
                86.94147437530145,
                27.894165432821296
              ],
              [
                86.9414744238554,
                27.894075158495315
              ],
              [
                86.94157603071615,
                27.894075201605467
              ],
              [
                86.94157607918925,
                27.893984927279483
              ],
              [
                86.94177929274007,
                27.893985013266224
              ],
              [
                86.94177924443765,
                27.89407528758322
              ],
              [
                86.9416776375769,
                27.894075244625785
              ],
              [
                86.94167758918466,
                27.894165518951766
              ],
              [
                86.94157598224307,
                27.894165475922463
              ],
              [
                86.94157588529687,
                27.894346024556462
              ],
              [
                86.94167749240916,
                27.89434606757678
              ],
              [
                86.9416774440259,
                27.89443634189378
              ],
              [
                86.94147422963066,
                27.89443625576331
              ],
              [
                86.9414742781846,
                27.89434598144631
              ],
              [
                86.94116945684776,
                27.89434585169365
              ],
              [
                86.94116940804228,
                27.89443612600167
              ],
              [
                86.94106780084017,
                27.894436082604056
              ]
            ]
          ],
          [
            [
              [
                86.91810308618165,
                27.896410385921776
              ],
              [
                86.91830630416116,
                27.896410506520603
              ],
              [
                86.91830637194803,
                27.896320232275468
              ],
              [
                86.91840798084796,
                27.896320292462594
              ],
              [
                86.91840791315093,
                27.896410566698744
              ],
              [
                86.91850952214068,
                27.896410626814003
              ],
              [
                86.91850958975688,
                27.896320352568868
              ],
              [
                86.91871280757469,
                27.896320472565826
              ],
              [
                86.91871267267469,
                27.896501021056093
              ],
              [
                86.9185094545245,
                27.896500901059134
              ],
              [
                86.91850931929211,
                27.89668144954042
              ],
              [
                86.91881414702496,
                27.89668162941907
              ],
              [
                86.91881421438961,
                27.89659135518292
              ],
              [
                86.91891582355005,
                27.896591414992752
              ],
              [
                86.91891575627523,
                27.896681689228902
              ],
              [
                86.91911897476679,
                27.89668180863297
              ],
              [
                86.91911910898406,
                27.896501260142703
              ],
              [
                86.92033841793017,
                27.896501970233988
              ],
              [
                86.92033855012625,
                27.89632142174372
              ],
              [
                86.92044015903517,
                27.896321480430657
              ],
              [
                86.92044022505235,
                27.89623120617654
              ],
              [
                86.92064344270848,
                27.896231323325836
              ],
              [
                86.92064350855499,
                27.89614104907172
              ],
              [
                86.92094833478764,
                27.896141224234217
              ],
              [
                86.92094840038263,
                27.8960509499801
              ],
              [
                86.92115161769739,
                27.896051066383794
              ],
              [
                86.92115168312169,
                27.895960792129678
              ],
              [
                86.92125329169822,
                27.895960850214745
              ],
              [
                86.92125335704168,
                27.89587057596063
              ],
              [
                86.921151748546,
                27.89587051787556
              ],
              [
                86.92115194480992,
                27.895599695095246
              ],
              [
                86.92125355304509,
                27.895599753180313
              ],
              [
                86.92125342237615,
                27.895780301697528
              ],
              [
                86.92135503078201,
                27.89578035971073
              ],
              [
                86.92135496552838,
                27.89587063397383
              ],
              [
                86.92165979101544,
                27.89587080755529
              ],
              [
                86.92165985601754,
                27.895780533301174
              ],
              [
                86.92216789806477,
                27.895780821103425
              ],
              [
                86.92216796264466,
                27.89569054684931
              ],
              [
                86.92257439596264,
                27.895690775749028
              ],
              [
                86.9225745244397,
                27.89551022722283
              ],
              [
                86.92298095708395,
                27.895510454918803
              ],
              [
                86.92298108488727,
                27.89532990638362
              ],
              [
                86.9230826928799,
                27.895329963121213
              ],
              [
                86.92308262906359,
                27.895420237393296
              ],
              [
                86.92318423713705,
                27.89542029405004
              ],
              [
                86.92318430087252,
                27.895330019786943
              ],
              [
                86.92338751685779,
                27.895330132884837
              ],
              [
                86.9233873897282,
                27.895510681420017
              ],
              [
                86.92348899789151,
                27.89551073786117
              ],
              [
                86.92348906137545,
                27.895420463589087
              ],
              [
                86.92369227753139,
                27.89542057623782
              ],
              [
                86.92369234084465,
                27.89533030197472
              ],
              [
                86.92379394883729,
                27.89533035818231
              ],
              [
                86.92379388560487,
                27.895420632454393
              ],
              [
                86.9239971017698,
                27.895420744653972
              ],
              [
                86.92399716483152,
                27.89533047039087
              ],
              [
                86.92450520481263,
                27.895330749578278
              ],
              [
                86.92450526744318,
                27.895240475306196
              ],
              [
                86.92470848327572,
                27.895240586454747
              ],
              [
                86.92470854574456,
                27.89515031218266
              ],
              [
                86.92552140838305,
                27.895150753794457
              ],
              [
                86.92552147017815,
                27.895060479522375
              ],
              [
                86.92582629341942,
                27.89506064388712
              ],
              [
                86.92582635496301,
                27.894970369606057
              ],
              [
                86.9267408239412,
                27.894970858666863
              ],
              [
                86.92674076316119,
                27.895061132938945
              ],
              [
                86.92694397866136,
                27.89506124079966
              ],
              [
                86.9269440392707,
                27.894970966518596
              ],
              [
                86.92704564693993,
                27.894971020336662
              ],
              [
                86.92704558641145,
                27.895061294608748
              ],
              [
                86.92724880191162,
                27.895061402020307
              ],
              [
                86.9272488622784,
                27.89497112773924
              ],
              [
                86.9274520776079,
                27.89497123484537
              ],
              [
                86.92745201742076,
                27.895061509126435
              ],
              [
                86.92826487944839,
                27.89506193455059
              ],
              [
                86.92826493896177,
                27.894971660269523
              ],
              [
                86.92846815430923,
                27.894971765875468
              ],
              [
                86.92846809495754,
                27.895062040165516
              ],
              [
                86.92907774149397,
                27.89506235518672
              ],
              [
                86.92907785918226,
                27.89488180662459
              ],
              [
                86.92999232748673,
                27.89488227409888
              ],
              [
                86.92999238556281,
                27.894791999817812
              ],
              [
                86.92989077806426,
                27.89479194817367
              ],
              [
                86.92989083623017,
                27.894701673883617
              ],
              [
                86.93019565849228,
                27.894701828582495
              ],
              [
                86.9301955426635,
                27.894882377162592
              ],
              [
                86.93060197303502,
                27.894882582382717
              ],
              [
                86.93060203060804,
                27.89479230809267
              ],
              [
                86.93070363811559,
                27.894792359215792
              ],
              [
                86.93070369560776,
                27.894702084925743
              ],
              [
                86.93202459214575,
                27.894702742645244
              ],
              [
                86.93202470493821,
                27.89452219405616
              ],
              [
                86.93212631219423,
                27.894522244128257
              ],
              [
                86.93212619957245,
                27.89470279271734
              ],
              [
                86.93222780699914,
                27.894702842708583
              ],
              [
                86.93222791945922,
                27.894522294119504
              ],
              [
                86.93232952671524,
                27.894522344038883
              ],
              [
                86.93232947057054,
                27.894612618337916
              ],
              [
                86.9329391146366,
                27.894612916282146
              ],
              [
                86.93293922591091,
                27.894432367684082
              ],
              [
                86.93304083309506,
                27.894432417082438
              ],
              [
                86.93304072198244,
                27.89461296567152
              ],
              [
                86.93334554401997,
                27.89461311340845
              ],
              [
                86.93334559932026,
                27.89452283910942
              ],
              [
                86.93426006468724,
                27.894523278277795
              ],
              [
                86.93426011923295,
                27.89443300397876
              ],
              [
                86.93466654795155,
                27.89443319720638
              ],
              [
                86.93466660216488,
                27.89434292290735
              ],
              [
                86.93476820925919,
                27.8943429710301
              ],
              [
                86.9347681551357,
                27.89443324532913
              ],
              [
                86.93486976231985,
                27.894433293380015
              ],
              [
                86.93486987038717,
                27.894252744772967
              ],
              [
                86.93517469142758,
                27.894252888458496
              ],
              [
                86.93517479899184,
                27.894072339851448
              ],
              [
                86.9353780126864,
                27.8940724352705
              ],
              [
                86.93537795907494,
                27.894162709578513
              ],
              [
                86.93547956599858,
                27.89416275717126
              ],
              [
                86.93547951247695,
                27.894253031479273
              ],
              [
                86.93558111949042,
                27.89425307900015
              ],
              [
                86.9355810125909,
                27.8944336276072
              ],
              [
                86.93547940541573,
                27.89443358008632
              ],
              [
                86.93547935188512,
                27.894523854385355
              ],
              [
                86.9357841736801,
                27.894523996732392
              ],
              [
                86.93578422695919,
                27.894433722433362
              ],
              [
                86.93588583414333,
                27.89443376972966
              ],
              [
                86.93588572775586,
                27.894614318336707
              ],
              [
                86.93598733511068,
                27.894614365552158
              ],
              [
                86.93598738821908,
                27.89452409125313
              ],
              [
                86.93619060275805,
                27.89452418547742
              ],
              [
                86.93619054982032,
                27.89461445977645
              ],
              [
                86.93629215717516,
                27.894614506776307
              ],
              [
                86.93629221003202,
                27.894524232477274
              ],
              [
                86.93639381729702,
                27.89452427939628
              ],
              [
                86.93639371175395,
                27.894704828003327
              ],
              [
                86.9365969266253,
                27.894704921625745
              ],
              [
                86.93659687402895,
                27.89479519592478
              ],
              [
                86.93730812668952,
                27.89479552124966
              ],
              [
                86.93730807467706,
                27.894885795548692
              ],
              [
                86.93751128989875,
                27.894885887823637
              ],
              [
                86.93751134174053,
                27.894795613524604
              ],
              [
                86.93761294926603,
                27.8947956595453
              ],
              [
                86.9376128975051,
                27.894885933853313
              ],
              [
                86.9387305812289,
                27.894886435185107
              ],
              [
                86.93873053039323,
                27.894976709493122
              ],
              [
                86.93883213808941,
                27.8949767546155
              ],
              [
                86.93883218883525,
                27.894886480316465
              ],
              [
                86.93934022690294,
                27.894886704823424
              ],
              [
                86.93934017657932,
                27.894976979122454
              ],
              [
                86.93964499966788,
                27.8949771129355
              ],
              [
                86.93964504974896,
                27.894886838627485
              ],
              [
                86.9397466573643,
                27.894886883085107
              ],
              [
                86.93974670735554,
                27.894796608777092
              ],
              [
                86.93954349229554,
                27.894796519798962
              ],
              [
                86.93954354244849,
                27.894706245490948
              ],
              [
                86.93934032755918,
                27.894706156216376
              ],
              [
                86.93934047853902,
                27.894435333283344
              ],
              [
                86.93944208573215,
                27.894435377965547
              ],
              [
                86.9394421862177,
                27.894254829340532
              ],
              [
                86.9392389721728,
                27.894254739913247
              ],
              [
                86.93923892175935,
                27.894345014230247
              ],
              [
                86.93913731465605,
                27.89434496939533
              ],
              [
                86.93913736515036,
                27.894254695087312
              ],
              [
                86.93893415110546,
                27.894254605210868
              ],
              [
                86.93893420177044,
                27.894164330902854
              ],
              [
                86.93903580870305,
                27.894164375872517
              ],
              [
                86.93903590986234,
                27.893983827247503
              ],
              [
                86.93913751663325,
                27.893983872145302
              ],
              [
                86.93913746613896,
                27.894074146462298
              ],
              [
                86.93934067985148,
                27.8940742360423
              ],
              [
                86.9393407301751,
                27.8939839617253
              ],
              [
                86.93944233694602,
                27.89398400639852
              ],
              [
                86.93944238718879,
                27.893893732081523
              ],
              [
                86.93954399387887,
                27.893893776682877
              ],
              [
                86.939543893564,
                27.894074325316872
              ],
              [
                86.93964550041576,
                27.894074369837377
              ],
              [
                86.93964545034368,
                27.894164644154376
              ],
              [
                86.93974705728527,
                27.894164688603016
              ],
              [
                86.93974700729403,
                27.894254962920016
              ],
              [
                86.9401534353928,
                27.894255139977957
              ],
              [
                86.94015338574292,
                27.894345414285972
              ],
              [
                86.9402549928552,
                27.894345458366306
              ],
              [
                86.94025494328616,
                27.89443573267432
              ],
              [
                86.9403565504793,
                27.894435776682787
              ],
              [
                86.9403565009911,
                27.8945260509908
              ],
              [
                86.94055971554803,
                27.89452613877417
              ],
              [
                86.94055976486555,
                27.894435864457172
              ],
              [
                86.94066137205867,
                27.89443590824106
              ],
              [
                86.94066142129533,
                27.89434563392406
              ],
              [
                86.94076302840762,
                27.8943456776271
              ],
              [
                86.94076293011396,
                27.894526226252115
              ],
              [
                86.940661322831,
                27.894526182549075
              ],
              [
                86.94066117513898,
                27.894797005482104
              ],
              [
                86.94076278266449,
                27.894797049185144
              ],
              [
                86.94076283181131,
                27.89470677487713
              ],
              [
                86.94096604670962,
                27.894706862058626
              ],
              [
                86.94096599773347,
                27.89479713636664
              ],
              [
                86.94106760526795,
                27.894797179845103
              ],
              [
                86.94106770305855,
                27.89461663122009
              ],
              [
                86.94137252514999,
                27.894616761206308
              ],
              [
                86.94137257379376,
                27.894526486898293
              ],
              [
                86.94167739563365,
                27.89452661621078
              ],
              [
                86.94167729885814,
                27.89470716482681
              ],
              [
                86.94177890631178,
                27.894707207784247
              ],
              [
                86.94177885800039,
                27.89479748209226
              ],
              [
                86.9416772504659,
                27.894797439143808
              ],
              [
                86.94167720208264,
                27.894887713451823
              ],
              [
                86.9418804173223,
                27.89488779928585
              ],
              [
                86.94188032087916,
                27.89506834790188
              ],
              [
                86.94238835981824,
                27.895068561170913
              ],
              [
                86.94238816862081,
                27.89542965839399
              ],
              [
                86.94248977674819,
                27.89542970082142
              ],
              [
                86.94248982446669,
                27.895339426522387
              ],
              [
                86.94259143250423,
                27.895339468877953
              ],
              [
                86.94259138487556,
                27.895429743176987
              ],
              [
                86.94269299300294,
                27.89542978546069
              ],
              [
                86.94269294545511,
                27.89552005975972
              ],
              [
                86.94279455366333,
                27.895520101971556
              ],
              [
                86.94279441127138,
                27.895790924868653
              ],
              [
                86.94289601974012,
                27.895790966999638
              ],
              [
                86.94289587759968,
                27.896061789887753
              ],
              [
                86.94309909503123,
                27.89606187393413
              ],
              [
                86.94309904781578,
                27.89615214822418
              ],
              [
                86.9434038742281,
                27.896152273727807
              ],
              [
                86.94340378030924,
                27.896332822307908
              ],
              [
                86.94350538928103,
                27.896332863989734
              ],
              [
                86.94350515490159,
                27.89678423543998
              ],
              [
                86.9436067642956,
                27.896784277049946
              ],
              [
                86.94360657712262,
                27.897145374183193
              ],
              [
                86.94370818685798,
                27.89714541572129
              ],
              [
                86.94370814014559,
                27.897235690002358
              ],
              [
                86.94350492051316,
                27.897235606854295
              ],
              [
                86.94350463924167,
                27.89777725251374
              ],
              [
                86.94330141860314,
                27.897777169069236
              ],
              [
                86.94330123041507,
                27.89813826614858
              ],
              [
                86.94350445172734,
                27.89813834959309
              ],
              [
                86.94350426420402,
                27.898499446663454
              ],
              [
                86.943910708194,
                27.898499612663137
              ],
              [
                86.94391061510159,
                27.898680161189336
              ],
              [
                86.94401222626527,
                27.898680202502856
              ],
              [
                86.94401213335252,
                27.898860751020074
              ],
              [
                86.94411374468687,
                27.898860792261726
              ],
              [
                86.94411369830686,
                27.898951066515842
              ],
              [
                86.94401208689165,
                27.89895102528317
              ],
              [
                86.94401199396992,
                27.899131573791404
              ],
              [
                86.94411360555581,
                27.89913161503306
              ],
              [
                86.94411351280475,
                27.899312163541293
              ],
              [
                86.94401190104819,
                27.899312122308622
              ],
              [
                86.94401185458732,
                27.899402396553754
              ],
              [
                86.9439102427499,
                27.899402355240234
              ],
              [
                86.94391028929161,
                27.899312080986117
              ],
              [
                86.94380867753505,
                27.899312039600733
              ],
              [
                86.94380872416659,
                27.899221765346617
              ],
              [
                86.94370711249985,
                27.899221723880384
              ],
              [
                86.94370715921225,
                27.899131449626267
              ],
              [
                86.9431991012828,
                27.899131241181188
              ],
              [
                86.94319914841739,
                27.89904096692707
              ],
              [
                86.9429959254163,
                27.899040883024423
              ],
              [
                86.94299597272158,
                27.898950608770306
              ],
              [
                86.94269113847595,
                27.898950482359382
              ],
              [
                86.94269109091914,
                27.8990407566135
              ],
              [
                86.9425894794141,
                27.899040714320815
              ],
              [
                86.94258943177644,
                27.899130988583913
              ],
              [
                86.94248782019055,
                27.899130946219366
              ],
              [
                86.94248777247203,
                27.899221220473482
              ],
              [
                86.94218293746283,
                27.899221092930677
              ],
              [
                86.94218288948382,
                27.899311367184794
              ],
              [
                86.94177644248448,
                27.89931119608268
              ],
              [
                86.94177639416411,
                27.899401470327813
              ],
              [
                86.94167478233567,
                27.89940142737038
              ],
              [
                86.94167473393445,
                27.89949170161551
              ],
              [
                86.94136989817964,
                27.899491572276077
              ],
              [
                86.9413698495269,
                27.89958184652121
              ],
              [
                86.94126823751878,
                27.899581803258346
              ],
              [
                86.94126833499499,
                27.89940125476808
              ],
              [
                86.94086188766327,
                27.89940108097102
              ],
              [
                86.94086178951335,
                27.899581629461288
              ],
              [
                86.9404553415079,
                27.89958145446049
              ],
              [
                86.94045524268424,
                27.899762002950755
              ],
              [
                86.93943912100426,
                27.899761560207082
              ],
              [
                86.93943902049176,
                27.899942108688368
              ],
              [
                86.93903257114782,
                27.899941929492435
              ],
              [
                86.93903246996159,
                27.900122477964736
              ],
              [
                86.93882924495725,
                27.900122387917612
              ],
              [
                86.93882894037446,
                27.90066403329858
              ],
              [
                86.93903216638492,
                27.900664123354687
              ],
              [
                86.93903206519869,
                27.900844671800037
              ],
              [
                86.93984497062392,
                27.900845029015112
              ],
              [
                86.93984487078517,
                27.901025577460462
              ],
              [
                86.94004809747834,
                27.901025666016384
              ],
              [
                86.94004799797194,
                27.901206214461734
              ],
              [
                86.94035283852375,
                27.901206346729676
              ],
              [
                86.94035269001428,
                27.90147716939321
              ],
              [
                86.94045430379205,
                27.901477213338794
              ],
              [
                86.9404541555341,
                27.901748035993347
              ],
              [
                86.9405557695634,
                27.90174807985808
              ],
              [
                86.94055547355056,
                27.902289725131254
              ],
              [
                86.94045385901819,
                27.902289681266517
              ],
              [
                86.94045380960186,
                27.90237995547572
              ],
              [
                86.93994573652682,
                27.90237973501118
              ],
              [
                86.93994578637434,
                27.902289460810966
              ],
              [
                86.93903125561899,
                27.90228905926403
              ],
              [
                86.93903130622108,
                27.902198785054832
              ],
              [
                86.93842161956589,
                27.902198513988193
              ],
              [
                86.93842167067105,
                27.902108239778993
              ],
              [
                86.93811682760396,
                27.90210810323507
              ],
              [
                86.93811687896064,
                27.90201782902587
              ],
              [
                86.93760880761036,
                27.90201759995547
              ],
              [
                86.93760885938926,
                27.90192732574627
              ],
              [
                86.93740563101623,
                27.90192723359709
              ],
              [
                86.9374056829658,
                27.90183695938789
              ],
              [
                86.93710084066228,
                27.901836820589192
              ],
              [
                86.93710089286338,
                27.901746546379993
              ],
              [
                86.93669443680005,
                27.901746360285
              ],
              [
                86.93669448933353,
                27.901656086066815
              ],
              [
                86.93628803361156,
                27.901655898768077
              ],
              [
                86.9362880864864,
                27.901565624558877
              ],
              [
                86.93598324494644,
                27.9015654832988
              ],
              [
                86.9359832980818,
                27.901475209089597
              ],
              [
                86.93588168432198,
                27.9014751618472
              ],
              [
                86.93588173752919,
                27.901384887637995
              ],
              [
                86.93557689650129,
                27.901384745479604
              ],
              [
                86.935576949969,
                27.90129447126142
              ],
              [
                86.93537372278176,
                27.90129437612085
              ],
              [
                86.93537377642016,
                27.901204101902664
              ],
              [
                86.9350689359043,
                27.901203958621377
              ],
              [
                86.93506898978524,
                27.901113684403192
              ],
              [
                86.93456092268399,
                27.901113444103853
              ],
              [
                86.93456097699614,
                27.90102316988567
              ],
              [
                86.93425613698332,
                27.90102302480775
              ],
              [
                86.934256191547,
                27.90093275059855
              ],
              [
                86.93384973854691,
                27.90093255610431
              ],
              [
                86.93384979344296,
                27.900842281895105
              ],
              [
                86.93374818027604,
                27.900842233080656
              ],
              [
                86.93374812529913,
                27.900932507298837
              ],
              [
                86.93364651205137,
                27.90093245841252
              ],
              [
                86.93364656710911,
                27.90084218420332
              ],
              [
                86.93273204864272,
                27.900841740875745
              ],
              [
                86.93273210446402,
                27.90075146665756
              ],
              [
                86.93202081292438,
                27.90075111765309
              ],
              [
                86.93202086933857,
                27.900660843443887
              ],
              [
                86.93161441737156,
                27.900660642364993
              ],
              [
                86.93161447412712,
                27.90057036814681
              ],
              [
                86.93100479668864,
                27.900570064282682
              ],
              [
                86.93100485394724,
                27.900479790073483
              ],
              [
                86.93070001548853,
                27.90047963712632
              ],
              [
                86.93070007299866,
                27.90038936291712
              ],
              [
                86.93029362205573,
                27.90038915793954
              ],
              [
                86.93029379560126,
                27.90011833529397
              ],
              [
                86.93009057063284,
                27.90011823235602
              ],
              [
                86.93009068666824,
                27.899937683919653
              ],
              [
                86.92988746204118,
                27.89993758068526
              ],
              [
                86.92988757840894,
                27.89975703223991
              ],
              [
                86.92968435412325,
                27.899756928709074
              ],
              [
                86.92968447082339,
                27.899576380263724
              ],
              [
                86.92948124687906,
                27.89957627642746
              ],
              [
                86.92948136392056,
                27.899395727973126
              ],
              [
                86.92805879867281,
                27.899394992782913
              ],
              [
                86.92805867927773,
                27.899575541228266
              ],
              [
                86.92765223139804,
                27.899575328471272
              ],
              [
                86.92765211132922,
                27.89975587690764
              ],
              [
                86.9272456627758,
                27.89975566295589
              ],
              [
                86.92724542127272,
                27.900116759819642
              ],
              [
                86.92704219633126,
                27.900116652390118
              ],
              [
                86.92704207523836,
                27.9002972008175
              ],
              [
                86.92683884995554,
                27.90029709308255
              ],
              [
                86.92683866781313,
                27.900567915710152
              ],
              [
                86.92653382912982,
                27.90056775355526
              ],
              [
                86.92653376816116,
                27.90065802775548
              ],
              [
                86.9249079605626,
                27.900657151529767
              ],
              [
                86.92490789824647,
                27.900747425729985
              ],
              [
                86.92429821990967,
                27.900747092194504
              ],
              [
                86.9242981570815,
                27.900837366394722
              ],
              [
                86.92358686511065,
                27.900836973866873
              ],
              [
                86.92358680169858,
                27.900927248058107
              ],
              [
                86.92277389593198,
                27.900926794956863
              ],
              [
                86.92277383184617,
                27.901017069148097
              ],
              [
                86.92257060523384,
                27.901016955124938
              ],
              [
                86.92257066949034,
                27.900926680933704
              ],
              [
                86.92226582983685,
                27.900926509328535
              ],
              [
                86.92226576532883,
                27.90101678351977
              ],
              [
                86.92155447221712,
                27.9010163804996
              ],
              [
                86.92155440711622,
                27.901106654690835
              ],
              [
                86.92104634019462,
                27.901106364570932
              ],
              [
                86.92104627467151,
                27.90119663875318
              ],
              [
                86.92023336694659,
                27.901196170659052
              ],
              [
                86.92023330074075,
                27.90128644485029
              ],
              [
                86.9197252330017,
                27.90128614985253
              ],
              [
                86.91972516638263,
                27.901376424034783
              ],
              [
                86.91830257555985,
                27.901375588080548
              ],
              [
                86.918302507764,
                27.901465862262796
              ],
              [
                86.9180992803342,
                27.901465741637022
              ],
              [
                86.91809921236766,
                27.901556015819274
              ],
              [
                86.91769275718468,
                27.90155577367839
              ],
              [
                86.91769268887678,
                27.901646047851656
              ],
              [
                86.9174894611236,
                27.901645926327564
              ],
              [
                86.91748939264502,
                27.90173620050083
              ],
              [
                86.91728616472116,
                27.901736078680297
              ],
              [
                86.9172860960719,
                27.90182635284458
              ],
              [
                86.91698125393906,
                27.901826169552333
              ],
              [
                86.91698118503828,
                27.9019164437256
              ],
              [
                86.91687957091015,
                27.901916382478465
              ],
              [
                86.91687970887342,
                27.90173583414091
              ],
              [
                86.91667648094955,
                27.90173571142206
              ],
              [
                86.91667634264493,
                27.901916259750628
              ],
              [
                86.91626988614142,
                27.901916013414613
              ],
              [
                86.91626974715408,
                27.902096561743182
              ],
              [
                86.91586328997684,
                27.902096314203423
              ],
              [
                86.91586315031576,
                27.90227686252301
              ],
              [
                86.91576153585527,
                27.902276800449425
              ],
              [
                86.91576146593938,
                27.902367074613707
              ],
              [
                86.9145420913983,
                27.902366323891627
              ],
              [
                86.91454237509525,
                27.902005227252452
              ],
              [
                86.91464398930422,
                27.902005290224352
              ],
              [
                86.91464406013638,
                27.90191501606905
              ],
              [
                86.9147456742645,
                27.901915078960105
              ],
              [
                86.91474588652741,
                27.90164425646725
              ],
              [
                86.91464427265981,
                27.901644193576196
              ],
              [
                86.91464434349197,
                27.90155391940293
              ],
              [
                86.91454272971419,
                27.90155385644001
              ],
              [
                86.91454280063618,
                27.90146358226674
              ],
              [
                86.91444118693026,
                27.901463519222975
              ],
              [
                86.91444125794209,
                27.90137324505869
              ],
              [
                86.914339644326,
                27.901373181934073
              ],
              [
                86.91433985759504,
                27.901102359423252
              ],
              [
                86.91423824423049,
                27.901102296235756
              ],
              [
                86.91423845775104,
                27.90083147370697
              ],
              [
                86.91403523153397,
                27.90083134709841
              ],
              [
                86.9140353028692,
                27.900741072925143
              ],
              [
                86.91352723775321,
                27.90074075508323
              ],
              [
                86.91352730951962,
                27.900650480909963
              ],
              [
                86.91332408364391,
                27.900650353250377
              ],
              [
                86.91332415557203,
                27.90056007907711
              ],
              [
                86.91301931701447,
                27.900559887026283
              ],
              [
                86.91301917264623,
                27.900740435381802
              ],
              [
                86.91312078566942,
                27.900740499467616
              ],
              [
                86.91312071357063,
                27.900830773640884
              ],
              [
                86.91322232667468,
                27.900830837663815
              ],
              [
                86.91322225465674,
                27.900921111837082
              ],
              [
                86.91332386785062,
                27.900921175779164
              ],
              [
                86.91332336431795,
                27.901553094947126
              ],
              [
                86.91322175054017,
                27.901553031005044
              ],
              [
                86.91322167852223,
                27.90164330516933
              ],
              [
                86.91312006465462,
                27.9016432411464
              ],
              [
                86.91311999255583,
                27.901733515310685
              ],
              [
                86.91281515071046,
                27.901733322801718
              ],
              [
                86.91281522306078,
                27.901643048646417
              ],
              [
                86.91271360920214,
                27.901642984327044
              ],
              [
                86.91271368164229,
                27.901552710162758
              ],
              [
                86.91261206786452,
                27.901552645771517
              ],
              [
                86.91261221291548,
                27.901372097442948
              ],
              [
                86.9125105992994,
                27.90137203297086
              ],
              [
                86.91251067191023,
                27.901281758806576
              ],
              [
                86.91240905838397,
                27.90128169426262
              ],
              [
                86.91240942184234,
                27.90083032342323
              ],
              [
                86.91261264805043,
                27.900830452430288
              ],
              [
                86.91261272057142,
                27.900740178266002
              ],
              [
                86.91251110754821,
                27.900740113793915
              ],
              [
                86.91251118015904,
                27.900649839620648
              ],
              [
                86.91240956722568,
                27.900649775076694
              ],
              [
                86.912409494534,
                27.90074004924996
              ],
              [
                86.9121046554824,
                27.900739855177928
              ],
              [
                86.9121049472462,
                27.900378758484855
              ],
              [
                86.91220655992805,
                27.900378823253387
              ],
              [
                86.91220677849714,
                27.900108000715615
              ],
              [
                86.9119019412152,
                27.900107806194423
              ],
              [
                86.91190201432909,
                27.900017532021156
              ],
              [
                86.9118004019886,
                27.900017467028047
              ],
              [
                86.91180047517436,
                27.899927192845794
              ],
              [
                86.91190208743399,
                27.899927257838904
              ],
              [
                86.91190216054787,
                27.89983698365665
              ],
              [
                86.91200377271765,
                27.899837048568916
              ],
              [
                86.91200391876575,
                27.89965650019543
              ],
              [
                86.91210553077386,
                27.899656565035826
              ],
              [
                86.91210560370807,
                27.899566290853574
              ],
              [
                86.91220721563532,
                27.899566355613125
              ],
              [
                86.91220714278195,
                27.899656629795377
              ],
              [
                86.91241036678916,
                27.899656759098878
              ],
              [
                86.91241029410648,
                27.89974703329011
              ],
              [
                86.91261351828437,
                27.899747162288186
              ],
              [
                86.91261337325136,
                27.89992771066167
              ],
              [
                86.91281659777061,
                27.899927839363304
              ],
              [
                86.91281688717187,
                27.899566742616333
              ],
              [
                86.91271527524462,
                27.89956667830594
              ],
              [
                86.91271549253811,
                27.899295855732237
              ],
              [
                86.91261388087136,
                27.89929579134998
              ],
              [
                86.91261395338337,
                27.899205517149763
              ],
              [
                86.91251234179748,
                27.899205452686658
              ],
              [
                86.91251241439933,
                27.899115178495425
              ],
              [
                86.91261402590438,
                27.89911524295853
              ],
              [
                86.91261409841638,
                27.899024968767293
              ],
              [
                86.91271570983159,
                27.899025033149552
              ],
              [
                86.91271578226275,
                27.898934758958315
              ],
              [
                86.91291900493148,
                27.898934887507234
              ],
              [
                86.91291907719196,
                27.898844613307016
              ],
              [
                86.91302068844547,
                27.898844677464695
              ],
              [
                86.91302104932566,
                27.898393306463607
              ],
              [
                86.91312266015697,
                27.898393370549417
              ],
              [
                86.91312287642639,
                27.898122547921815
              ],
              [
                86.91322448700616,
                27.89812261193576
              ],
              [
                86.91322434298826,
                27.898303160354164
              ],
              [
                86.91403722895598,
                27.89830366973486
              ],
              [
                86.91403715762075,
                27.898393943944065
              ],
              [
                86.91413876845206,
                27.898394007284274
              ],
              [
                86.91413883970642,
                27.898303733075075
              ],
              [
                86.9142404504479,
                27.898303796334435
              ],
              [
                86.91424073510605,
                27.89794269948865
              ],
              [
                86.91444395592424,
                27.897942825782795
              ],
              [
                86.91444409791197,
                27.89776227735541
              ],
              [
                86.9148505388836,
                27.897762529045387
              ],
              [
                86.91485068019757,
                27.89758198060902
              ],
              [
                86.91505390034203,
                27.897582106004847
              ],
              [
                86.91505404131465,
                27.897401557559498
              ],
              [
                86.91566370076886,
                27.89740193195036
              ],
              [
                86.91566377074761,
                27.897311657723193
              ],
              [
                86.91576538057281,
                27.89731171985966
              ],
              [
                86.91576545047073,
                27.897221445632493
              ],
              [
                86.91688315764054,
                27.89722212416596
              ],
              [
                86.91688329556787,
                27.897041575711626
              ],
              [
                86.9174929530368,
                27.89704194199968
              ],
              [
                86.91749308995801,
                27.89686139352738
              ],
              [
                86.9178995275969,
                27.89686163622522
              ],
              [
                86.9178996638354,
                27.89668108775292
              ],
              [
                86.91820449156825,
                27.896681268979048
              ],
              [
                86.91820462730368,
                27.896500720497762
              ],
              [
                86.91810301823308,
                27.896500660166907
              ],
              [
                86.91810308618165,
                27.896410385921776
              ]
            ],
            [
              [
                86.92318423713705,
                27.89542029405004
              ],
              [
                86.92328584521952,
                27.895420350643903
              ],
              [
                86.9232857815649,
                27.895510624907004
              ],
              [
                86.9231841734016,
                27.895510568322123
              ],
              [
                86.92318423713705,
                27.89542029405004
              ]
            ],
            [
              [
                86.93537795907494,
                27.894162709578513
              ],
              [
                86.9353779054545,
                27.894252983877546
              ],
              [
                86.93527629844104,
                27.894252936212936
              ],
              [
                86.93527635214232,
                27.89416266190492
              ],
              [
                86.93537795907494,
                27.894162709578513
              ]
            ],
            [
              [
                86.93547940541573,
                27.89443358008632
              ],
              [
                86.93537779823158,
                27.894433532493576
              ],
              [
                86.93537785184304,
                27.89434325818556
              ],
              [
                86.93547945894635,
                27.894343305778307
              ],
              [
                86.93547940541573,
                27.89443358008632
              ]
            ],
            [
              [
                86.9132230468181,
                27.89992809586825
              ],
              [
                86.913223190845,
                27.899747547494766
              ],
              [
                86.91342641503188,
                27.89974767529808
              ],
              [
                86.91342627134635,
                27.899928223671566
              ],
              [
                86.9132230468181,
                27.89992809586825
              ]
            ],
            [
              [
                86.91830610080953,
                27.896681329238035
              ],
              [
                86.91830623637429,
                27.896500780756753
              ],
              [
                86.91840784545388,
                27.896500840943876
              ],
              [
                86.91840771005081,
                27.89668138942516
              ],
              [
                86.91830610080953,
                27.896681329238035
              ]
            ],
            [
              [
                86.93801562478745,
                27.90138586387315
              ],
              [
                86.9380157276715,
                27.90120531543678
              ],
              [
                86.93821895469706,
                27.901205406687648
              ],
              [
                86.93821885214538,
                27.901385955124017
              ],
              [
                86.93801562478745,
                27.90138586387315
              ]
            ],
            [
              [
                86.93821905723975,
                27.90102485825128
              ],
              [
                86.93821915978243,
                27.90084430980593
              ],
              [
                86.93842238613425,
                27.900844400751367
              ],
              [
                86.93842228392394,
                27.901024949196717
              ],
              [
                86.93821905723975,
                27.90102485825128
              ]
            ],
            [
              [
                86.93954364277234,
                27.894525696874915
              ],
              [
                86.9395437430872,
                27.8943451482499
              ],
              [
                86.93964535019948,
                27.89434519277939
              ],
              [
                86.93964525004631,
                27.894525741404404
              ],
              [
                86.93954364277234,
                27.894525696874915
              ]
            ],
            [
              [
                86.93984656800816,
                27.897956253143892
              ],
              [
                86.93984666783794,
                27.897775704617693
              ],
              [
                86.94004988846748,
                27.897775793155645
              ],
              [
                86.94004978897907,
                27.89795634169083
              ],
              [
                86.93984656800816,
                27.897956253143892
              ]
            ],
            [
              [
                86.93995002205666,
                27.894616148842747
              ],
              [
                86.93995007187723,
                27.89452587453473
              ],
              [
                86.94025489371712,
                27.89452600699132
              ],
              [
                86.94025484414809,
                27.894616281299335
              ],
              [
                86.93995002205666,
                27.894616148842747
              ]
            ],
            [
              [
                86.94045800946836,
                27.89470664353445
              ],
              [
                86.9404580588757,
                27.894616369226434
              ],
              [
                86.94055966623053,
                27.894616413082186
              ],
              [
                86.940559616922,
                27.8947066873902
              ],
              [
                86.94045800946836,
                27.89470664353445
              ]
            ],
            [
              [
                86.94137242787141,
                27.894797309831322
              ],
              [
                86.9413724765062,
                27.894707035523307
              ],
              [
                86.94157569140451,
                27.89470712180649
              ],
              [
                86.94157564293141,
                27.894797396114505
              ],
              [
                86.94137242787141,
                27.894797309831322
              ]
            ],
            [
              [
                86.94137242787141,
                27.894797309831322
              ],
              [
                86.94137237922764,
                27.894887584139337
              ],
              [
                86.94127077160333,
                27.894887540885456
              ],
              [
                86.94127082033692,
                27.89479726657744
              ],
              [
                86.94137242787141,
                27.894797309831322
              ]
            ]
          ],
          [
            [
              [
                86.93629221003202,
                27.894524232477274
              ],
              [
                86.93619060275805,
                27.89452418547742
              ],
              [
                86.93619065569577,
                27.8944339111694
              ],
              [
                86.93629226287992,
                27.89443395816926
              ],
              [
                86.93629221003202,
                27.894524232477274
              ]
            ]
          ],
          [
            [
              [
                86.94076293011396,
                27.894526226252115
              ],
              [
                86.94086453738794,
                27.894526269883286
              ],
              [
                86.94086458645391,
                27.894435995566287
              ],
              [
                86.94106780084017,
                27.894436082604056
              ],
              [
                86.94106770305855,
                27.89461663122009
              ],
              [
                86.94076288095815,
                27.89461650056013
              ],
              [
                86.94076293011396,
                27.894526226252115
              ]
            ]
          ]
        ]
      },
      "id": "+9407+1457",
      "properties": {
        "area_m2": 1806832.9445548295,
        "count": 18026,
        "image_id": "COPERNICUS/S2_SR_HARMONIZED/20241117T045101_20241117T045056_T45RVL",
        "lake_id": "imja-tsho",
        "observed_at": "2024-11-17T05:01:04.210000Z",
        "water": 1
      }
    }
  ]
}
