{
  "type": "FeatureCollection",
  "features": [
    {
      "type": "Feature",
      "geometry": {
        "geodesic": false,
        "type": "MultiPolygon",
        "coordinates": [
          [
            [
              [
                86.91627370759261,
                27.896950932492473
              ],
              [
                86.91617209809979,
                27.896950870733296
              ],
              [
                86.91617216765634,
                27.89686059650613
              ],
              [
                86.91627377706831,
                27.896860658265304
              ],
              [
                86.91627370759261,
                27.896950932492473
              ]
            ]
          ],
          [
            [
              [
                86.91962735443684,
                27.896230734587967
              ],
              [
                86.91962742112776,
                27.89614046034283
              ],
              [
                86.91972902986599,
                27.896140519550794
              ],
              [
                86.9197289632649,
                27.896230793795926
              ],
              [
                86.91962735443684,
                27.896230734587967
              ]
            ]
          ],
          [
            [
              [
                86.92033861622429,
                27.896231147489605
              ],
              [
                86.92023700739622,
                27.8962310887308
              ],
              [
                86.92023707357511,
                27.896140814476684
              ],
              [
                86.92033868232232,
                27.89614087324447
              ],
              [
                86.92033861622429,
                27.896231147489605
              ]
            ]
          ],
          [
            [
              [
                86.92105020555546,
                27.895780185455532
              ],
              [
                86.9209485971496,
                27.89578012721775
              ],
              [
                86.92094866273561,
                27.895689852963635
              ],
              [
                86.92105027106061,
                27.89568991119243
              ],
              [
                86.92105020555546,
                27.895780185455532
              ]
            ]
          ],
          [
            [
              [
                86.92135503078201,
                27.89578035971073
              ],
              [
                86.92125342237615,
                27.895780301697528
              ],
              [
                86.92125348771063,
                27.89569002744341
              ],
              [
                86.92135509603563,
                27.895690085456614
              ],
              [
                86.92135503078201,
                27.89578035971073
              ]
            ]
          ],
          [
            [
              [
                86.92846809495754,
                27.895062040165516
              ],
              [
                86.92846815430923,
                27.894971765875468
              ],
              [
                86.92856976197847,
                27.894971818570642
              ],
              [
                86.92856982124033,
                27.894881544289575
              ],
              [
                86.92867142882871,
                27.894881596903904
              ],
              [
                86.92867131046668,
                27.895062145475016
              ],
              [
                86.92846809495754,
                27.895062040165516
              ]
            ]
          ],
          [
            [
              [
                86.93923866970106,
                27.894796385770324
              ],
              [
                86.93923877052796,
                27.89461583715429
              ],
              [
                86.9394419852466,
                27.89461592658158
              ],
              [
                86.93944193500383,
                27.894706200889594
              ],
              [
                86.93934032755918,
                27.894706156216376
              ],
              [
                86.93934027723554,
                27.894796430515406
              ],
              [
                86.93923866970106,
                27.894796385770324
              ]
            ]
          ],
          [
            [
              [
                86.91627370759261,
                27.896950932492473
              ],
              [
                86.91637531708542,
                27.896950994179782
              ],
              [
                86.91637545585716,
                27.896770445716466
              ],
              [
                86.91617223721289,
                27.89677032226998
              ],
              [
                86.91617230676945,
                27.89668004803383
              ],
              [
                86.91607069753715,
                27.896679986202788
              ],
              [
                86.91607076717455,
                27.896589711966637
              ],
              [
                86.91657881294081,
                27.896590020385226
              ],
              [
                86.916578882156,
                27.896499746149075
              ],
              [
                86.91678210029721,
                27.89649986899369
              ],
              [
                86.91678196219921,
                27.89668041746599
              ],
              [
                86.91688357143151,
                27.89668047877601
              ],
              [
                86.91688364040417,
                27.89659020453986
              ],
              [
                86.9171884678675,
                27.89659038801177
              ],
              [
                86.91718833044324,
                27.896770936493056
              ],
              [
                86.91708672111211,
                27.896770875407615
              ],
              [
                86.91708658352614,
                27.89695142387093
              ],
              [
                86.91718819300998,
                27.89695148495637
              ],
              [
                86.9171882617311,
                27.89686121072022
              ],
              [
                86.91739148054606,
                27.89686133266652
              ],
              [
                86.91739154908751,
                27.89677105843037
              ],
              [
                86.91749315840964,
                27.89677111929123
              ],
              [
                86.91749308995801,
                27.89686139352738
              ],
              [
                86.91769630877297,
                27.896861515024526
              ],
              [
                86.91769658193269,
                27.89650041807094
              ],
              [
                86.91749336379146,
                27.89650029658278
              ],
              [
                86.91749343225207,
                27.896410022337648
              ],
              [
                86.91759504124184,
                27.896410083126643
              ],
              [
                86.91759517798339,
                27.896229534636376
              ],
              [
                86.91820483090684,
                27.896229897771345
              ],
              [
                86.91820476303913,
                27.89632017201648
              ],
              [
                86.91810315413022,
                27.89632011167664
              ],
              [
                86.91810308618165,
                27.896410385921776
              ],
              [
                86.91850952214068,
                27.896410626814003
              ],
              [
                86.91850958975688,
                27.896320352568868
              ],
              [
                86.91861119866579,
                27.89632041260328
              ],
              [
                86.91861113113045,
                27.896410686848412
              ],
              [
                86.9189159581087,
                27.896410866502485
              ],
              [
                86.91891589083387,
                27.89650114074762
              ],
              [
                86.91881428175428,
                27.89650108093779
              ],
              [
                86.91881421438961,
                27.89659135518292
              ],
              [
                86.91911904187093,
                27.896591534387838
              ],
              [
                86.91911910898406,
                27.896501260142703
              ],
              [
                86.91942393621386,
                27.89650143868287
              ],
              [
                86.91942406992808,
                27.8963208901926
              ],
              [
                86.919525678837,
                27.896320949553274
              ],
              [
                86.91952574560878,
                27.896230675299158
              ],
              [
                86.91962735443684,
                27.896230734587967
              ],
              [
                86.91962722106396,
                27.896411283078233
              ],
              [
                86.91983043905246,
                27.896411401431273
              ],
              [
                86.91983050557272,
                27.896321127186138
              ],
              [
                86.91993211448163,
                27.896321186241384
              ],
              [
                86.91993204804223,
                27.8964114604955
              ],
              [
                86.92013526603971,
                27.8964115783904
              ],
              [
                86.92013533229945,
                27.896321304145268
              ],
              [
                86.92033855012625,
                27.89632142174372
              ],
              [
                86.92033861622429,
                27.896231147489605
              ],
              [
                86.92044022505235,
                27.89623120617654
              ],
              [
                86.92044035707775,
                27.89605065767729
              ],
              [
                86.92054196573513,
                27.89605071628338
              ],
              [
                86.92054189980777,
                27.896140990537496
              ],
              [
                86.92084672604044,
                27.896141165924572
              ],
              [
                86.92084679171626,
                27.896050891670455
              ],
              [
                86.92105000904002,
                27.89605100821788
              ],
              [
                86.92105020555546,
                27.895780185455532
              ],
              [
                86.9211518139703,
                27.895780243612464
              ],
              [
                86.921151748546,
                27.89587051787556
              ],
              [
                86.92135496552838,
                27.89587063397383
              ],
              [
                86.92135503078201,
                27.89578035971073
              ],
              [
                86.9215582476027,
                27.895780475512552
              ],
              [
                86.92155818251976,
                27.89587074976667
              ],
              [
                86.92165979101544,
                27.89587080755529
              ],
              [
                86.92165985601754,
                27.895780533301174
              ],
              [
                86.92216789806477,
                27.895780821103425
              ],
              [
                86.92216796264466,
                27.89569054684931
              ],
              [
                86.92257439596264,
                27.895690775749028
              ],
              [
                86.92257446020118,
                27.895600501485927
              ],
              [
                86.92298089317781,
                27.895600729181904
              ],
              [
                86.92298095708395,
                27.895510454918803
              ],
              [
                86.9232857815649,
                27.895510624907004
              ],
              [
                86.92328584521952,
                27.895420350643903
              ],
              [
                86.92338745329299,
                27.89542040715692
              ],
              [
                86.92338751685779,
                27.895330132884837
              ],
              [
                86.92348912485042,
                27.895330189325986
              ],
              [
                86.92348906137545,
                27.895420463589087
              ],
              [
                86.9239971017698,
                27.895420744653972
              ],
              [
                86.92399716483152,
                27.89533047039087
              ],
              [
                86.92440359681102,
                27.895330693891715
              ],
              [
                86.9244036595314,
                27.895240419619633
              ],
              [
                86.92460687536395,
                27.895240530920894
              ],
              [
                86.92460693791364,
                27.89515025664881
              ],
              [
                86.92470854574456,
                27.89515031218266
              ],
              [
                86.92470848327572,
                27.895240586454747
              ],
              [
                86.92491169909928,
                27.895240697306853
              ],
              [
                86.92491176139745,
                27.895150423034767
              ],
              [
                86.9254198005521,
                27.895150698853495
              ],
              [
                86.92541986242807,
                27.89506042458141
              ],
              [
                86.92623272441078,
                27.89506086198909
              ],
              [
                86.926232785613,
                27.894970587717005
              ],
              [
                86.9269440392707,
                27.894970966518596
              ],
              [
                86.92694397866136,
                27.89506124079966
              ],
              [
                86.92704558641145,
                27.895061294608748
              ],
              [
                86.92704564693993,
                27.894971020336662
              ],
              [
                86.92714725460917,
                27.894971074073883
              ],
              [
                86.92714719416153,
                27.89506134835495
              ],
              [
                86.92724880191162,
                27.895061402020307
              ],
              [
                86.9272488622784,
                27.89497112773924
              ],
              [
                86.92755368527712,
                27.894971288286147
              ],
              [
                86.92755362517084,
                27.895061562567214
              ],
              [
                86.92846809495754,
                27.895062040165516
              ],
              [
                86.92846797625415,
                27.895242588727648
              ],
              [
                86.92907762380568,
                27.895242903757836
              ],
              [
                86.92907791802192,
                27.89479153233454
              ],
              [
                86.92917952552945,
                27.894791584580556
              ],
              [
                86.92917946677065,
                27.894881858861623
              ],
              [
                86.92948428953581,
                27.894882015141533
              ],
              [
                86.92948434804309,
                27.894791740851485
              ],
              [
                86.92958595554164,
                27.894791792792073
              ],
              [
                86.9295858971242,
                27.894882067082122
              ],
              [
                86.92968750471259,
                27.894882118950846
              ],
              [
                86.92968762138577,
                27.89470157037075
              ],
              [
                86.92999244364788,
                27.894701725527764
              ],
              [
                86.92999238556281,
                27.894791999817812
              ],
              [
                86.93029720808543,
                27.89479215429211
              ],
              [
                86.93029732374352,
                27.89461160571201
              ],
              [
                86.93039893108936,
                27.894611657050728
              ],
              [
                86.93039881559297,
                27.89479220563981
              ],
              [
                86.93060203060804,
                27.89479230809267
              ],
              [
                86.93060208819006,
                27.89470203380262
              ],
              [
                86.93080530303445,
                27.894702135968018
              ],
              [
                86.93080536044579,
                27.89461186167797
              ],
              [
                86.9310085751195,
                27.894611963537937
              ],
              [
                86.93100846064718,
                27.894792512118038
              ],
              [
                86.9313132831698,
                27.894792664355528
              ],
              [
                86.93131334015892,
                27.894702390056494
              ],
              [
                86.93151655501231,
                27.894702491170865
              ],
              [
                86.93151661183074,
                27.894612216880816
              ],
              [
                86.93192304119614,
                27.894612418202254
              ],
              [
                86.93192309768222,
                27.894522143912205
              ],
              [
                86.93212631219423,
                27.894522244128257
              ],
              [
                86.93212625588784,
                27.894612518418306
              ],
              [
                86.9329391146366,
                27.894612916282146
              ],
              [
                86.93293917027825,
                27.894522641983112
              ],
              [
                86.93304077753426,
                27.894522691372487
              ],
              [
                86.93304072198244,
                27.89461296567152
              ],
              [
                86.93334554401997,
                27.89461311340845
              ],
              [
                86.93334559932026,
                27.89452283910942
              ],
              [
                86.93354881385025,
                27.8945229372324
              ],
              [
                86.93354870358205,
                27.89470348582148
              ],
              [
                86.93293905899495,
                27.894703190572194
              ],
              [
                86.93293894772064,
                27.894883739161276
              ],
              [
                86.9347678845272,
                27.894884616824292
              ],
              [
                86.93476810101221,
                27.894523519637147
              ],
              [
                86.93436167195223,
                27.894523326696987
              ],
              [
                86.93436172641708,
                27.894433052397957
              ],
              [
                86.9345649407764,
                27.894433149011764
              ],
              [
                86.93456499506159,
                27.894342874712734
              ],
              [
                86.93476820925919,
                27.8943429710301
              ],
              [
                86.9347681551357,
                27.89443324532913
              ],
              [
                86.93486976231985,
                27.894433293380015
              ],
              [
                86.93486987038717,
                27.894252744772967
              ],
              [
                86.9350730844141,
                27.894252840641172
              ],
              [
                86.93507313828607,
                27.894162566333158
              ],
              [
                86.93517474520971,
                27.894162614159463
              ],
              [
                86.9351745838633,
                27.894433437065544
              ],
              [
                86.93527619104745,
                27.894433484819984
              ],
              [
                86.93527624474874,
                27.89434321051197
              ],
              [
                86.93537785184304,
                27.89434325818556
              ],
              [
                86.93537779823158,
                27.894433532493576
              ],
              [
                86.9355810125909,
                27.8944336276072
              ],
              [
                86.93558095915012,
                27.894523901915214
              ],
              [
                86.9357841736801,
                27.894523996732392
              ],
              [
                86.93578422695919,
                27.894433722433362
              ],
              [
                86.93588583414333,
                27.89443376972966
              ],
              [
                86.93588572775586,
                27.894614318336707
              ],
              [
                86.93629215717516,
                27.894614506776307
              ],
              [
                86.93629221003202,
                27.894524232477274
              ],
              [
                86.93639381729702,
                27.89452427939628
              ],
              [
                86.93639371175395,
                27.894704828003327
              ],
              [
                86.9365969266253,
                27.894704921625745
              ],
              [
                86.93659697923064,
                27.894614647326716
              ],
              [
                86.9368001939403,
                27.894614740643707
              ],
              [
                86.93680008907097,
                27.894795289250755
              ],
              [
                86.93710491164748,
                27.894795428678268
              ],
              [
                86.93710496382164,
                27.894705154370254
              ],
              [
                86.93740978614663,
                27.894705293124034
              ],
              [
                86.93740973421502,
                27.894795567423063
              ],
              [
                86.93751134174053,
                27.894795613524604
              ],
              [
                86.93751154912559,
                27.894434516301526
              ],
              [
                86.93761315630974,
                27.894434562331202
              ],
              [
                86.93761305278788,
                27.89461511093825
              ],
              [
                86.93781626750652,
                27.894615202764037
              ],
              [
                86.93781642227725,
                27.894344379848974
              ],
              [
                86.93791802938055,
                27.894344425645087
              ],
              [
                86.93791792637074,
                27.89452497426112
              ],
              [
                86.93801953364472,
                27.894525019985366
              ],
              [
                86.9380194307966,
                27.8947055686014
              ],
              [
                86.93812103823227,
                27.8947056142448
              ],
              [
                86.93812098689355,
                27.894795888552814
              ],
              [
                86.93832420195355,
                27.894795979624018
              ],
              [
                86.93832430428962,
                27.89461543101697
              ],
              [
                86.93842591165344,
                27.894615476444773
              ],
              [
                86.93842575839186,
                27.894886299359836
              ],
              [
                86.93862897361356,
                27.89488638998188
              ],
              [
                86.93862902453006,
                27.894796115682848
              ],
              [
                86.93873063206455,
                27.894796160886074
              ],
              [
                86.93873078456255,
                27.89452533796203
              ],
              [
                86.93883239183653,
                27.894525383093388
              ],
              [
                86.93883244258237,
                27.894435108785373
              ],
              [
                86.9389340497755,
                27.894435153835882
              ],
              [
                86.93893394844552,
                27.894615702451915
              ],
              [
                86.93913716316416,
                27.89461579232836
              ],
              [
                86.93913706217556,
                27.894796340935407
              ],
              [
                86.93923866970106,
                27.894796385770324
              ],
              [
                86.93923861928761,
                27.894886660069353
              ],
              [
                86.93913701168125,
                27.894886615243422
              ],
              [
                86.93913696117797,
                27.894976889551437
              ],
              [
                86.93934017657932,
                27.894976979122454
              ],
              [
                86.93934022690294,
                27.894886704823424
              ],
              [
                86.93944183451828,
                27.894886749496642
              ],
              [
                86.93944188476105,
                27.89479647519761
              ],
              [
                86.93964509982105,
                27.894796564328452
              ],
              [
                86.93964504974896,
                27.894886838627485
              ],
              [
                86.93954344213361,
                27.894886794097996
              ],
              [
                86.9395433919717,
                27.89497706840601
              ],
              [
                86.93984821506923,
                27.894977201760916
              ],
              [
                86.93984826497963,
                27.894886927461883
              ],
              [
                86.9400514802103,
                27.894887015990854
              ],
              [
                86.94005152994103,
                27.89479674168284
              ],
              [
                86.94025474501001,
                27.894796829915364
              ],
              [
                86.94025469544097,
                27.894887104223383
              ],
              [
                86.94066112590232,
                27.894887279781138
              ],
              [
                86.94066117513898,
                27.894797005482104
              ],
              [
                86.94086439019898,
                27.894797092807334
              ],
              [
                86.940864341133,
                27.89488736711535
              ],
              [
                86.94177880969798,
                27.894887756400276
              ],
              [
                86.94177876139557,
                27.89497803070829
              ],
              [
                86.94188036910073,
                27.894978073593865
              ],
              [
                86.94188032087916,
                27.89506834790188
              ],
              [
                86.9420835364512,
                27.895068433430477
              ],
              [
                86.94208344034944,
                27.89524898204651
              ],
              [
                86.94188022443603,
                27.895248896508928
              ],
              [
                86.94187993509767,
                27.89579054230312
              ],
              [
                86.94208315202616,
                27.895790627840704
              ],
              [
                86.9420830559154,
                27.895971176438767
              ],
              [
                86.94228627317626,
                27.895971261670923
              ],
              [
                86.94228617740688,
                27.896151810260005
              ],
              [
                86.943302265427,
                27.89615223196513
              ],
              [
                86.94330221838221,
                27.89624250625518
              ],
              [
                86.94350543615512,
                27.896242589699686
              ],
              [
                86.9435051080275,
                27.896874509721048
              ],
              [
                86.94360671750235,
                27.896874551331013
              ],
              [
                86.94360657712262,
                27.897145374183193
              ],
              [
                86.94370818685798,
                27.89714541572129
              ],
              [
                86.94370814014559,
                27.897235690002358
              ],
              [
                86.9438097499618,
                27.89723573145961
              ],
              [
                86.94380970333923,
                27.897326005740673
              ],
              [
                86.94391131323628,
                27.897326047126057
              ],
              [
                86.94391126669457,
                27.897416321407125
              ],
              [
                86.94401287668147,
                27.897416362720644
              ],
              [
                86.94401269085597,
                27.89777745981796
              ],
              [
                86.94411430117523,
                27.897777501059615
              ],
              [
                86.94411425480419,
                27.897867775331697
              ],
              [
                86.9440126443951,
                27.897867734090042
              ],
              [
                86.94401208689165,
                27.89895102528317
              ],
              [
                86.94411369830686,
                27.898951066515842
              ],
              [
                86.94411365193582,
                27.899041340778943
              ],
              [
                86.94401204043078,
                27.899041299537288
              ],
              [
                86.94401185458732,
                27.899402396553754
              ],
              [
                86.9439102427499,
                27.899402355240234
              ],
              [
                86.94391028929161,
                27.899312080986117
              ],
              [
                86.94380867753505,
                27.899312039600733
              ],
              [
                86.94380872416659,
                27.899221765346617
              ],
              [
                86.94370711249985,
                27.899221723880384
              ],
              [
                86.94370715921225,
                27.899131449626267
              ],
              [
                86.94360554762636,
                27.899131408088166
              ],
              [
                86.9436055944196,
                27.89904113383405
              ],
              [
                86.94350398292354,
                27.899041092215104
              ],
              [
                86.94350393604047,
                27.899131366478205
              ],
              [
                86.94330071286869,
                27.899131283024715
              ],
              [
                86.94330075992244,
                27.8990410087706
              ],
              [
                86.94309753692134,
                27.89904092501168
              ],
              [
                86.9430975841368,
                27.898950650757563
              ],
              [
                86.94289436130637,
                27.898950566711186
              ],
              [
                86.9428944086925,
                27.898860292448084
              ],
              [
                86.94269118603276,
                27.89886020809628
              ],
              [
                86.9426912811374,
                27.898679659579063
              ],
              [
                86.94187839185489,
                27.898679319189437
              ],
              [
                86.941878488307,
                27.89849877067222
              ],
              [
                86.94147204434398,
                27.898498598671793
              ],
              [
                86.94147194720915,
                27.89867914718901
              ],
              [
                86.94126872489076,
                27.89867906074413
              ],
              [
                86.94126862742355,
                27.898859609261347
              ],
              [
                86.94106540476382,
                27.89885952251104
              ],
              [
                86.94106520914669,
                27.899220619518523
              ],
              [
                86.9408619858132,
                27.899220532471773
              ],
              [
                86.94086188766327,
                27.89940108097102
              ],
              [
                86.94065866399743,
                27.899400993618844
              ],
              [
                86.94065856551512,
                27.89958154210911
              ],
              [
                86.94025211750967,
                27.89958136651542
              ],
              [
                86.94025201834465,
                27.899761915005687
              ],
              [
                86.94004879400505,
                27.899761826755196
              ],
              [
                86.94004869450765,
                27.899942375236478
              ],
              [
                86.93964224516372,
                27.899942197837177
              ],
              [
                86.93964214498361,
                27.900122746309478
              ],
              [
                86.93943891997925,
                27.90012265716067
              ],
              [
                86.93943871894528,
                27.900483754096285
              ],
              [
                86.93923549325822,
                27.90048366464205
              ],
              [
                86.93923539240436,
                27.90066421310537
              ],
              [
                86.93862571435503,
                27.90066394294603
              ],
              [
                86.93862561248606,
                27.900844491400363
              ],
              [
                86.93821915978243,
                27.90084430980593
              ],
              [
                86.93821905723975,
                27.90102485825128
              ],
              [
                86.93801583054658,
                27.90102476700041
              ],
              [
                86.93801603630568,
                27.900663670100727
              ],
              [
                86.93781281029523,
                27.900663578553416
              ],
              [
                86.93781260386238,
                27.90102467544412
              ],
              [
                86.93760937717819,
                27.901024583600364
              ],
              [
                86.9376092736204,
                27.901205132036733
              ],
              [
                86.93781250064595,
                27.90120522388947
              ],
              [
                86.93781239742054,
                27.90138577232584
              ],
              [
                86.93740594270469,
                27.90138558832392
              ],
              [
                86.93740604659484,
                27.90120503988755
              ],
              [
                86.93638991149403,
                27.90120457464108
              ],
              [
                86.93638980591503,
                27.901385123068465
              ],
              [
                86.9361865785571,
                27.901385029122654
              ],
              [
                86.93618647264573,
                27.901565577550038
              ],
              [
                86.93598324494644,
                27.9015654832988
              ],
              [
                86.9359832980818,
                27.901475209089597
              ],
              [
                86.93578007055318,
                27.901475114532932
              ],
              [
                86.93578012385022,
                27.90138484032373
              ],
              [
                86.93557689650129,
                27.901384745479604
              ],
              [
                86.935576949969,
                27.90129447126142
              ],
              [
                86.93527210919262,
                27.901294328429287
              ],
              [
                86.93527216291187,
                27.901204054220088
              ],
              [
                86.934967322396,
                27.901203910714223
              ],
              [
                86.93496737636679,
                27.90111363649604
              ],
              [
                86.93456092268399,
                27.901113444103853
              ],
              [
                86.93456097699614,
                27.90102316988567
              ],
              [
                86.9341545236547,
                27.901022976298727
              ],
              [
                86.93415457829921,
                27.900932702089523
              ],
              [
                86.93364651205137,
                27.90093245841252
              ],
              [
                86.93364656710911,
                27.90084218420332
              ],
              [
                86.93252882231785,
                27.900841641531056
              ],
              [
                86.93252887830984,
                27.900751367321856
              ],
              [
                86.93202081292438,
                27.90075111765309
              ],
              [
                86.93202086933857,
                27.900660843443887
              ],
              [
                86.9315128043843,
                27.900660591906625
              ],
              [
                86.9315128612207,
                27.90057031768844
              ],
              [
                86.93090318378222,
                27.90057001338414
              ],
              [
                86.93090324113066,
                27.900479739165956
              ],
              [
                86.93059840267193,
                27.9004795860032
              ],
              [
                86.93059846026293,
                27.900389311785016
              ],
              [
                86.92805814195941,
                27.900388009173955
              ],
              [
                86.92805808225738,
                27.90047828339214
              ],
              [
                86.92734679257724,
                27.900477910267902
              ],
              [
                86.92734673228232,
                27.900568184477102
              ],
              [
                86.92653382912982,
                27.90056775355526
              ],
              [
                86.92653376816116,
                27.90065802775548
              ],
              [
                86.9248063475933,
                27.900657096130665
              ],
              [
                86.92480628518734,
                27.90074737033088
              ],
              [
                86.92439983295982,
                27.9007471479709
              ],
              [
                86.92439977022147,
                27.900837422171115
              ],
              [
                86.92368847825063,
                27.900837030164293
              ],
              [
                86.9236884149194,
                27.90092730436451
              ],
              [
                86.92277389593198,
                27.900926794956863
              ],
              [
                86.92277383184617,
                27.901017069148097
              ],
              [
                86.92246899193218,
                27.901016898001068
              ],
              [
                86.9224690562785,
                27.900926623809834
              ],
              [
                86.92236744305767,
                27.90092656660512
              ],
              [
                86.9223673786305,
                27.901016840796352
              ],
              [
                86.92155447221712,
                27.9010163804996
              ],
              [
                86.92155440711622,
                27.901106654690835
              ],
              [
                86.92104634019462,
                27.901106364570932
              ],
              [
                86.92104627467151,
                27.90119663875318
              ],
              [
                86.92023336694659,
                27.901196170659052
              ],
              [
                86.92023330074075,
                27.90128644485029
              ],
              [
                86.91952200590428,
                27.901286031328812
              ],
              [
                86.91952193911453,
                27.901376305511064
              ],
              [
                86.91901387096226,
                27.901376007890228
              ],
              [
                86.9190139381742,
                27.90128573371696
              ],
              [
                86.91870909754155,
                27.90128555424255
              ],
              [
                86.91870903007808,
                27.9013758284248
              ],
              [
                86.91830257555985,
                27.901375588080548
              ],
              [
                86.918302507764,
                27.901465862262796
              ],
              [
                86.91799766662828,
                27.901465681216337
              ],
              [
                86.91799759857192,
                27.901555955389604
              ],
              [
                86.91769275718468,
                27.90155577367839
              ],
              [
                86.91769268887678,
                27.901646047851656
              ],
              [
                86.9174894611236,
                27.901645926327564
              ],
              [
                86.91748939264502,
                27.90173620050083
              ],
              [
                86.91718455075473,
                27.90173601765774
              ],
              [
                86.91718448202462,
                27.901826291822026
              ],
              [
                86.91698125393906,
                27.901826169552333
              ],
              [
                86.91698118503828,
                27.9019164437256
              ],
              [
                86.91667634264493,
                27.901916259750628
              ],
              [
                86.91667627349261,
                27.9020065339239
              ],
              [
                86.91647304507468,
                27.90200641089962
              ],
              [
                86.91647297575169,
                27.902096685063903
              ],
              [
                86.91626974715408,
                27.902096561743182
              ],
              [
                86.91626967766939,
                27.902186835907468
              ],
              [
                86.91606644891009,
                27.902186712290302
              ],
              [
                86.91606637924575,
                27.902276986445603
              ],
              [
                86.91565992139476,
                27.90227673830397
              ],
              [
                86.91565985139803,
                27.902367012468257
              ],
              [
                86.9145420913983,
                27.902366323891627
              ],
              [
                86.91454237509525,
                27.902005227252452
              ],
              [
                86.91464398930422,
                27.902005290224352
              ],
              [
                86.91464406013638,
                27.90191501606905
              ],
              [
                86.9147456742645,
                27.901915078960105
              ],
              [
                86.91474588652741,
                27.90164425646725
              ],
              [
                86.91464427265981,
                27.901644193576196
              ],
              [
                86.91464434349197,
                27.90155391940293
              ],
              [
                86.91454272971419,
                27.90155385644001
              ],
              [
                86.91454280063618,
                27.90146358226674
              ],
              [
                86.91444118693026,
                27.901463519222975
              ],
              [
                86.91444132894493,
                27.901282970885422
              ],
              [
                86.9143397154097,
                27.90128290776979
              ],
              [
                86.91433978650237,
                27.901192633596523
              ],
              [
                86.91423817305696,
                27.901192570400042
              ],
              [
                86.91423845775104,
                27.90083147370697
              ],
              [
                86.91413684463802,
                27.900831410438624
              ],
              [
                86.91413691590137,
                27.900741136265353
              ],
              [
                86.91352723775321,
                27.90074075508323
              ],
              [
                86.91352730951962,
                27.900650480909963
              ],
              [
                86.91332408364391,
                27.900650353250377
              ],
              [
                86.91332415557203,
                27.90056007907711
              ],
              [
                86.91301931701447,
                27.900559887026283
              ],
              [
                86.91301917264623,
                27.900740435381802
              ],
              [
                86.91312078566942,
                27.900740499467616
              ],
              [
                86.91312071357063,
                27.900830773640884
              ],
              [
                86.91322232667468,
                27.900830837663815
              ],
              [
                86.91322225465674,
                27.900921111837082
              ],
              [
                86.91332386785062,
                27.900921175779164
              ],
              [
                86.91332336431795,
                27.901553094947126
              ],
              [
                86.91322175054017,
                27.901553031005044
              ],
              [
                86.91322167852223,
                27.90164330516933
              ],
              [
                86.91312006465462,
                27.9016432411464
              ],
              [
                86.91311999255583,
                27.901733515310685
              ],
              [
                86.91281515071046,
                27.901733322801718
              ],
              [
                86.91281522306078,
                27.901643048646417
              ],
              [
                86.91271360920214,
                27.901642984327044
              ],
              [
                86.91271368164229,
                27.901552710162758
              ],
              [
                86.91261206786452,
                27.901552645771517
              ],
              [
                86.91261221291548,
                27.901372097442948
              ],
              [
                86.9125105992994,
                27.90137203297086
              ],
              [
                86.91251067191023,
                27.901281758806576
              ],
              [
                86.91240905838397,
                27.90128169426262
              ],
              [
                86.91240913107565,
                27.901191420098336
              ],
              [
                86.91230751763922,
                27.901191355482517
              ],
              [
                86.91230766319325,
                27.901010807144964
              ],
              [
                86.91240927645899,
                27.901010871769767
              ],
              [
                86.91240942184234,
                27.90083032342323
              ],
              [
                86.91251103494638,
                27.900830387967183
              ],
              [
                86.91251118015904,
                27.900649839620648
              ],
              [
                86.91230795429232,
                27.900649710460875
              ],
              [
                86.91230788151081,
                27.900739984634143
              ],
              [
                86.9121046554824,
                27.900739855177928
              ],
              [
                86.9121049472462,
                27.900378758484855
              ],
              [
                86.91220655992805,
                27.900378823253387
              ],
              [
                86.91220677849714,
                27.900108000715615
              ],
              [
                86.9119019412152,
                27.900107806194423
              ],
              [
                86.91190201432909,
                27.900017532021156
              ],
              [
                86.9118004019886,
                27.900017467028047
              ],
              [
                86.91180047517436,
                27.899927192845794
              ],
              [
                86.91190208743399,
                27.899927257838904
              ],
              [
                86.91190216054787,
                27.89983698365665
              ],
              [
                86.91200377271765,
                27.899837048568916
              ],
              [
                86.91200391876575,
                27.89965650019543
              ],
              [
                86.91210553077386,
                27.899656565035826
              ],
              [
                86.91210560370807,
                27.899566290853574
              ],
              [
                86.91230882755359,
                27.899566420300808
              ],
              [
                86.91230875478107,
                27.899656694492045
              ],
              [
                86.91241036678916,
                27.899656759098878
              ],
              [
                86.91241029410648,
                27.89974703329011
              ],
              [
                86.9127151303823,
                27.899747226679427
              ],
              [
                86.91271520281346,
                27.899656952488193
              ],
              [
                86.91281681482155,
                27.899657016807566
              ],
              [
                86.91281688717187,
                27.899566742616333
              ],
              [
                86.91271527524462,
                27.89956667830594
              ],
              [
                86.91271549253811,
                27.899295855732237
              ],
              [
                86.91261388087136,
                27.89929579134998
              ],
              [
                86.91261395338337,
                27.899205517149763
              ],
              [
                86.91251234179748,
                27.899205452686658
              ],
              [
                86.91251241439933,
                27.899115178495425
              ],
              [
                86.91261402590438,
                27.89911524295853
              ],
              [
                86.91261409841638,
                27.899024968767293
              ],
              [
                86.91271570983159,
                27.899025033149552
              ],
              [
                86.91271585469391,
                27.898844484758097
              ],
              [
                86.91302068844547,
                27.898844677464695
              ],
              [
                86.91302104932566,
                27.898393306463607
              ],
              [
                86.91312266015697,
                27.898393370549417
              ],
              [
                86.91312287642639,
                27.898122547921815
              ],
              [
                86.91322448700616,
                27.89812261193576
              ],
              [
                86.91322455900612,
                27.898032337726562
              ],
              [
                86.91332616949607,
                27.89803240165966
              ],
              [
                86.9133263133433,
                27.89785185324126
              ],
              [
                86.91342792366257,
                27.897851917102493
              ],
              [
                86.913427779995,
                27.898032465520895
              ],
              [
                86.91352939048495,
                27.898032529310264
              ],
              [
                86.9135296774877,
                27.897671432455493
              ],
              [
                86.91332645718154,
                27.897671304813873
              ],
              [
                86.91332638526242,
                27.897761579023076
              ],
              [
                86.913224775024,
                27.897761515089975
              ],
              [
                86.91322484702397,
                27.897671240880776
              ],
              [
                86.91312323687539,
                27.89767117686683
              ],
              [
                86.91312330896518,
                27.897580902657626
              ],
              [
                86.91292008882073,
                27.897580774414138
              ],
              [
                86.91292016108122,
                27.897490500195953
              ],
              [
                86.913123381046,
                27.897490628439442
              ],
              [
                86.91312345313581,
                27.897400354221258
              ],
              [
                86.91322506304185,
                27.897400418226223
              ],
              [
                86.91322499103289,
                27.897490692444407
              ],
              [
                86.91332660101979,
                27.897490756377508
              ],
              [
                86.91332667293891,
                27.897400482159323
              ],
              [
                86.9137331125451,
                27.897400737146114
              ],
              [
                86.91373289780283,
                27.897671559800667
              ],
              [
                86.9138345079604,
                27.897671623356473
              ],
              [
                86.91383465095423,
                27.897491074920104
              ],
              [
                86.91393626094111,
                27.897491138404046
              ],
              [
                86.9139360467019,
                27.8977619610586
              ],
              [
                86.91383443646349,
                27.897761897574657
              ],
              [
                86.9138343649576,
                27.897852171783857
              ],
              [
                86.91363114431007,
                27.897852044591396
              ],
              [
                86.91363107264249,
                27.8979423188006
              ],
              [
                86.91403751427887,
                27.89794257289806
              ],
              [
                86.9140375856141,
                27.897852298679876
              ],
              [
                86.9142408062616,
                27.89785242527945
              ],
              [
                86.91424087742614,
                27.897762151061265
              ],
              [
                86.91444409791197,
                27.89776227735541
              ],
              [
                86.91444416890582,
                27.897672003137227
              ],
              [
                86.91464738922096,
                27.89767212913493
              ],
              [
                86.91464746004414,
                27.897581854916744
              ],
              [
                86.91485068019757,
                27.89758198060902
              ],
              [
                86.91485075085006,
                27.897491706390834
              ],
              [
                86.91495236083696,
                27.89749176912019
              ],
              [
                86.91495243140861,
                27.897401494902006
              ],
              [
                86.91505404131465,
                27.897401557559498
              ],
              [
                86.91505411180545,
                27.897311283341313
              ],
              [
                86.91485089215506,
                27.897311157945484
              ],
              [
                86.91485096280756,
                27.897220883718315
              ],
              [
                86.9147493530722,
                27.897220820917095
              ],
              [
                86.91474942381453,
                27.89713054668993
              ],
              [
                86.91485103346005,
                27.89713060950013
              ],
              [
                86.91485117477404,
                27.8969500610458
              ],
              [
                86.91515600322553,
                27.89695024901827
              ],
              [
                86.9151558624236,
                27.897130797472606
              ],
              [
                86.91525747207811,
                27.897130859986365
              ],
              [
                86.91525761270937,
                27.89695031153203
              ],
              [
                86.91535922220218,
                27.896950373964945
              ],
              [
                86.91535894127205,
                27.89731147086463
              ],
              [
                86.91546055109724,
                27.897311533225675
              ],
              [
                86.91546076153658,
                27.897040710544175
              ],
              [
                86.91556237111024,
                27.897040772833357
              ],
              [
                86.91556230105063,
                27.897131047060522
              ],
              [
                86.91566391070513,
                27.89713110926886
              ],
              [
                86.91566384072638,
                27.897221383496024
              ],
              [
                86.91586706020608,
                27.897221507688112
              ],
              [
                86.91586713001416,
                27.897131233460946
              ],
              [
                86.91607034933217,
                27.89713135735659
              ],
              [
                86.91607041897856,
                27.897041083129423
              ],
              [
                86.91627363812589,
                27.89704120671964
              ],
              [
                86.91627370759261,
                27.896950932492473
              ]
            ],
            [
              [
                86.91657881294081,
                27.896590020385226
              ],
              [
                86.91668042209227,
                27.896590081847954
              ],
              [
                86.91668035295793,
                27.896680356084104
              ],
              [
                86.91657874371663,
                27.896680294621373
              ],
              [
                86.91657881294081,
                27.896590020385226
              ]
            ],
            [
              [
                86.91962722106396,
                27.896411283078233
              ],
              [
                86.91962715437305,
                27.896501557323365
              ],
              [
                86.91952554529345,
                27.89650149804354
              ],
              [
                86.91952561206523,
                27.896411223798406
              ],
              [
                86.91962722106396,
                27.896411283078233
              ]
            ],
            [
              [
                86.92135496552838,
                27.89587063397383
              ],
              [
                86.92145657402408,
                27.895870691906183
              ],
              [
                86.92145650886027,
                27.8959609661603
              ],
              [
                86.92135490027476,
                27.895960908227945
              ],
              [
                86.92135496552838,
                27.89587063397383
              ]
            ],
            [
              [
                86.93923549325822,
                27.90048366464205
              ],
              [
                86.93882904190205,
                27.900483484844244
              ],
              [
                86.93882914342964,
                27.90030293638093
              ],
              [
                86.93923559411208,
                27.900303116178733
              ],
              [
                86.93923549325822,
                27.90048366464205
              ]
            ],
            [
              [
                86.91342627134635,
                27.899928223671566
              ],
              [
                86.91342641503188,
                27.89974767529808
              ],
              [
                86.91362963921875,
                27.899747802804953
              ],
              [
                86.91362949587459,
                27.89992835117844
              ],
              [
                86.91342627134635,
                27.899928223671566
              ]
            ],
            [
              [
                86.91668021468924,
                27.896860904547424
              ],
              [
                86.91668028382358,
                27.896770630320255
              ],
              [
                86.91678189314571,
                27.89677069170214
              ],
              [
                86.9167818241012,
                27.89686096593829
              ],
              [
                86.91668021468924,
                27.896860904547424
              ]
            ],
            [
              [
                86.91769665022261,
                27.89641014383479
              ],
              [
                86.91769671851254,
                27.896319869589657
              ],
              [
                86.91779832742145,
                27.89631993022594
              ],
              [
                86.91779825921238,
                27.89641020447107
              ],
              [
                86.91769665022261,
                27.89641014383479
              ]
            ],
            [
              [
                86.91779798639402,
                27.896771301424657
              ],
              [
                86.91779805459412,
                27.896681027188507
              ],
              [
                86.9178996638354,
                27.89668108775292
              ],
              [
                86.91789959571615,
                27.89677136198907
              ],
              [
                86.91779798639402,
                27.896771301424657
              ]
            ],
            [
              [
                86.91800127307668,
                27.89668114823649
              ],
              [
                86.91800134111509,
                27.896590873991357
              ],
              [
                86.91810295027553,
                27.896590934403058
              ],
              [
                86.91810288232696,
                27.896681208648193
              ],
              [
                86.91800127307668,
                27.89668114823649
              ]
            ],
            [
              [
                86.9389337457856,
                27.89497679966601
              ],
              [
                86.93893379645058,
                27.894886525366978
              ],
              [
                86.93903540406592,
                27.894886570345623
              ],
              [
                86.93903535348178,
                27.894976844644656
              ],
              [
                86.9389337457856,
                27.89497679966601
              ]
            ]
          ],
          [
            [
              [
                86.93781260386238,
                27.90102467544412
              ],
              [
                86.93801583054658,
                27.90102476700041
              ],
              [
                86.9380157276715,
                27.90120531543678
              ],
              [
                86.93781250064595,
                27.90120522388947
              ],
              [
                86.93781260386238,
                27.90102467544412
              ]
            ]
          ]
        ]
      },
      "id": "+9365+1453",
      "properties": {
        "area_m2": 1789492.2927072148,
        "count": 17853,
        "image_id": "COPERNICUS/S2_SR_HARMONIZED/20241207T045201_20241207T045203_T45RVL",
        "lake_id": "imja-tsho",
        "observed_at": "2024-12-07T05:01:05.721000Z",
        "water": 1
      }
    }
  ]
}
