{
  "type": "FeatureCollection",
  "features": [
    {
      "type": "Feature",
      "geometry": {
        "geodesic": false,
        "type": "MultiPolygon",
        "coordinates": [
          [
            [
              [
                86.91820455943596,
                27.896590994742898
              ],
              [
                86.91810295027553,
                27.896590934403058
              ],
              [
                86.91810301823308,
                27.896500660166907
              ],
              [
                86.91820462730368,
                27.896500720497762
              ],
              [
                86.91820455943596,
                27.896590994742898
              ]
            ]
          ],
          [
            [
              [
                86.93212631219423,
                27.894522244128257
              ],
              [
                86.93202470493821,
                27.89452219405616
              ],
              [
                86.93202476133446,
                27.89443191975713
              ],
              [
                86.93212636850961,
                27.894431969829224
              ],
              [
                86.93212631219423,
                27.894522244128257
              ]
            ]
          ],
          [
            [
              [
                86.94045494620426,
                27.900303648385623
              ],
              [
                86.94055655887712,
                27.900303692241376
              ],
              [
                86.94055650954164,
                27.900393966477523
              ],
              [
                86.94045489678794,
                27.90039392261279
              ],
              [
                86.94045494620426,
                27.900303648385623
              ]
            ]
          ],
          [
            [
              [
                86.91820455943596,
                27.896590994742898
              ],
              [
                86.9185093869083,
                27.896591175295285
              ],
              [
                86.91850931929211,
                27.89668144954042
              ],
              [
                86.91932219325834,
                27.89668192773161
              ],
              [
                86.91932232713427,
                27.896501379241343
              ],
              [
                86.91952554529345,
                27.89650149804354
              ],
              [
                86.91952561206523,
                27.896411223798406
              ],
              [
                86.91972883005373,
                27.896411342295178
              ],
              [
                86.91972876345262,
                27.89650161654031
              ],
              [
                86.92033841793017,
                27.896501970233988
              ],
              [
                86.92033855012625,
                27.89632142174372
              ],
              [
                86.92054176795305,
                27.896321539036748
              ],
              [
                86.92054189980777,
                27.896140990537496
              ],
              [
                86.92084672604044,
                27.896141165924572
              ],
              [
                86.92084679171626,
                27.896050891670455
              ],
              [
                86.92125322636376,
                27.896051124468862
              ],
              [
                86.92125335704168,
                27.89587057596063
              ],
              [
                86.92135496552838,
                27.89587063397383
              ],
              [
                86.92135503078201,
                27.89578035971073
              ],
              [
                86.92145663919685,
                27.895780417652066
              ],
              [
                86.92145657402408,
                27.895870691906183
              ],
              [
                86.92165979101544,
                27.89587080755529
              ],
              [
                86.92165985601754,
                27.895780533301174
              ],
              [
                86.92216789806477,
                27.895780821103425
              ],
              [
                86.92216796264466,
                27.89569054684931
              ],
              [
                86.92247278762866,
                27.895690718634143
              ],
              [
                86.92247285195701,
                27.89560044437104
              ],
              [
                86.92287928493364,
                27.895600672372446
              ],
              [
                86.92287934892065,
                27.895510398109344
              ],
              [
                86.92359060605483,
                27.89551079422147
              ],
              [
                86.92359066944893,
                27.895420519949386
              ],
              [
                86.92389549368733,
                27.895420688590114
              ],
              [
                86.92389555682992,
                27.895330414327013
              ],
              [
                86.92440359681102,
                27.895330693891715
              ],
              [
                86.9244036595314,
                27.895240419619633
              ],
              [
                86.92481009118751,
                27.895240641925714
              ],
              [
                86.92481015356651,
                27.89515036764465
              ],
              [
                86.9254198005521,
                27.895150698853495
              ],
              [
                86.92541986242807,
                27.89506042458141
              ],
              [
                86.9260295089106,
                27.895060753086327
              ],
              [
                86.9260293861738,
                27.895241301639476
              ],
              [
                86.92846797625415,
                27.895242588727648
              ],
              [
                86.92846809495754,
                27.895062040165516
              ],
              [
                86.92887452597584,
                27.895062250479093
              ],
              [
                86.92887464400549,
                27.894881701907977
              ],
              [
                86.92989071988936,
                27.894882222463718
              ],
              [
                86.92989083623017,
                27.894701673883617
              ],
              [
                86.93039887333667,
                27.89470193134976
              ],
              [
                86.93039881559297,
                27.89479220563981
              ],
              [
                86.93070363811559,
                27.894792359215792
              ],
              [
                86.93070369560776,
                27.894702084925743
              ],
              [
                86.93151655501231,
                27.894702491170865
              ],
              [
                86.93151661183074,
                27.894612216880816
              ],
              [
                86.9316182191676,
                27.894612267321218
              ],
              [
                86.931618162439,
                27.89470254162025
              ],
              [
                86.93171976986568,
                27.89470259198879
              ],
              [
                86.93171988316121,
                27.894522043399707
              ],
              [
                86.93192309768222,
                27.894522143912205
              ],
              [
                86.93192304119614,
                27.894612418202254
              ],
              [
                86.93212625588784,
                27.894612518418306
              ],
              [
                86.93212631219423,
                27.894522244128257
              ],
              [
                86.93222791945922,
                27.894522294119504
              ],
              [
                86.9322278632247,
                27.894612568418534
              ],
              [
                86.93283750729076,
                27.894612866811922
              ],
              [
                86.93283756301325,
                27.89452259251289
              ],
              [
                86.93314238479925,
                27.894522740698978
              ],
              [
                86.93314232932829,
                27.89461301499801
              ],
              [
                86.93324393667413,
                27.894613064243657
              ],
              [
                86.93324399206425,
                27.894522789944624
              ],
              [
                86.93415845743122,
                27.894523229777754
              ],
              [
                86.93415851205778,
                27.89443295547872
              ],
              [
                86.93436172641708,
                27.894433052397957
              ],
              [
                86.93436178087296,
                27.894342778089943
              ],
              [
                86.93446338796727,
                27.89434282643727
              ],
              [
                86.93446333359225,
                27.894433100745285
              ],
              [
                86.9345649407764,
                27.894433149011764
              ],
              [
                86.93456499506159,
                27.894342874712734
              ],
              [
                86.93486981635351,
                27.894343019072
              ],
              [
                86.93486987038717,
                27.894252744772967
              ],
              [
                86.9350730844141,
                27.894252840641172
              ],
              [
                86.93507303055112,
                27.894343114940206
              ],
              [
                86.93517463764543,
                27.89434316276651
              ],
              [
                86.9351745838633,
                27.894433437065544
              ],
              [
                86.93527619104745,
                27.894433484819984
              ],
              [
                86.93527613734615,
                27.894523759119018
              ],
              [
                86.93608899549305,
                27.894524138405696
              ],
              [
                86.9360889424655,
                27.89461441270473
              ],
              [
                86.93619054982032,
                27.89461445977645
              ],
              [
                86.93619049687362,
                27.894704734075482
              ],
              [
                86.93669853406996,
                27.894704968320177
              ],
              [
                86.93669848154546,
                27.89479524262819
              ],
              [
                86.93690169659648,
                27.89479533580145
              ],
              [
                86.93690174895029,
                27.894705061493436
              ],
              [
                86.93700335638597,
                27.89470510797227
              ],
              [
                86.93700325184902,
                27.894885656579316
              ],
              [
                86.93801932794848,
                27.894886117199462
              ],
              [
                86.93801922510036,
                27.89506666580651
              ],
              [
                86.93903530289765,
                27.89506711894369
              ],
              [
                86.93903520173836,
                27.895247667550738
              ],
              [
                86.93984806534702,
                27.895248024666994
              ],
              [
                86.93984816515884,
                27.89506747606893
              ],
              [
                86.94005138073086,
                27.895067564597902
              ],
              [
                86.9400514802103,
                27.894887015990854
              ],
              [
                86.94025469544097,
                27.894887104223383
              ],
              [
                86.94025474501001,
                27.894796829915364
              ],
              [
                86.94116921280244,
                27.894797223242712
              ],
              [
                86.941169163988,
                27.894887497550727
              ],
              [
                86.94127077160333,
                27.894887540885456
              ],
              [
                86.94127082033692,
                27.89479726657744
              ],
              [
                86.94177885800039,
                27.89479748209226
              ],
              [
                86.94177880969798,
                27.894887756400276
              ],
              [
                86.9418804173223,
                27.89488779928585
              ],
              [
                86.94188036910073,
                27.894978073593865
              ],
              [
                86.94218519220725,
                27.894978201783456
              ],
              [
                86.9421851442462,
                27.89506847609147
              ],
              [
                86.94228675203222,
                27.895068518671614
              ],
              [
                86.94228665626282,
                27.895249067278662
              ],
              [
                86.94238826421952,
                27.895249109786942
              ],
              [
                86.94238821642017,
                27.895339384085975
              ],
              [
                86.94248982446669,
                27.895339426522387
              ],
              [
                86.94248972902967,
                27.895519975120454
              ],
              [
                86.9425913372379,
                27.895520017485
              ],
              [
                86.94259128960923,
                27.895610291784035
              ],
              [
                86.94269289790728,
                27.895610334058752
              ],
              [
                86.94269285035945,
                27.895700608366766
              ],
              [
                86.94279445873836,
                27.89570065056962
              ],
              [
                86.94279431634641,
                27.895971473457735
              ],
              [
                86.94289592497684,
                27.895971515597704
              ],
              [
                86.94289587759968,
                27.896061789887753
              ],
              [
                86.94309909503123,
                27.89606187393413
              ],
              [
                86.94309904781578,
                27.89615214822418
              ],
              [
                86.9434038742281,
                27.896152273727807
              ],
              [
                86.94340382726418,
                27.896242548017856
              ],
              [
                86.94350543615512,
                27.896242589699686
              ],
              [
                86.9435051080275,
                27.896874509721048
              ],
              [
                86.94360671750235,
                27.896874551331013
              ],
              [
                86.94360653032938,
                27.89723564846426
              ],
              [
                86.94370814014559,
                27.897235690002358
              ],
              [
                86.94370809343319,
                27.897325964283425
              ],
              [
                86.94380970333923,
                27.897326005740673
              ],
              [
                86.94380965670769,
                27.89741628002174
              ],
              [
                86.94391126669457,
                27.897416321407125
              ],
              [
                86.94391117361114,
                27.897596869960275
              ],
              [
                86.94401278376871,
                27.897596911273794
              ],
              [
                86.94401222626527,
                27.898680202502856
              ],
              [
                86.94391061510159,
                27.898680161189336
              ],
              [
                86.94391052201816,
                27.898860709706554
              ],
              [
                86.94309763135225,
                27.898860376503446
              ],
              [
                86.94309753692134,
                27.89904092501168
              ],
              [
                86.9429959254163,
                27.899040883024423
              ],
              [
                86.94299597272158,
                27.898950608770306
              ],
              [
                86.94279274989115,
                27.898950524571216
              ],
              [
                86.94279279735814,
                27.8988602503171
              ],
              [
                86.94269118603276,
                27.89886020809628
              ],
              [
                86.94269113847595,
                27.898950482359382
              ],
              [
                86.94258952706073,
                27.8989504400667
              ],
              [
                86.9425894794141,
                27.899040714320815
              ],
              [
                86.94248786791803,
                27.89904067196525
              ],
              [
                86.94248782019055,
                27.899130946219366
              ],
              [
                86.94228459702775,
                27.89913086126569
              ],
              [
                86.94228454912958,
                27.899221135519806
              ],
              [
                86.94187810246262,
                27.899220964714136
              ],
              [
                86.94187805423208,
                27.899311238968252
              ],
              [
                86.94157321898032,
                27.899311110077978
              ],
              [
                86.94157317049826,
                27.899401384332094
              ],
              [
                86.94126833499499,
                27.89940125476808
              ],
              [
                86.9412681400426,
                27.899762351748613
              ],
              [
                86.94106491570301,
                27.899762264998305
              ],
              [
                86.94106476898118,
                27.900033087724722
              ],
              [
                86.94096315655985,
                27.90003304423728
              ],
              [
                86.94096305857163,
                27.90021359270958
              ],
              [
                86.94086144597962,
                27.900213549150273
              ],
              [
                86.94086139690465,
                27.900303823386423
              ],
              [
                86.94065817154997,
                27.900303736034246
              ],
              [
                86.94065827004125,
                27.900123187561945
              ],
              [
                86.94045504502793,
                27.900123099913323
              ],
              [
                86.94045494620426,
                27.900303648385623
              ],
              [
                86.94025172084957,
                27.900303560431574
              ],
              [
                86.94025162168455,
                27.90048410889489
              ],
              [
                86.94035323452809,
                27.900484152912338
              ],
              [
                86.94035318503092,
                27.900574427139507
              ],
              [
                86.94025157209755,
                27.90057438313104
              ],
              [
                86.94025147293252,
                27.900754931585375
              ],
              [
                86.94014985983746,
                27.90075488749606
              ],
              [
                86.94014981016961,
                27.90084516173221
              ],
              [
                86.94025142334552,
                27.900845205821525
              ],
              [
                86.94025127459349,
                27.901116028494044
              ],
              [
                86.94035288802093,
                27.901116072511492
              ],
              [
                86.94035283852375,
                27.901206346729676
              ],
              [
                86.94025122500649,
                27.90120630272121
              ],
              [
                86.94025097707147,
                27.901657673821113
              ],
              [
                86.94035259101095,
                27.90165771782958
              ],
              [
                86.94035244250146,
                27.901928540475147
              ],
              [
                86.94045405670145,
                27.90192858442073
              ],
              [
                86.94045400727614,
                27.902018858629933
              ],
              [
                86.94055562155698,
                27.902018902503652
              ],
              [
                86.94055547355056,
                27.902289725131254
              ],
              [
                86.9403522444948,
                27.902289637320933
              ],
              [
                86.94035219498865,
                27.902379911530137
              ],
              [
                86.94004735114004,
                27.90237977925321
              ],
              [
                86.94004740089771,
                27.90228950504401
              ],
              [
                86.93964094278623,
                27.902289327635724
              ],
              [
                86.93964099287628,
                27.90219905342652
              ],
              [
                86.93852323400843,
                27.902198559353117
              ],
              [
                86.93852328503273,
                27.902108285143914
              ],
              [
                86.93821844195666,
                27.90210814882457
              ],
              [
                86.9382184932325,
                27.90201787461537
              ],
              [
                86.93791365041693,
                27.90201773762229
              ],
              [
                86.9379137019443,
                27.901927463413088
              ],
              [
                86.93740563101623,
                27.90192723359709
              ],
              [
                86.9374056829658,
                27.90183695938789
              ],
              [
                86.93720245476345,
                27.90183686693328
              ],
              [
                86.93720250687473,
                27.901746592724077
              ],
              [
                86.9367960508114,
                27.901746406916544
              ],
              [
                86.93679610326402,
                27.901656132707345
              ],
              [
                86.93638964754204,
                27.901655945705052
              ],
              [
                86.93638970033604,
                27.901565671495852
              ],
              [
                86.9360848587961,
                27.901565530460353
              ],
              [
                86.9360849118416,
                27.90147525625115
              ],
              [
                86.93588168432198,
                27.9014751618472
              ],
              [
                86.93588173752919,
                27.901384887637995
              ],
              [
                86.93598335120817,
                27.901384934871416
              ],
              [
                86.93598345746089,
                27.90120438644403
              ],
              [
                86.93578023044432,
                27.901204291896345
              ],
              [
                86.93578012385022,
                27.90138484032373
              ],
              [
                86.93567851018025,
                27.9013847929376
              ],
              [
                86.93567856355814,
                27.9012945187284
              ],
              [
                86.93537372278176,
                27.90129437612085
              ],
              [
                86.93537377642016,
                27.901204101902664
              ],
              [
                86.9350689359043,
                27.901203958621377
              ],
              [
                86.93506898978524,
                27.901113684403192
              ],
              [
                86.93466253610245,
                27.901113492316433
              ],
              [
                86.93466259032476,
                27.90102321809825
              ],
              [
                86.93435775032093,
                27.90102307324491
              ],
              [
                86.93435780479476,
                27.900932799026727
              ],
              [
                86.93384973854691,
                27.90093255610431
              ],
              [
                86.93384979344296,
                27.900842281895105
              ],
              [
                86.93283366180066,
                27.9008417904358
              ],
              [
                86.93283371754111,
                27.900751516217614
              ],
              [
                86.93273210446402,
                27.90075146665756
              ],
              [
                86.93273227193694,
                27.900480644003007
              ],
              [
                86.93252904628581,
                27.900480544667303
              ],
              [
                86.93252927025378,
                27.900119447785585
              ],
              [
                86.93232604528536,
                27.900119348144454
              ],
              [
                86.93232615760174,
                27.899938799699104
              ],
              [
                86.9321229329657,
                27.899938699761528
              ],
              [
                86.93212304562341,
                27.899758151307193
              ],
              [
                86.93171659702509,
                27.89975795054271
              ],
              [
                86.93171671035654,
                27.89957740207939
              ],
              [
                86.93070059058098,
                27.899576894917534
              ],
              [
                86.93070070559229,
                27.8993963464632
              ],
              [
                86.92785557507882,
                27.899394886557133
              ],
              [
                86.92785545533339,
                27.899575435002482
              ],
              [
                86.92765223139804,
                27.899575328471272
              ],
              [
                86.92765211132922,
                27.89975587690764
              ],
              [
                86.9274488870525,
                27.899755770079988
              ],
              [
                86.92744876663335,
                27.899936318516357
              ],
              [
                86.92724554202427,
                27.89993621139226
              ],
              [
                86.92724542127272,
                27.900116759819642
              ],
              [
                86.92704219633126,
                27.900116652390118
              ],
              [
                86.92704195414547,
                27.900477749235904
              ],
              [
                86.92724517976964,
                27.90047785666543
              ],
              [
                86.92724511939387,
                27.90056813087463
              ],
              [
                86.92633060334394,
                27.900567645074705
              ],
              [
                86.92633054221359,
                27.900657919274924
              ],
              [
                86.92460312164573,
                27.900656985098895
              ],
              [
                86.92460305907807,
                27.900747259299113
              ],
              [
                86.92419660685054,
                27.900747036346242
              ],
              [
                86.92419654394152,
                27.90083731054646
              ],
              [
                86.9232820256997,
                27.900836804516477
              ],
              [
                86.9232819620361,
                27.90092707870771
              ],
              [
                86.922164216625,
                27.900926451980087
              ],
              [
                86.92216415202715,
                27.90101672617132
              ],
              [
                86.92206253872548,
                27.90101666875101
              ],
              [
                86.92206260340419,
                27.900926394559775
              ],
              [
                86.92196099018336,
                27.900926337058614
              ],
              [
                86.9219609254238,
                27.901016611249847
              ],
              [
                86.92145285891544,
                27.90101632263013
              ],
              [
                86.92145279373369,
                27.90110659681238
              ],
              [
                86.92084311342958,
                27.901106247996555
              ],
              [
                86.92084304773579,
                27.901196522178807
              ],
              [
                86.92033498040996,
                27.901196229435822
              ],
              [
                86.92033511263298,
                27.901015681062336
              ],
              [
                86.9201318860476,
                27.901015563445917
              ],
              [
                86.92013175348322,
                27.901196111810417
              ],
              [
                86.91972529962077,
                27.90119587567028
              ],
              [
                86.91972543285888,
                27.901015327296793
              ],
              [
                86.91931897968813,
                27.901015089961895
              ],
              [
                86.91931884576728,
                27.9011956383264
              ],
              [
                86.91891239192279,
                27.90119539978776
              ],
              [
                86.91891232462999,
                27.90128567397001
              ],
              [
                86.91850587045312,
                27.901285434227628
              ],
              [
                86.91850580281896,
                27.901375708400895
              ],
              [
                86.91820096193479,
                27.901375527812572
              ],
              [
                86.9182008940491,
                27.901465801985843
              ],
              [
                86.91789605291339,
                27.901465620723783
              ],
              [
                86.91789598477617,
                27.90155589489705
              ],
              [
                86.91759114338893,
                27.901555712952273
              ],
              [
                86.91759107500019,
                27.901645987125544
              ],
              [
                86.917387847247,
                27.90164586545772
              ],
              [
                86.9173877786786,
                27.901736139622006
              ],
              [
                86.91718455075473,
                27.90173601765774
              ],
              [
                86.91718448202462,
                27.901826291822026
              ],
              [
                86.91687963989179,
                27.901826108305194
              ],
              [
                86.91687957091015,
                27.901916382478465
              ],
              [
                86.91667634264493,
                27.901916259750628
              ],
              [
                86.91667627349261,
                27.9020065339239
              ],
              [
                86.91637143085673,
                27.90200634927519
              ],
              [
                86.91637136145289,
                27.902096623439476
              ],
              [
                86.91616813286426,
                27.902096499975023
              ],
              [
                86.91616806328975,
                27.902186774130325
              ],
              [
                86.91596483453044,
                27.902186650360445
              ],
              [
                86.91596476478524,
                27.90227692452473
              ],
              [
                86.91505023462278,
                27.902276363841246
              ],
              [
                86.915050164123,
                27.90236663800553
              ],
              [
                86.91484693503132,
                27.902366512582752
              ],
              [
                86.91484700570179,
                27.902276238427447
              ],
              [
                86.91474539124128,
                27.90227617559928
              ],
              [
                86.91474532048099,
                27.902366449763562
              ],
              [
                86.91464370593964,
                27.902366386863527
              ],
              [
                86.91464377678079,
                27.902276112708225
              ],
              [
                86.91454216232029,
                27.902276049736322
              ],
              [
                86.91454237509525,
                27.902005227252452
              ],
              [
                86.91464398930422,
                27.902005290224352
              ],
              [
                86.91464413097752,
                27.901824741904765
              ],
              [
                86.91474574501581,
                27.90182480479582
              ],
              [
                86.91474595727873,
                27.901553982302964
              ],
              [
                86.91454272971419,
                27.90155385644001
              ],
              [
                86.91454280063618,
                27.90146358226674
              ],
              [
                86.91444118693026,
                27.901463519222975
              ],
              [
                86.91444132894493,
                27.901282970885422
              ],
              [
                86.9143397154097,
                27.90128290776979
              ],
              [
                86.91433985759504,
                27.901102359423252
              ],
              [
                86.91423824423049,
                27.901102296235756
              ],
              [
                86.91423845775104,
                27.90083147370697
              ],
              [
                86.91413684463802,
                27.900831410438624
              ],
              [
                86.91413691590137,
                27.900741136265353
              ],
              [
                86.91373046379961,
                27.90074088244637
              ],
              [
                86.91373053539533,
                27.900650608273104
              ],
              [
                86.91332408364391,
                27.900650353250377
              ],
              [
                86.91332415557203,
                27.90056007907711
              ],
              [
                86.91301931701447,
                27.900559887026283
              ],
              [
                86.91301917264623,
                27.900740435381802
              ],
              [
                86.91322239869261,
                27.900740563490547
              ],
              [
                86.91322232667468,
                27.900830837663815
              ],
              [
                86.91332393977872,
                27.900830901605897
              ],
              [
                86.91332343625504,
                27.90146282078284
              ],
              [
                86.91322182255811,
                27.901462756840758
              ],
              [
                86.91322167852223,
                27.90164330516933
              ],
              [
                86.913018450796,
                27.901643177060585
              ],
              [
                86.91301837860738,
                27.90173345121589
              ],
              [
                86.91291676465892,
                27.901733387049227
              ],
              [
                86.91291683692839,
                27.901643112884944
              ],
              [
                86.91271360920214,
                27.901642984327044
              ],
              [
                86.91271368164229,
                27.901552710162758
              ],
              [
                86.91261206786452,
                27.901552645771517
              ],
              [
                86.91261221291548,
                27.901372097442948
              ],
              [
                86.9125105992994,
                27.90137203297086
              ],
              [
                86.91251067191023,
                27.901281758806576
              ],
              [
                86.91240905838397,
                27.90128169426262
              ],
              [
                86.91240913107565,
                27.901191420098336
              ],
              [
                86.91230751763922,
                27.901191355482517
              ],
              [
                86.91230766319325,
                27.901010807144964
              ],
              [
                86.91240927645899,
                27.901010871769767
              ],
              [
                86.91240942184234,
                27.90083032342323
              ],
              [
                86.91251103494638,
                27.900830387967183
              ],
              [
                86.91251118015904,
                27.900649839620648
              ],
              [
                86.91210472842559,
                27.90064958100466
              ],
              [
                86.9121048013688,
                27.90055930683139
              ],
              [
                86.91200318851628,
                27.900559241990994
              ],
              [
                86.91200326154032,
                27.900468967817726
              ],
              [
                86.91210487430301,
                27.900469032658123
              ],
              [
                86.9121049472462,
                27.900378758484855
              ],
              [
                86.91220655992805,
                27.900378823253387
              ],
              [
                86.91220677849714,
                27.900108000715615
              ],
              [
                86.9119019412152,
                27.900107806194423
              ],
              [
                86.91190201432909,
                27.900017532021156
              ],
              [
                86.9118004019886,
                27.900017467028047
              ],
              [
                86.91180054836909,
                27.899836918663542
              ],
              [
                86.91200377271765,
                27.899837048568916
              ],
              [
                86.9120039917898,
                27.899566226013178
              ],
              [
                86.91230882755359,
                27.899566420300808
              ],
              [
                86.91230875478107,
                27.899656694492045
              ],
              [
                86.91241036678916,
                27.899656759098878
              ],
              [
                86.91241029410648,
                27.89974703329011
              ],
              [
                86.9127151303823,
                27.899747226679427
              ],
              [
                86.91271520281346,
                27.899656952488193
              ],
              [
                86.91281681482155,
                27.899657016807566
              ],
              [
                86.91281688717187,
                27.899566742616333
              ],
              [
                86.91271527524462,
                27.89956667830594
              ],
              [
                86.91271549253811,
                27.899295855732237
              ],
              [
                86.91261388087136,
                27.89929579134998
              ],
              [
                86.91261395338337,
                27.899205517149763
              ],
              [
                86.91251234179748,
                27.899205452686658
              ],
              [
                86.91251241439933,
                27.899115178495425
              ],
              [
                86.91261402590438,
                27.89911524295853
              ],
              [
                86.91261409841638,
                27.899024968767293
              ],
              [
                86.91271570983159,
                27.899025033149552
              ],
              [
                86.91271578226275,
                27.898934758958315
              ],
              [
                86.91281739359711,
                27.898934823268707
              ],
              [
                86.91281746594743,
                27.89884454906849
              ],
              [
                86.91342713345054,
                27.89884493336777
              ],
              [
                86.91342727712708,
                27.898664384967333
              ],
              [
                86.91363049929275,
                27.89866451246522
              ],
              [
                86.91363078597212,
                27.898303415646385
              ],
              [
                86.91383400746405,
                27.898303542838846
              ],
              [
                86.91383415046685,
                27.898122994420444
              ],
              [
                86.91403737161743,
                27.898123121316463
              ],
              [
                86.91403722895598,
                27.89830366973486
              ],
              [
                86.9142404504479,
                27.898303796334435
              ],
              [
                86.91424073510605,
                27.89794269948865
              ],
              [
                86.91444395592424,
                27.897942825782795
              ],
              [
                86.91444409791197,
                27.89776227735541
              ],
              [
                86.9148505388836,
                27.897762529045387
              ],
              [
                86.91485068019757,
                27.89758198060902
              ],
              [
                86.91505390034203,
                27.897582106004847
              ],
              [
                86.91505404131465,
                27.897401557559498
              ],
              [
                86.91586692058992,
                27.897402056142447
              ],
              [
                86.91586706020608,
                27.897221507688112
              ],
              [
                86.91688315764054,
                27.89722212416596
              ],
              [
                86.91688329556787,
                27.897041575711626
              ],
              [
                86.9174929530368,
                27.89704194199968
              ],
              [
                86.91749315840964,
                27.89677111929123
              ],
              [
                86.91789959571615,
                27.89677136198907
              ],
              [
                86.9178996638354,
                27.89668108775292
              ],
              [
                86.91820449156825,
                27.896681268979048
              ],
              [
                86.91820455943596,
                27.896590994742898
              ]
            ]
          ],
          [
            [
              [
                86.93456499506159,
                27.894342874712734
              ],
              [
                86.93446338796727,
                27.89434282643727
              ],
              [
                86.93446344234229,
                27.894252552138237
              ],
              [
                86.93456504935575,
                27.894252600404716
              ],
              [
                86.93456499506159,
                27.894342874712734
              ]
            ]
          ]
        ]
      },
      "id": "+9364+1452",
      "properties": {
        "area_m2": 1766438.30197635,
        "count": 17623,
        "image_id": "COPERNICUS/S2_SR_HARMONIZED/20241102T044849_20241102T045605_T45RVL",
        "lake_id": "imja-tsho",
        "observed_at": "2024-11-02T05:01:03.152000Z",
        "water": 1
      }
    }
  ]
}
