{
  "type": "FeatureCollection",
  "features": [
    {
      "type": "Feature",
      "geometry": {
        "geodesic": false,
        "type": "MultiPolygon",
        "coordinates": [
          [
            [
              [
                86.90875165326023,
                27.900466853381175
              ],
              [
                86.90854842775282,
                27.9004667186788
              ],
              [
                86.90854835186315,
                27.900556992843086
              ],
              [
                86.9084467390286,
                27.900556925379608
              ],
              [
                86.90844666304909,
                27.900647199543894
              ],
              [
                86.90834505012471,
                27.900647132008547
              ],
              [
                86.90834497406436,
                27.900737406172833
              ],
              [
                86.90804013504868,
                27.900737203108665
              ],
              [
                86.90804051662606,
                27.90028583228724
              ],
              [
                86.90783729146001,
                27.90028569653383
              ],
              [
                86.90783736794258,
                27.90019542236955
              ],
              [
                86.9077357554494,
                27.900195354385048
              ],
              [
                86.9077358320128,
                27.90010508021178
              ],
              [
                86.90753260719711,
                27.9001049440182
              ],
              [
                86.90753283739939,
                27.89983412150738
              ],
              [
                86.90743122523857,
                27.8998340532983
              ],
              [
                86.90743130205351,
                27.89974377912503
              ],
              [
                86.90722807791155,
                27.899743642482292
              ],
              [
                86.90722815489717,
                27.899653368309025
              ],
              [
                86.90712654290704,
                27.899653299875364
              ],
              [
                86.90712661998249,
                27.899563025702097
              ],
              [
                86.90743145569238,
                27.899563230778494
              ],
              [
                86.90743153250732,
                27.899472956605226
              ],
              [
                86.90753314433574,
                27.899473024814306
              ],
              [
                86.90753322106086,
                27.899382750632054
              ],
              [
                86.90773644453806,
                27.899382886825634
              ],
              [
                86.90773629141124,
                27.899563435181154
              ],
              [
                86.90814273903939,
                27.899563706669998
              ],
              [
                86.90814258658631,
                27.899744255016536
              ],
              [
                86.90854903489718,
                27.89974452531062
              ],
              [
                86.90854888310885,
                27.89992507365716
              ],
              [
                86.90875210760115,
                27.899925208359534
              ],
              [
                86.90875195615418,
                27.900105756697087
              ],
              [
                86.90865034374184,
                27.900105689386322
              ],
              [
                86.90865026793301,
                27.90019596355959
              ],
              [
                86.90875188043518,
                27.900196030870354
              ],
              [
                86.90875165326023,
                27.900466853381175
              ]
            ]
          ],
          [
            [
              [
                86.90875165326023,
                27.900466853381175
              ],
              [
                86.90895487876763,
                27.900466987778128
              ],
              [
                86.90895495432493,
                27.90037671361384
              ],
              [
                86.90905656699778,
                27.900376780700025
              ],
              [
                86.90905664246525,
                27.900286506526758
              ],
              [
                86.90915825504827,
                27.900286573541077
              ],
              [
                86.90915833043488,
                27.90019629936781
              ],
              [
                86.90925994293706,
                27.900196366310265
              ],
              [
                86.90926016884538,
                27.89992554379046
              ],
              [
                86.90936178109602,
                27.89992561065207
              ],
              [
                86.90936185631196,
                27.899835336469817
              ],
              [
                86.90946346847278,
                27.89983540325956
              ],
              [
                86.90946339334667,
                27.899925677432826
              ],
              [
                86.90956500559732,
                27.89992574414172
              ],
              [
                86.90956478044357,
                27.900196566670505
              ],
              [
                86.90966639295472,
                27.900196633307534
              ],
              [
                86.90966631799031,
                27.9002869074808
              ],
              [
                86.90976793057334,
                27.90028697403698
              ],
              [
                86.9097680054569,
                27.900196699872698
              ],
              [
                86.90986961795907,
                27.90019676635701
              ],
              [
                86.90986976754652,
                27.900016218010474
              ],
              [
                86.90997137988701,
                27.90001628442292
              ],
              [
                86.90997145459988,
                27.899926010240673
              ],
              [
                86.91007306685053,
                27.899926076581256
              ],
              [
                86.91007314147357,
                27.899835802399004
              ],
              [
                86.91017475364337,
                27.899835868667722
              ],
              [
                86.91017482818557,
                27.89974559448547
              ],
              [
                86.9105812765234,
                27.89974585877881
              ],
              [
                86.91058135072424,
                27.89965558459656
              ],
              [
                86.91078457472247,
                27.899655716298565
              ],
              [
                86.91078464876162,
                27.899565442116312
              ],
              [
                86.91108948451642,
                27.89956563909889
              ],
              [
                86.91108955829506,
                27.899475364916636
              ],
              [
                86.91129278196091,
                27.899475495864056
              ],
              [
                86.91129270835296,
                27.89956577004631
              ],
              [
                86.91139432027121,
                27.89956583541671
              ],
              [
                86.91139424674411,
                27.89965610959896
              ],
              [
                86.91180069475854,
                27.89965637029904
              ],
              [
                86.91180054836909,
                27.899836918663542
              ],
              [
                86.91190216054787,
                27.89983698365665
              ],
              [
                86.91190245297643,
                27.89947588690968
              ],
              [
                86.91220728848869,
                27.89947608142189
              ],
              [
                86.91220721563532,
                27.899566355613125
              ],
              [
                86.91241043947186,
                27.899566484916626
              ],
              [
                86.91241036678916,
                27.899656759098878
              ],
              [
                86.91251197879727,
                27.899656823642832
              ],
              [
                86.91251190619542,
                27.89974709782508
              ],
              [
                86.91261351828437,
                27.899747162288186
              ],
              [
                86.91261359080536,
                27.899656888105937
              ],
              [
                86.91281681482155,
                27.899657016807566
              ],
              [
                86.91281688717187,
                27.899566742616333
              ],
              [
                86.91271527524462,
                27.89956667830594
              ],
              [
                86.91271534767579,
                27.899476404114708
              ],
              [
                86.91261373583836,
                27.899476339723467
              ],
              [
                86.91261388087136,
                27.89929579134998
              ],
              [
                86.91251226920463,
                27.899295726886876
              ],
              [
                86.91251248700117,
                27.89902490430419
              ],
              [
                86.91261409841638,
                27.899024968767293
              ],
              [
                86.91261417093737,
                27.898934694567078
              ],
              [
                86.91271578226275,
                27.898934758958315
              ],
              [
                86.91271585469391,
                27.898844484758097
              ],
              [
                86.91291907719196,
                27.898844613307016
              ],
              [
                86.91291914945243,
                27.898754339106798
              ],
              [
                86.9130207606251,
                27.898754403264476
              ],
              [
                86.91302083279575,
                27.898664129064258
              ],
              [
                86.91291922171293,
                27.89866406490658
              ],
              [
                86.91291936623388,
                27.898483516506147
              ],
              [
                86.91302097714603,
                27.89848358066382
              ],
              [
                86.91302112150531,
                27.898303032254404
              ],
              [
                86.91312273224678,
                27.898303096340218
              ],
              [
                86.91312280433658,
                27.898212822131015
              ],
              [
                86.91302119367596,
                27.898212758045204
              ],
              [
                86.91302133802624,
                27.898032209635787
              ],
              [
                86.91291972753629,
                27.898032145469124
              ],
              [
                86.91291979979677,
                27.897941871259924
              ],
              [
                86.91312302060598,
                27.897941999503413
              ],
              [
                86.91312316478559,
                27.89776145108501
              ],
              [
                86.91291994430875,
                27.89776132284152
              ],
              [
                86.91292001656923,
                27.897671048623337
              ],
              [
                86.91281840641166,
                27.897670984393795
              ],
              [
                86.912818478753,
                27.897580710184595
              ],
              [
                86.91271686868525,
                27.897580645874203
              ],
              [
                86.91271694110743,
                27.89749037165602
              ],
              [
                86.91241211115575,
                27.89749017828467
              ],
              [
                86.91241225651214,
                27.8973096298483
              ],
              [
                86.91251386632835,
                27.897309694383274
              ],
              [
                86.9125137937355,
                27.89739996860146
              ],
              [
                86.91261540363256,
                27.89740003305558
              ],
              [
                86.91261547614457,
                27.897309758837395
              ],
              [
                86.91393640376427,
                27.897310589967677
              ],
              [
                86.91393611811797,
                27.897671686840415
              ],
              [
                86.91403772827555,
                27.897671750252492
              ],
              [
                86.9140375856141,
                27.897852298679876
              ],
              [
                86.9142408062616,
                27.89785242527945
              ],
              [
                86.91424087742614,
                27.897762151061265
              ],
              [
                86.9148505388836,
                27.897762529045387
              ],
              [
                86.91485068019757,
                27.89758198060902
              ],
              [
                86.91505390034203,
                27.897582106004847
              ],
              [
                86.91505404131465,
                27.897401557559498
              ],
              [
                86.91586692058992,
                27.897402056142447
              ],
              [
                86.91586706020608,
                27.897221507688112
              ],
              [
                86.91647671866316,
                27.897221878476728
              ],
              [
                86.91647685727321,
                27.897041330022397
              ],
              [
                86.91668007642055,
                27.89704145301074
              ],
              [
                86.91668049122661,
                27.896499807611807
              ],
              [
                86.91678210029721,
                27.89649986899369
              ],
              [
                86.91678216934173,
                27.896409594748555
              ],
              [
                86.91698538731227,
                27.896409717296727
              ],
              [
                86.91698531843844,
                27.896499991532878
              ],
              [
                86.91718853657964,
                27.89650011377562
              ],
              [
                86.9171884678675,
                27.89659038801177
              ],
              [
                86.91729007701896,
                27.896590449025346
              ],
              [
                86.91729021427255,
                27.89640990054406
              ],
              [
                86.91739182326232,
                27.896409961476788
              ],
              [
                86.91739148054606,
                27.89686133266652
              ],
              [
                86.917594699361,
                27.896861454316376
              ],
              [
                86.91759483611153,
                27.896680905844075
              ],
              [
                86.91769644535283,
                27.896680966552225
              ],
              [
                86.91769630877297,
                27.896861515024526
              ],
              [
                86.91830596523579,
                27.89686187771932
              ],
              [
                86.91830610080953,
                27.896681329238035
              ],
              [
                86.91840771005081,
                27.89668138942516
              ],
              [
                86.91840784545388,
                27.896500840943876
              ],
              [
                86.9185094545245,
                27.896500901059134
              ],
              [
                86.91850931929211,
                27.89668144954042
              ],
              [
                86.9195254117499,
                27.896682046524823
              ],
              [
                86.91952554529345,
                27.89650149804354
              ],
              [
                86.92033841793017,
                27.896501970233988
              ],
              [
                86.92033861622429,
                27.896231147489605
              ],
              [
                86.92064344270848,
                27.896231323325836
              ],
              [
                86.92064350855499,
                27.89614104907172
              ],
              [
                86.92084672604044,
                27.896141165924572
              ],
              [
                86.92084679171626,
                27.896050891670455
              ],
              [
                86.92125322636376,
                27.896051124468862
              ],
              [
                86.92125329169822,
                27.895960850214745
              ],
              [
                86.92135490027476,
                27.895960908227945
              ],
              [
                86.92135496552838,
                27.89587063397383
              ],
              [
                86.92176139951113,
                27.895870865272048
              ],
              [
                86.92176146442338,
                27.89578059100895
              ],
              [
                86.92216789806477,
                27.895780821103425
              ],
              [
                86.92216796264466,
                27.89569054684931
              ],
              [
                86.92247278762866,
                27.895690718634143
              ],
              [
                86.92247285195701,
                27.89560044437104
              ],
              [
                86.92287928493364,
                27.895600672372446
              ],
              [
                86.92287934892065,
                27.895510398109344
              ],
              [
                86.92359060605483,
                27.89551079422147
              ],
              [
                86.92359066944893,
                27.895420519949386
              ],
              [
                86.9239971017698,
                27.895420744653972
              ],
              [
                86.92399716483152,
                27.89533047039087
              ],
              [
                86.92440359681102,
                27.895330693891715
              ],
              [
                86.9244036595314,
                27.895240419619633
              ],
              [
                86.92481009118751,
                27.895240641925714
              ],
              [
                86.9248099664205,
                27.895421190460898
              ],
              [
                86.92582604725409,
                27.895421740984435
              ],
              [
                86.92582617033226,
                27.89524119244027
              ],
              [
                86.92846797625415,
                27.895242588727648
              ],
              [
                86.92846809495754,
                27.895062040165516
              ],
              [
                86.92887452597584,
                27.895062250479093
              ],
              [
                86.92887464400549,
                27.894881701907977
              ],
              [
                86.93111001099491,
                27.894882837225783
              ],
              [
                86.93111012530554,
                27.894702288645682
              ],
              [
                86.93354870358205,
                27.89470348582148
              ],
              [
                86.93354881385025,
                27.8945229372324
              ],
              [
                86.93456488648222,
                27.894523423310797
              ],
              [
                86.93456477790285,
                27.894703971917846
              ],
              [
                86.93578406713094,
                27.89470454533944
              ],
              [
                86.93578396057278,
                27.894885093937507
              ],
              [
                86.9365968214236,
                27.894885470223812
              ],
              [
                86.93659671621292,
                27.895066018821876
              ],
              [
                86.93761279398325,
                27.895066482451377
              ],
              [
                86.9376128975051,
                27.894885933853313
              ],
              [
                86.93801932794848,
                27.894886117199462
              ],
              [
                86.93801922510036,
                27.89506666580651
              ],
              [
                86.93903530289765,
                27.89506711894369
              ],
              [
                86.93903520173836,
                27.895247667550738
              ],
              [
                86.93984806534702,
                27.895248024666994
              ],
              [
                86.93984816515884,
                27.89506747606893
              ],
              [
                86.94005138073086,
                27.895067564597902
              ],
              [
                86.9400514802103,
                27.894887015990854
              ],
              [
                86.9403563030563,
                27.894887148222864
              ],
              [
                86.94035635253552,
                27.89479687391485
              ],
              [
                86.94116921280244,
                27.894797223242712
              ],
              [
                86.941169163988,
                27.894887497550727
              ],
              [
                86.94157559445831,
                27.89488767042252
              ],
              [
                86.94157564293141,
                27.894797396114505
              ],
              [
                86.9416772504659,
                27.894797439143808
              ],
              [
                86.94167720208264,
                27.894887713451823
              ],
              [
                86.9418804173223,
                27.89488779928585
              ],
              [
                86.94188032087916,
                27.89506834790188
              ],
              [
                86.9420835364512,
                27.895068433430477
              ],
              [
                86.94208344034944,
                27.89524898204651
              ],
              [
                86.94238826421952,
                27.895249109786942
              ],
              [
                86.94238821642017,
                27.895339384085975
              ],
              [
                86.94259143250423,
                27.895339468877953
              ],
              [
                86.94259138487556,
                27.895429743176987
              ],
              [
                86.94269299300294,
                27.89542978546069
              ],
              [
                86.94269289790728,
                27.895610334058752
              ],
              [
                86.94279450619635,
                27.895610376270586
              ],
              [
                86.94279431634641,
                27.895971473457735
              ],
              [
                86.94289592497684,
                27.895971515597704
              ],
              [
                86.94289601974012,
                27.895790966999638
              ],
              [
                86.94299762819986,
                27.89579100905876
              ],
              [
                86.94299748631097,
                27.896061831946874
              ],
              [
                86.94309909503123,
                27.89606187393413
              ],
              [
                86.94309904781578,
                27.89615214822418
              ],
              [
                86.9434038742281,
                27.896152273727807
              ],
              [
                86.94340373334532,
                27.896423096597957
              ],
              [
                86.94350534240694,
                27.896423138288768
              ],
              [
                86.94350520177568,
                27.896693961149932
              ],
              [
                86.94340359247151,
                27.896693919468103
              ],
              [
                86.94340354550759,
                27.89678419375815
              ],
              [
                86.94350515490159,
                27.89678423543998
              ],
              [
                86.94350496739624,
                27.897145332573228
              ],
              [
                86.94360657712262,
                27.897145374183193
              ],
              [
                86.94360648353613,
                27.897325922745324
              ],
              [
                86.94380970333923,
                27.897326005740673
              ],
              [
                86.94380965670769,
                27.89741628002174
              ],
              [
                86.94391126669457,
                27.897416321407125
              ],
              [
                86.94391122015286,
                27.897506595679207
              ],
              [
                86.9440128302206,
                27.897506636992727
              ],
              [
                86.94401255148234,
                27.898048282634207
              ],
              [
                86.94391094090257,
                27.898048241320687
              ],
              [
                86.943910708194,
                27.898499612663137
              ],
              [
                86.94350426420402,
                27.898499446663454
              ],
              [
                86.94350417044686,
                27.89867999518067
              ],
              [
                86.94309772579213,
                27.898679827986232
              ],
              [
                86.94309763135225,
                27.898860376503446
              ],
              [
                86.94269118603276,
                27.89886020809628
              ],
              [
                86.94269113847595,
                27.898950482359382
              ],
              [
                86.94258952706073,
                27.8989504400667
              ],
              [
                86.9425894794141,
                27.899040714320815
              ],
              [
                86.94248786791803,
                27.89904067196525
              ],
              [
                86.94248782019055,
                27.899130946219366
              ],
              [
                86.94218298544186,
                27.89913081867656
              ],
              [
                86.94218293746283,
                27.899221092930677
              ],
              [
                86.94197971412936,
                27.899221007527842
              ],
              [
                86.94197966598864,
                27.89931128178196
              ],
              [
                86.94177644248448,
                27.89931119608268
              ],
              [
                86.94177639416411,
                27.899401470327813
              ],
              [
                86.94147155866084,
                27.899401341221942
              ],
              [
                86.94147151009791,
                27.899491615467074
              ],
              [
                86.94136989817964,
                27.899491572276077
              ],
              [
                86.9413698495269,
                27.89958184652121
              ],
              [
                86.94126823751878,
                27.899581803258346
              ],
              [
                86.9412681400426,
                27.899762351748613
              ],
              [
                86.94116652787281,
                27.899762308413884
              ],
              [
                86.94116647904937,
                27.899852582659015
              ],
              [
                86.94106486679873,
                27.89985253924344
              ],
              [
                86.94106481788546,
                27.899942813488572
              ],
              [
                86.94065836853254,
                27.89994263908066
              ],
              [
                86.94065827004125,
                27.900123187561945
              ],
              [
                86.94045504502793,
                27.900123099913323
              ],
              [
                86.94045494620426,
                27.900303648385623
              ],
              [
                86.94025172084957,
                27.900303560431574
              ],
              [
                86.94025162168455,
                27.90048410889489
              ],
              [
                86.9400483959975,
                27.900484020644395
              ],
              [
                86.9400482964911,
                27.900664569107715
              ],
              [
                86.93984507047166,
                27.900664480551793
              ],
              [
                86.93984497062392,
                27.900845029015112
              ],
              [
                86.93964174426311,
                27.900844940162745
              ],
              [
                86.93964154390288,
                27.90120603705345
              ],
              [
                86.9392350898338,
                27.901205858450403
              ],
              [
                86.9392352915505,
                27.9008447615597
              ],
              [
                86.93903206519869,
                27.900844671800037
              ],
              [
                86.93903216638492,
                27.900664123354687
              ],
              [
                86.93862571435503,
                27.90066394294603
              ],
              [
                86.93862561248606,
                27.900844491400363
              ],
              [
                86.93842238613425,
                27.900844400751367
              ],
              [
                86.93842197730199,
                27.901566594505823
              ],
              [
                86.9382187496027,
                27.90156650356038
              ],
              [
                86.93821854450833,
                27.901927600406168
              ],
              [
                86.9380153161353,
                27.901927509155303
              ],
              [
                86.93801526468879,
                27.902017783364503
              ],
              [
                86.93791365041693,
                27.90201773762229
              ],
              [
                86.9379137019443,
                27.901927463413088
              ],
              [
                86.93730401682522,
                27.901927187405718
              ],
              [
                86.93730406886463,
                27.901836913196515
              ],
              [
                86.93710084066228,
                27.901836820589192
              ],
              [
                86.93710089286338,
                27.901746546379993
              ],
              [
                86.93669443680005,
                27.901746360285
              ],
              [
                86.93669448933353,
                27.901656086066815
              ],
              [
                86.93628803361156,
                27.901655898768077
              ],
              [
                86.9362880864864,
                27.901565624558877
              ],
              [
                86.93598324494644,
                27.9015654832988
              ],
              [
                86.9359832980818,
                27.901475209089597
              ],
              [
                86.93588168432198,
                27.9014751618472
              ],
              [
                86.93588173752919,
                27.901384887637995
              ],
              [
                86.93557689650129,
                27.901384745479604
              ],
              [
                86.935576949969,
                27.90129447126142
              ],
              [
                86.93537372278176,
                27.90129437612085
              ],
              [
                86.93537377642016,
                27.901204101902664
              ],
              [
                86.934967322396,
                27.901203910714223
              ],
              [
                86.93496737636679,
                27.90111363649604
              ],
              [
                86.93456092268399,
                27.901113444103853
              ],
              [
                86.93456097699614,
                27.90102316988567
              ],
              [
                86.93425613698332,
                27.90102302480775
              ],
              [
                86.934256191547,
                27.90093275059855
              ],
              [
                86.93384973854691,
                27.90093255610431
              ],
              [
                86.93384979344296,
                27.900842281895105
              ],
              [
                86.93273204864272,
                27.900841740875745
              ],
              [
                86.93273210446402,
                27.90075146665756
              ],
              [
                86.93202081292438,
                27.90075111765309
              ],
              [
                86.93202086933857,
                27.900660843443887
              ],
              [
                86.9319192563513,
                27.90066079328196
              ],
              [
                86.93191948234049,
                27.90029969641821
              ],
              [
                86.93171625703071,
                27.900299595878764
              ],
              [
                86.93171648370262,
                27.89993849898806
              ],
              [
                86.93151325906658,
                27.89993839815217
              ],
              [
                86.93151337273041,
                27.89975784970682
              ],
              [
                86.93110692415004,
                27.899757647136724
              ],
              [
                86.93110703848761,
                27.89957709868239
              ],
              [
                86.92866835110173,
                27.89957585810898
              ],
              [
                86.92866823271277,
                27.89975640655433
              ],
              [
                86.92826178415037,
                27.89975619559397
              ],
              [
                86.92826166508766,
                27.899936744030338
              ],
              [
                86.92805844046958,
                27.899936638101
              ],
              [
                86.92805820167044,
                27.900297734964752
              ],
              [
                86.92785497637863,
                27.900297628729987
              ],
              [
                86.9278548566332,
                27.90047817715737
              ],
              [
                86.92724517976964,
                27.90047785666543
              ],
              [
                86.92724511939387,
                27.90056813087463
              ],
              [
                86.92643221624138,
                27.900567699350916
              ],
              [
                86.92643215518288,
                27.900657973551134
              ],
              [
                86.92470473461502,
                27.90065704065071
              ],
              [
                86.92470467212821,
                27.90074731485093
              ],
              [
                86.92419660685054,
                27.900747036346242
              ],
              [
                86.92419654394152,
                27.90083731054646
              ],
              [
                86.92338363883968,
                27.900836861038474
              ],
              [
                86.92338357525693,
                27.900927135229708
              ],
              [
                86.922164216625,
                27.900926451980087
              ],
              [
                86.92216415202715,
                27.90101672617132
              ],
              [
                86.92145285891544,
                27.90101632263013
              ],
              [
                86.92145279373369,
                27.90110659681238
              ],
              [
                86.92094472681211,
                27.901106306315185
              ],
              [
                86.92094466120814,
                27.90119658050642
              ],
              [
                86.92013175348322,
                27.901196111810417
              ],
              [
                86.92013168719653,
                27.90128638599267
              ],
              [
                86.91942039236007,
                27.901285971959155
              ],
              [
                86.91942032548947,
                27.901376246141407
              ],
              [
                86.91901387096226,
                27.901376007890228
              ],
              [
                86.9190139381742,
                27.90128573371696
              ],
              [
                86.91870909754155,
                27.90128555424255
              ],
              [
                86.91870903007808,
                27.9013758284248
              ],
              [
                86.91820096193479,
                27.901375527812572
              ],
              [
                86.9182008940491,
                27.901465801985843
              ],
              [
                86.91789605291339,
                27.901465620723783
              ],
              [
                86.91789598477617,
                27.90155589489705
              ],
              [
                86.91759114338893,
                27.901555712952273
              ],
              [
                86.91759107500019,
                27.901645987125544
              ],
              [
                86.917387847247,
                27.90164586545772
              ],
              [
                86.9173877786786,
                27.901736139622006
              ],
              [
                86.91718455075473,
                27.90173601765774
              ],
              [
                86.91718448202462,
                27.901826291822026
              ],
              [
                86.91698125393906,
                27.901826169552333
              ],
              [
                86.91698118503828,
                27.9019164437256
              ],
              [
                86.91667634264493,
                27.901916259750628
              ],
              [
                86.91667627349261,
                27.9020065339239
              ],
              [
                86.91637143085673,
                27.90200634927519
              ],
              [
                86.91637136145289,
                27.902096623439476
              ],
              [
                86.91616813286426,
                27.902096499975023
              ],
              [
                86.91616806328975,
                27.902186774130325
              ],
              [
                86.91596483453044,
                27.902186650360445
              ],
              [
                86.91596476478524,
                27.90227692452473
              ],
              [
                86.91525346354378,
                27.90227648896758
              ],
              [
                86.9152533932057,
                27.902366763122885
              ],
              [
                86.91464370593964,
                27.902366386863527
              ],
              [
                86.91464377678079,
                27.902276112708225
              ],
              [
                86.91454216232029,
                27.902276049736322
              ],
              [
                86.91454237509525,
                27.902005227252452
              ],
              [
                86.91464398930422,
                27.902005290224352
              ],
              [
                86.91464413097752,
                27.901824741904765
              ],
              [
                86.91474574501581,
                27.90182480479582
              ],
              [
                86.91474588652741,
                27.90164425646725
              ],
              [
                86.91464427265981,
                27.901644193576196
              ],
              [
                86.91464434349197,
                27.90155391940293
              ],
              [
                86.91454272971419,
                27.90155385644001
              ],
              [
                86.91454280063618,
                27.90146358226674
              ],
              [
                86.91444118693026,
                27.901463519222975
              ],
              [
                86.91444125794209,
                27.90137324505869
              ],
              [
                86.914339644326,
                27.901373181934073
              ],
              [
                86.91433978650237,
                27.901192633596523
              ],
              [
                86.91423817305696,
                27.901192570400042
              ],
              [
                86.914238315404,
                27.90101202206249
              ],
              [
                86.91413670212928,
                27.901011958794143
              ],
              [
                86.91413691590137,
                27.900741136265353
              ],
              [
                86.91352723775321,
                27.90074075508323
              ],
              [
                86.91352730951962,
                27.900650480909963
              ],
              [
                86.91332408364391,
                27.900650353250377
              ],
              [
                86.91332415557203,
                27.90056007907711
              ],
              [
                86.91301931701447,
                27.900559887026283
              ],
              [
                86.91301924483484,
                27.900650161199554
              ],
              [
                86.9131208577682,
                27.90065022529435
              ],
              [
                86.91312078566942,
                27.900740499467616
              ],
              [
                86.91322239869261,
                27.900740563490547
              ],
              [
                86.91322225465674,
                27.900921111837082
              ],
              [
                86.91332386785062,
                27.900921175779164
              ],
              [
                86.91332336431795,
                27.901553094947126
              ],
              [
                86.91322175054017,
                27.901553031005044
              ],
              [
                86.91322167852223,
                27.90164330516933
              ],
              [
                86.913018450796,
                27.901643177060585
              ],
              [
                86.91301837860738,
                27.90173345121589
              ],
              [
                86.91281515071046,
                27.901733322801718
              ],
              [
                86.91281522306078,
                27.901643048646417
              ],
              [
                86.91271360920214,
                27.901642984327044
              ],
              [
                86.91271368164229,
                27.901552710162758
              ],
              [
                86.91261206786452,
                27.901552645771517
              ],
              [
                86.91261221291548,
                27.901372097442948
              ],
              [
                86.9125105992994,
                27.90137203297086
              ],
              [
                86.91251067191023,
                27.901281758806576
              ],
              [
                86.91240905838397,
                27.90128169426262
              ],
              [
                86.91240913107565,
                27.901191420098336
              ],
              [
                86.91230751763922,
                27.901191355482517
              ],
              [
                86.91230773596577,
                27.90092053298068
              ],
              [
                86.91240934915066,
                27.9009205975965
              ],
              [
                86.91240942184234,
                27.90083032342323
              ],
              [
                86.91251103494638,
                27.900830387967183
              ],
              [
                86.91251118015904,
                27.900649839620648
              ],
              [
                86.91230795429232,
                27.900649710460875
              ],
              [
                86.91230788151081,
                27.900739984634143
              ],
              [
                86.9121046554824,
                27.900739855177928
              ],
              [
                86.91210472842559,
                27.90064958100466
              ],
              [
                86.91200311549223,
                27.90064951616426
              ],
              [
                86.91200333456437,
                27.90037869364446
              ],
              [
                86.91220655992805,
                27.900378823253387
              ],
              [
                86.91220677849714,
                27.900108000715615
              ],
              [
                86.91180032879387,
                27.900107741210295
              ],
              [
                86.91180047517436,
                27.899927192845794
              ],
              [
                86.91159725066409,
                27.899927062643975
              ],
              [
                86.91159732402949,
                27.899836788461727
              ],
              [
                86.91129248751112,
                27.899836592602043
              ],
              [
                86.91129256111908,
                27.899746318419794
              ],
              [
                86.91119094903911,
                27.899746252977526
              ],
              [
                86.9111910227369,
                27.899655978795273
              ],
              [
                86.91098779872969,
                27.89965584769514
              ],
              [
                86.91098765099275,
                27.899836396059644
              ],
              [
                86.91108926316255,
                27.89983646164564
              ],
              [
                86.91108918938392,
                27.899926735827894
              ],
              [
                86.91129241389419,
                27.899926866784295
              ],
              [
                86.91129219305236,
                27.90019768931308
              ],
              [
                86.91139380555452,
                27.900197754683486
              ],
              [
                86.91139373202742,
                27.900288028856753
              ],
              [
                86.91129211943542,
                27.900287963495334
              ],
              [
                86.91129197220154,
                27.900468511841872
              ],
              [
                86.91119035943886,
                27.900468446399604
              ],
              [
                86.91119028574107,
                27.90055872057287
              ],
              [
                86.91098706004503,
                27.900558589472737
              ],
              [
                86.91098698617657,
                27.900648863637024
              ],
              [
                86.9108853732432,
                27.90064879797916
              ],
              [
                86.91088529929388,
                27.900739072143445
              ],
              [
                86.91068207326546,
                27.900738940594152
              ],
              [
                86.91068199914547,
                27.90082921475844
              ],
              [
                86.91047877294636,
                27.900829082903723
              ],
              [
                86.9104786986557,
                27.900919357068005
              ],
              [
                86.91078353820139,
                27.900919554742284
              ],
              [
                86.91078331607495,
                27.90119037723514
              ],
              [
                86.91088492951138,
                27.901190442973853
              ],
              [
                86.91088478159479,
                27.90137099129344
              ],
              [
                86.91078316799667,
                27.901370925554726
              ],
              [
                86.91078309395752,
                27.901461199710027
              ],
              [
                86.91068148026957,
                27.901461133899453
              ],
              [
                86.91068162851855,
                27.901280585579865
              ],
              [
                86.91058001500129,
                27.901280519688438
              ],
              [
                86.91058008921111,
                27.901190245524152
              ],
              [
                86.91037686233827,
                27.901190113516723
              ],
              [
                86.91037693671878,
                27.901099839352437
              ],
              [
                86.90997048332343,
                27.901099574448242
              ],
              [
                86.90997040861055,
                27.901189848603543
              ],
              [
                86.9097671817467,
                27.9011897156978
              ],
              [
                86.90976725663026,
                27.901099441542495
              ],
              [
                86.90956402993709,
                27.90109930833132
              ],
              [
                86.90956433014507,
                27.900738211683166
              ],
              [
                86.90946271713985,
                27.90073814496529
              ],
              [
                86.90946286741001,
                27.90055759663672
              ],
              [
                86.90915802888841,
                27.900557396042917
              ],
              [
                86.90915795350179,
                27.900647670216184
              ],
              [
                86.90885311473764,
                27.900647468948645
              ],
              [
                86.90885319037578,
                27.900557194784362
              ],
              [
                86.90875157754122,
                27.90055712754546
              ],
              [
                86.90875165326023,
                27.900466853381175
              ]
            ],
            [
              [
                86.91698531843844,
                27.896499991532878
              ],
              [
                86.91698524955561,
                27.896590265769028
              ],
              [
                86.91688364040417,
                27.89659020453986
              ],
              [
                86.91688370936782,
                27.89649993030371
              ],
              [
                86.91698531843844,
                27.896499991532878
              ]
            ],
            [
              [
                86.91393561820551,
                27.898303606322788
              ],
              [
                86.91393568962158,
                27.898213332113585
              ],
              [
                86.91403730029118,
                27.898213395525662
              ],
              [
                86.91403722895598,
                27.89830366973486
              ],
              [
                86.91393561820551,
                27.898303606322788
              ]
            ]
          ],
          [
            [
              [
                86.91729021427255,
                27.89640990054406
              ],
              [
                86.91698538731227,
                27.896409717296727
              ],
              [
                86.91698545619508,
                27.896319443051592
              ],
              [
                86.91729028290385,
                27.89631962630791
              ],
              [
                86.91729021427255,
                27.89640990054406
              ]
            ]
          ]
        ]
      },
      "id": "+9359+1449",
      "properties": {
        "area_m2": 1801921.3587679553,
        "count": 17977,
        "image_id": "COPERNICUS/S2_SR_HARMONIZED/20241023T044749_20241023T045343_T45RVL",
        "lake_id": "imja-tsho",
        "observed_at": "2024-10-23T05:01:05.452000Z",
        "water": 1
      }
    }
  ]
}
