{
  "type": "FeatureCollection",
  "features": [
    {
      "type": "Feature",
      "geometry": {
        "geodesic": false,
        "type": "MultiPolygon",
        "coordinates": [
          [
            [
              [
                86.91678203124371,
                27.89659014322984
              ],
              [
                86.91657881294081,
                27.896590020385226
              ],
              [
                86.91657874371663,
                27.896680294621373
              ],
              [
                86.91637552524304,
                27.896680171480316
              ],
              [
                86.91637559462892,
                27.896589897244166
              ],
              [
                86.91627398547746,
                27.896589835556853
              ],
              [
                86.91627405495316,
                27.896499561320702
              ],
              [
                86.91678210029721,
                27.89649986899369
              ],
              [
                86.91678203124371,
                27.89659014322984
              ]
            ]
          ],
          [
            [
              [
                86.91881441648361,
                27.896320532447522
              ],
              [
                86.91881448383928,
                27.896230258202387
              ],
              [
                86.91891609266735,
                27.89623031801222
              ],
              [
                86.91891602538354,
                27.896320592257354
              ],
              [
                86.91881441648361,
                27.896320532447522
              ]
            ]
          ],
          [
            [
              [
                86.92115168312169,
                27.895960792129678
              ],
              [
                86.92105007454516,
                27.895960733963765
              ],
              [
                86.92105014005031,
                27.89587045970965
              ],
              [
                86.921151748546,
                27.89587051787556
              ],
              [
                86.92115168312169,
                27.895960792129678
              ]
            ]
          ],
          [
            [
              [
                86.934667089995,
                27.89353045413521
              ],
              [
                86.93456548365526,
                27.893530405940595
              ],
              [
                86.93456553794046,
                27.893440131623596
              ],
              [
                86.93466714419036,
                27.89344017981821
              ],
              [
                86.934667089995,
                27.89353045413521
              ]
            ]
          ],
          [
            [
              [
                86.9389340497755,
                27.894435153835882
              ],
              [
                86.9389339991105,
                27.8945254281439
              ],
              [
                86.93883239183653,
                27.894525383093388
              ],
              [
                86.93883244258237,
                27.894435108785373
              ],
              [
                86.9389340497755,
                27.894435153835882
              ]
            ]
          ],
          [
            [
              [
                86.93964555048787,
                27.89398409552038
              ],
              [
                86.93964560055996,
                27.89389382120338
              ],
              [
                86.93974720725002,
                27.893893865661003
              ],
              [
                86.93974715725878,
                27.893984139978002
              ],
              [
                86.93964555048787,
                27.89398409552038
              ]
            ]
          ],
          [
            [
              [
                86.94157569140451,
                27.89470712180649
              ],
              [
                86.94147408395985,
                27.89470707869634
              ],
              [
                86.94147413251379,
                27.894616804388324
              ],
              [
                86.94157573987759,
                27.89461684748949
              ],
              [
                86.94157569140451,
                27.89470712180649
              ]
            ]
          ],
          [
            [
              [
                86.94157583682379,
                27.894436298864477
              ],
              [
                86.9416774440259,
                27.89443634189378
              ],
              [
                86.94167739563365,
                27.89452661621078
              ],
              [
                86.94157578835069,
                27.894526573181476
              ],
              [
                86.94157583682379,
                27.894436298864477
              ]
            ]
          ],
          [
            [
              [
                86.91708665231913,
                27.896861149643765
              ],
              [
                86.9178995275969,
                27.89686163622522
              ],
              [
                86.9178996638354,
                27.89668108775292
              ],
              [
                86.91810288232696,
                27.896681208648193
              ],
              [
                86.91810301823308,
                27.896500660166907
              ],
              [
                86.91759497286208,
                27.896500357362793
              ],
              [
                86.91759504124184,
                27.896410083126643
              ],
              [
                86.91779825921238,
                27.89641020447107
              ],
              [
                86.91779832742145,
                27.89631993022594
              ],
              [
                86.91749350071268,
                27.896319748101497
              ],
              [
                86.91749356916431,
                27.896229473856362
              ],
              [
                86.91810322208777,
                27.89622983743151
              ],
              [
                86.91810315413022,
                27.89632011167664
              ],
              [
                86.91881441648361,
                27.896320532447522
              ],
              [
                86.91881428175428,
                27.89650108093779
              ],
              [
                86.91871267267469,
                27.896501021056093
              ],
              [
                86.91871260522917,
                27.896591295292243
              ],
              [
                86.91891582355005,
                27.896591414992752
              ],
              [
                86.91891575627523,
                27.896681689228902
              ],
              [
                86.91911897476679,
                27.89668180863297
              ],
              [
                86.91911910898406,
                27.896501260142703
              ],
              [
                86.91972876345262,
                27.89650161654031
              ],
              [
                86.91972883005373,
                27.896411342295178
              ],
              [
                86.91993204804223,
                27.8964114604955
              ],
              [
                86.91993198161181,
                27.896501734740635
              ],
              [
                86.92033841793017,
                27.896501970233988
              ],
              [
                86.92033861622429,
                27.896231147489605
              ],
              [
                86.92064344270848,
                27.896231323325836
              ],
              [
                86.92064350855499,
                27.89614104907172
              ],
              [
                86.92094833478764,
                27.896141224234217
              ],
              [
                86.92094840038263,
                27.8960509499801
              ],
              [
                86.92115161769739,
                27.896051066383794
              ],
              [
                86.92115168312169,
                27.895960792129678
              ],
              [
                86.92125329169822,
                27.895960850214745
              ],
              [
                86.92125342237615,
                27.895780301697528
              ],
              [
                86.92135503078201,
                27.89578035971073
              ],
              [
                86.92135509603563,
                27.895690085456614
              ],
              [
                86.92155831268565,
                27.895690201249455
              ],
              [
                86.9215582476027,
                27.895780475512552
              ],
              [
                86.92206628965891,
                27.8957807636921
              ],
              [
                86.92206635431965,
                27.89569048943798
              ],
              [
                86.92226957097864,
                27.895690604188776
              ],
              [
                86.9222696354687,
                27.895600329925674
              ],
              [
                86.92206641898039,
                27.89560021517488
              ],
              [
                86.92206648364112,
                27.89550994091178
              ],
              [
                86.92226969995876,
                27.895510055662577
              ],
              [
                86.9222697644578,
                27.895419781399475
              ],
              [
                86.92247298060475,
                27.895419895844842
              ],
              [
                86.92247310925248,
                27.89523934730966
              ],
              [
                86.92257471715527,
                27.895239404424544
              ],
              [
                86.92257465291675,
                27.895329678687645
              ],
              [
                86.922777868902,
                27.895329792692838
              ],
              [
                86.92277793296985,
                27.895239518420755
              ],
              [
                86.92287954088164,
                27.895239575311063
              ],
              [
                86.92287941290765,
                27.895420123846243
              ],
              [
                86.92298102098111,
                27.8954201806557
              ],
              [
                86.92298095708395,
                27.895510454918803
              ],
              [
                86.92308256524726,
                27.895510511656397
              ],
              [
                86.92308262906359,
                27.895420237393296
              ],
              [
                86.92359066944893,
                27.895420519949386
              ],
              [
                86.92359073285202,
                27.895330245686285
              ],
              [
                86.92348912485042,
                27.895330189325986
              ],
              [
                86.92348918833436,
                27.895239915053903
              ],
              [
                86.92379401206071,
                27.89524008391921
              ],
              [
                86.92379388560487,
                27.895420632454393
              ],
              [
                86.9239971017698,
                27.895420744653972
              ],
              [
                86.92399716483152,
                27.89533047039087
              ],
              [
                86.9243019888184,
                27.8953306381243
              ],
              [
                86.92430205161962,
                27.895240363852217
              ],
              [
                86.92450526744318,
                27.895240475306196
              ],
              [
                86.92450545536175,
                27.894969652489948
              ],
              [
                86.92460706302201,
                27.894969708095662
              ],
              [
                86.9246071255717,
                27.89487943382358
              ],
              [
                86.92481034072152,
                27.894879544819418
              ],
              [
                86.9248102783425,
                27.89496981910048
              ],
              [
                86.92470867068226,
                27.894969763638496
              ],
              [
                86.92470854574456,
                27.89515031218266
              ],
              [
                86.92481015356651,
                27.89515036764465
              ],
              [
                86.92481021595451,
                27.895060093372564
              ],
              [
                86.9250134314457,
                27.89506020408094
              ],
              [
                86.92501355587135,
                27.89487965552779
              ],
              [
                86.92511516345076,
                27.8948797107652
              ],
              [
                86.9251152877147,
                27.894699162203068
              ],
              [
                86.92521689512343,
                27.894699217368608
              ],
              [
                86.92521683307679,
                27.894789491649675
              ],
              [
                86.92542004806492,
                27.894789601747195
              ],
              [
                86.92542010994087,
                27.894699327466128
              ],
              [
                86.9255217173496,
                27.894699382407094
              ],
              [
                86.92552177914472,
                27.894609108126026
              ],
              [
                86.9256233864636,
                27.894609162986143
              ],
              [
                86.92562332475833,
                27.894699437267207
              ],
              [
                86.92582653957578,
                27.89469954677184
              ],
              [
                86.92582647804117,
                27.894789821052907
              ],
              [
                86.92592808553076,
                27.894789875688442
              ],
              [
                86.92592814699348,
                27.894699601407375
              ],
              [
                86.92602975440221,
                27.894699655971046
              ],
              [
                86.92602981577511,
                27.894609381689982
              ],
              [
                86.92613142310299,
                27.894609436181785
              ],
              [
                86.92613130052786,
                27.894789984743916
              ],
              [
                86.9260296930293,
                27.894789930252113
              ],
              [
                86.9260296316564,
                27.894880204533177
              ],
              [
                86.9258264164976,
                27.89488009533397
              ],
              [
                86.92582635496301,
                27.894970369606057
              ],
              [
                86.9269440392707,
                27.894970966518596
              ],
              [
                86.92694409988901,
                27.89488069223753
              ],
              [
                86.9271473150568,
                27.89488079979282
              ],
              [
                86.92714725460917,
                27.894971074073883
              ],
              [
                86.92775690061559,
                27.89497139494312
              ],
              [
                86.92775684068,
                27.895061669224187
              ],
              [
                86.92796005618915,
                27.895061775575734
              ],
              [
                86.92796011595406,
                27.894971501294666
              ],
              [
                86.92846815430923,
                27.894971765875468
              ],
              [
                86.92846821365194,
                27.8948814915944
              ],
              [
                86.92887464400549,
                27.894881701907977
              ],
              [
                86.92887470301582,
                27.89479142762691
              ],
              [
                86.92897631051437,
                27.894791480016657
              ],
              [
                86.92897636944386,
                27.89470120572661
              ],
              [
                86.92907797686156,
                27.89470125804449
              ],
              [
                86.92907803570121,
                27.89461098375444
              ],
              [
                86.92917964303807,
                27.89461103600046
              ],
              [
                86.92917952552945,
                27.894791584580556
              ],
              [
                86.929281133028,
                27.894791636745726
              ],
              [
                86.92928107435904,
                27.89488191102679
              ],
              [
                86.9295858971242,
                27.894882067082122
              ],
              [
                86.92958595554164,
                27.894791792792073
              ],
              [
                86.92968756304917,
                27.894791844660798
              ],
              [
                86.92968762138577,
                27.89470157037075
              ],
              [
                86.92978922880349,
                27.894701622167606
              ],
              [
                86.92978928705922,
                27.894611347877557
              ],
              [
                86.92999250173294,
                27.894611451237715
              ],
              [
                86.929992559818,
                27.894521176947666
              ],
              [
                86.93009416707402,
                27.894521228510964
              ],
              [
                86.9300941090698,
                27.894611502801013
              ],
              [
                86.93019571640666,
                27.894611554292442
              ],
              [
                86.93019577432105,
                27.894521280002394
              ],
              [
                86.93050059608908,
                27.894521434027535
              ],
              [
                86.93050053842622,
                27.894611708326565
              ],
              [
                86.93029732374352,
                27.89461160571201
              ],
              [
                86.93029726591897,
                27.89470188000206
              ],
              [
                86.93039887333667,
                27.89470193134976
              ],
              [
                86.93039875784926,
                27.894882479920877
              ],
              [
                86.93060197303502,
                27.894882582382717
              ],
              [
                86.93060203060804,
                27.89479230809267
              ],
              [
                86.93070363811559,
                27.894792359215792
              ],
              [
                86.93070369560776,
                27.894702084925743
              ],
              [
                86.93111012530554,
                27.894702288645682
              ],
              [
                86.93111023961616,
                27.894521740065585
              ],
              [
                86.93121184687217,
                27.894521790802433
              ],
              [
                86.9312117898022,
                27.894612065101466
              ],
              [
                86.93131339714805,
                27.894612115766446
              ],
              [
                86.93131334015892,
                27.894702390056494
              ],
              [
                86.931618162439,
                27.89470254162025
              ],
              [
                86.9316182191676,
                27.894612267321218
              ],
              [
                86.93182143385928,
                27.89461236798643
              ],
              [
                86.93182149041722,
                27.89452209369638
              ],
              [
                86.93192309768222,
                27.894522143912205
              ],
              [
                86.93192304119614,
                27.894612418202254
              ],
              [
                86.93202464854198,
                27.894612468346214
              ],
              [
                86.93202493052316,
                27.894161096860035
              ],
              [
                86.93212653744679,
                27.894161146932127
              ],
              [
                86.9321265937532,
                27.894070872633094
              ],
              [
                86.93222820059597,
                27.89407092262434
              ],
              [
                86.93222808813589,
                27.894251471222404
              ],
              [
                86.93243130215383,
                27.8942515709893
              ],
              [
                86.93243124608998,
                27.894341845288334
              ],
              [
                86.93232963900465,
                27.89434179544082
              ],
              [
                86.93232947057054,
                27.894612618337916
              ],
              [
                86.93243107791638,
                27.894612668176446
              ],
              [
                86.93243113397125,
                27.894522393886398
              ],
              [
                86.93253274123624,
                27.894522443653063
              ],
              [
                86.93253268526222,
                27.894612717952096
              ],
              [
                86.93283750729076,
                27.894612866811922
              ],
              [
                86.93283761873575,
                27.89443231821386
              ],
              [
                86.93293922591091,
                27.894432367684082
              ],
              [
                86.93293917027825,
                27.894522641983112
              ],
              [
                86.93314238479925,
                27.894522740698978
              ],
              [
                86.93314232932829,
                27.89461301499801
              ],
              [
                86.93334554401997,
                27.89461311340845
              ],
              [
                86.93334559932026,
                27.89452283910942
              ],
              [
                86.93426006468724,
                27.894523278277795
              ],
              [
                86.93426011923295,
                27.89443300397876
              ],
              [
                86.93466654795155,
                27.89443319720638
              ],
              [
                86.93466660216488,
                27.89434292290735
              ],
              [
                86.93497142344782,
                27.894343067051018
              ],
              [
                86.93497147740064,
                27.894252792743004
              ],
              [
                86.9350730844141,
                27.894252840641172
              ],
              [
                86.93507319214906,
                27.894072292025143
              ],
              [
                86.93497158530627,
                27.89407224412697
              ],
              [
                86.9349716932119,
                27.89389169551094
              ],
              [
                86.93466687317762,
                27.893891551376253
              ],
              [
                86.934667089995,
                27.89353045413521
              ],
              [
                86.93487030266547,
                27.89353055029986
              ],
              [
                86.93487024863181,
                27.893620824607876
              ],
              [
                86.93517506790252,
                27.893620968293405
              ],
              [
                86.93517496033824,
                27.89380151691842
              ],
              [
                86.9352765669385,
                27.893801564663878
              ],
              [
                86.93527667433209,
                27.893621016038864
              ],
              [
                86.93537828075266,
                27.893621063712455
              ],
              [
                86.93537817352974,
                27.89380161233747
              ],
              [
                86.93558138671226,
                27.89380170745109
              ],
              [
                86.93558133327149,
                27.89389198176809
              ],
              [
                86.9352765132372,
                27.893891838980874
              ],
              [
                86.93527645953591,
                27.893982113288892
              ],
              [
                86.93537806629786,
                27.893982160962484
              ],
              [
                86.9353780126864,
                27.8940724352705
              ],
              [
                86.93547961952918,
                27.89407248286324
              ],
              [
                86.93547945894635,
                27.894343305778307
              ],
              [
                86.93558106604065,
                27.894343353308166
              ],
              [
                86.93558111949042,
                27.89425307900015
              ],
              [
                86.93578433351735,
                27.89425317381733
              ],
              [
                86.93578444006653,
                27.8940726252013
              ],
              [
                86.93598765376107,
                27.894072719722033
              ],
              [
                86.93598754754427,
                27.894253268338066
              ],
              [
                86.93619076158019,
                27.894253362562353
              ],
              [
                86.93619070864247,
                27.894343636861386
              ],
              [
                86.93639392284008,
                27.89434373078923
              ],
              [
                86.93639408115916,
                27.894072907865187
              ],
              [
                86.93649568800195,
                27.89407295471233
              ],
              [
                86.93649563531577,
                27.894163229020343
              ],
              [
                86.93659724224838,
                27.89416327579562
              ],
              [
                86.93659718964304,
                27.894253550103635
              ],
              [
                86.93649558262958,
                27.894253503328358
              ],
              [
                86.93649542457099,
                27.894524326243424
              ],
              [
                86.93639381729702,
                27.89452427939628
              ],
              [
                86.93639371175395,
                27.894704828003327
              ],
              [
                86.9365969266253,
                27.894704921625745
              ],
              [
                86.93659687402895,
                27.89479519592478
              ],
              [
                86.93751134174053,
                27.894795613524604
              ],
              [
                86.93751128989875,
                27.894885887823637
              ],
              [
                86.9376128975051,
                27.894885933853313
              ],
              [
                86.93761294926603,
                27.8947956595453
              ],
              [
                86.93771455679153,
                27.894795705503107
              ],
              [
                86.93771450511146,
                27.89488597980214
              ],
              [
                86.93812093555484,
                27.894886162851844
              ],
              [
                86.93812098689355,
                27.894795888552814
              ],
              [
                86.93832420195355,
                27.894795979624018
              ],
              [
                86.93832415077652,
                27.894886253932032
              ],
              [
                86.93913701168125,
                27.894886615243422
              ],
              [
                86.93913706217556,
                27.894796340935407
              ],
              [
                86.93923866970106,
                27.894796385770324
              ],
              [
                86.93923861928761,
                27.894886660069353
              ],
              [
                86.93934022690294,
                27.894886704823424
              ],
              [
                86.93934037789178,
                27.894615881908358
              ],
              [
                86.93923877052796,
                27.89461583715429
              ],
              [
                86.93923882094143,
                27.894525562846276
              ],
              [
                86.9393404282154,
                27.894525607600343
              ],
              [
                86.93934047853902,
                27.894435333283344
              ],
              [
                86.9389340497755,
                27.894435153835882
              ],
              [
                86.93893410044048,
                27.894344879518886
              ],
              [
                86.93883249333717,
                27.894344834468374
              ],
              [
                86.93883254408301,
                27.89425456016036
              ],
              [
                86.93893415110546,
                27.894254605210868
              ],
              [
                86.93893425243542,
                27.894074056585854
              ],
              [
                86.93913746613896,
                27.894074146462298
              ],
              [
                86.93913751663325,
                27.893983872145302
              ],
              [
                86.93923912340418,
                27.893983916971234
              ],
              [
                86.93923902258625,
                27.894164465605233
              ],
              [
                86.93913741564465,
                27.894164420779298
              ],
              [
                86.93913736515036,
                27.894254695087312
              ],
              [
                86.9392389721728,
                27.894254739913247
              ],
              [
                86.93923892175935,
                27.894345014230247
              ],
              [
                86.93944213597493,
                27.894345103657532
              ],
              [
                86.93944233694602,
                27.89398400639852
              ],
              [
                86.93964555048787,
                27.89398409552038
              ],
              [
                86.93964550041576,
                27.894074369837377
              ],
              [
                86.93984871412829,
                27.894074458671778
              ],
              [
                86.9398487640297,
                27.893984184354778
              ],
              [
                86.93995037080062,
                27.893984228650705
              ],
              [
                86.93995032098006,
                27.894074502967705
              ],
              [
                86.94005192784081,
                27.894074547191764
              ],
              [
                86.94005182837036,
                27.894255095825763
              ],
              [
                86.9401534353928,
                27.894255139977957
              ],
              [
                86.94015353470157,
                27.894074591343962
              ],
              [
                86.94035674841408,
                27.894074679423774
              ],
              [
                86.9403566989259,
                27.894164953740773
              ],
              [
                86.9404583058675,
                27.89416499766839
              ],
              [
                86.94045835526585,
                27.89407472335139
              ],
              [
                86.9405599621266,
                27.894074767207144
              ],
              [
                86.94056006075263,
                27.893894218564164
              ],
              [
                86.94066166744271,
                27.893894262348052
              ],
              [
                86.94066151975069,
                27.894165085299047
              ],
              [
                86.94076312669229,
                27.894165129002086
              ],
              [
                86.94076317583912,
                27.894074854685087
              ],
              [
                86.94086478269988,
                27.894074898307277
              ],
              [
                86.94086483176585,
                27.893984623990278
              ],
              [
                86.94096643853678,
                27.893984667540604
              ],
              [
                86.94096624262319,
                27.894345764808598
              ],
              [
                86.94106784973548,
                27.894345808287056
              ],
              [
                86.94106780084017,
                27.894436082604056
              ],
              [
                86.94127101523542,
                27.894436169327413
              ],
              [
                86.94127106396003,
                27.8943458950194
              ],
              [
                86.94137267107232,
                27.89434593827328
              ],
              [
                86.94137271971609,
                27.89425566395628
              ],
              [
                86.94106789863078,
                27.89425553397006
              ],
              [
                86.94106804530769,
                27.893984711019062
              ],
              [
                86.94127125885852,
                27.893984797751404
              ],
              [
                86.94127121013389,
                27.894075072068404
              ],
              [
                86.9414744238554,
                27.894075158495315
              ],
              [
                86.94147447240934,
                27.893984884178316
              ],
              [
                86.94188089951099,
                27.89398505614281
              ],
              [
                86.94188085129841,
                27.89407533045981
              ],
              [
                86.94177924443765,
                27.89407528758322
              ],
              [
                86.94177914783283,
                27.89425583621722
              ],
              [
                86.9416775408014,
                27.894255793268766
              ],
              [
                86.94167749240916,
                27.89434606757678
              ],
              [
                86.94157588529687,
                27.894346024556462
              ],
              [
                86.94157583682379,
                27.894436298864477
              ],
              [
                86.94147422963066,
                27.89443625576331
              ],
              [
                86.94147418107671,
                27.894526530071325
              ],
              [
                86.94116935922783,
                27.894526400318664
              ],
              [
                86.94116931042237,
                27.894616674626683
              ],
              [
                86.94096609569475,
                27.894616587741627
              ],
              [
                86.9409661446709,
                27.894526313433612
              ],
              [
                86.94086453738794,
                27.894526269883286
              ],
              [
                86.94086443926496,
                27.89470681849932
              ],
              [
                86.9413724765062,
                27.894707035523307
              ],
              [
                86.94137242787141,
                27.894797309831322
              ],
              [
                86.94157564293141,
                27.894797396114505
              ],
              [
                86.94157569140451,
                27.89470712180649
              ],
              [
                86.94177890631178,
                27.894707207784247
              ],
              [
                86.94177880969798,
                27.894887756400276
              ],
              [
                86.9418804173223,
                27.89488779928585
              ],
              [
                86.94188032087916,
                27.89506834790188
              ],
              [
                86.9420835364512,
                27.895068433430477
              ],
              [
                86.94208344034944,
                27.89524898204651
              ],
              [
                86.94228665626282,
                27.895249067278662
              ],
              [
                86.94228627317626,
                27.895971261670923
              ],
              [
                86.94248949044612,
                27.895971346615614
              ],
              [
                86.94248958588314,
                27.89579079801755
              ],
              [
                86.94269280281162,
                27.895790882656815
              ],
              [
                86.94269270770698,
                27.895971431254882
              ],
              [
                86.94289592497684,
                27.895971515597704
              ],
              [
                86.94289583021356,
                27.896152064186786
              ],
              [
                86.9434038742281,
                27.896152273727807
              ],
              [
                86.94340378030924,
                27.896332822307908
              ],
              [
                86.94350538928103,
                27.896332863989734
              ],
              [
                86.9435051080275,
                27.896874509721048
              ],
              [
                86.94360671750235,
                27.896874551331013
              ],
              [
                86.94360653032938,
                27.89723564846426
              ],
              [
                86.94350492051316,
                27.897235606854295
              ],
              [
                86.9435045454845,
                27.897957801057906
              ],
              [
                86.9433013245136,
                27.897957717604417
              ],
              [
                86.94330113631655,
                27.898318814683766
              ],
              [
                86.94350435797017,
                27.898318898128274
              ],
              [
                86.94350426420402,
                27.898499446663454
              ],
              [
                86.943707486199,
                27.898499529811517
              ],
              [
                86.94370739277421,
                27.89868007833772
              ],
              [
                86.94401222626527,
                27.898680202502856
              ],
              [
                86.94401213335252,
                27.898860751020074
              ],
              [
                86.94411374468687,
                27.898860792261726
              ],
              [
                86.94411360555581,
                27.89913161503306
              ],
              [
                86.94401199396992,
                27.899131573791404
              ],
              [
                86.94401185458732,
                27.899402396553754
              ],
              [
                86.94380863090349,
                27.89940231385485
              ],
              [
                86.94380867753505,
                27.899312039600733
              ],
              [
                86.94370706577847,
                27.8993119981345
              ],
              [
                86.94370711249985,
                27.899221723880384
              ],
              [
                86.94360550082413,
                27.899221682342283
              ],
              [
                86.94360554762636,
                27.899131408088166
              ],
              [
                86.94309748969691,
                27.89913119927478
              ],
              [
                86.94309753692134,
                27.89904092501168
              ],
              [
                86.9429959254163,
                27.899040883024423
              ],
              [
                86.94299597272158,
                27.898950608770306
              ],
              [
                86.94269113847595,
                27.898950482359382
              ],
              [
                86.94269109091914,
                27.8990407566135
              ],
              [
                86.9425894794141,
                27.899040714320815
              ],
              [
                86.94258943177644,
                27.899130988583913
              ],
              [
                86.94238620861364,
                27.89913090378295
              ],
              [
                86.9423861608053,
                27.899221178028085
              ],
              [
                86.94218293746283,
                27.899221092930677
              ],
              [
                86.94218288948382,
                27.899311367184794
              ],
              [
                86.94177644248448,
                27.89931119608268
              ],
              [
                86.94177639416411,
                27.899401470327813
              ],
              [
                86.94157317049826,
                27.899401384332094
              ],
              [
                86.94157312201618,
                27.899491658577226
              ],
              [
                86.94136989817964,
                27.899491572276077
              ],
              [
                86.9413698495269,
                27.89958184652121
              ],
              [
                86.94126823751878,
                27.899581803258346
              ],
              [
                86.94126833499499,
                27.89940125476808
              ],
              [
                86.94086188766327,
                27.89940108097102
              ],
              [
                86.94086178951335,
                27.899581629461288
              ],
              [
                86.9404553415079,
                27.89958145446049
              ],
              [
                86.94045524268424,
                27.899762002950755
              ],
              [
                86.93943912100426,
                27.899761560207082
              ],
              [
                86.93943902049176,
                27.899942108688368
              ],
              [
                86.93903257114782,
                27.899941929492435
              ],
              [
                86.93903246996159,
                27.900122477964736
              ],
              [
                86.93882924495725,
                27.900122387917612
              ],
              [
                86.93882894037446,
                27.90066403329858
              ],
              [
                86.93903216638492,
                27.900664123354687
              ],
              [
                86.93903206519869,
                27.900844671800037
              ],
              [
                86.9392352915505,
                27.9008447615597
              ],
              [
                86.93923519069665,
                27.901025310005053
              ],
              [
                86.93943841738982,
                27.90102539945929
              ],
              [
                86.93943821634686,
                27.901386496341008
              ],
              [
                86.93964144372276,
                27.9013865854988
              ],
              [
                86.93964134353365,
                27.901567133935167
              ],
              [
                86.94025102665847,
                27.90156739960293
              ],
              [
                86.94025092748447,
                27.901747948030316
              ],
              [
                86.9404541555341,
                27.901748035993347
              ],
              [
                86.94045405670145,
                27.90192858442073
              ],
              [
                86.94055567089245,
                27.901928628285468
              ],
              [
                86.94055547355056,
                27.902289725131254
              ],
              [
                86.94025062996245,
                27.902289593303486
              ],
              [
                86.94025072913645,
                27.902109044885083
              ],
              [
                86.94004750041309,
                27.902108956625607
              ],
              [
                86.94004759992845,
                27.901928408207205
              ],
              [
                86.9390314580184,
                27.90192796242723
              ],
              [
                86.9390313568232,
                27.90210851084563
              ],
              [
                86.93882812809981,
                27.902108420789524
              ],
              [
                86.93882807733603,
                27.902198694998724
              ],
              [
                86.93842161956589,
                27.902198513988193
              ],
              [
                86.93842167067105,
                27.902108239778993
              ],
              [
                86.93811682760396,
                27.90210810323507
              ],
              [
                86.93811687896064,
                27.90201782902587
              ],
              [
                86.93760880761036,
                27.90201759995547
              ],
              [
                86.93760885938926,
                27.90192732574627
              ],
              [
                86.93730401682522,
                27.901927187405718
              ],
              [
                86.93730406886463,
                27.901836913196515
              ],
              [
                86.93699922656111,
                27.901836774182225
              ],
              [
                86.93699927884306,
                27.901746499973026
              ],
              [
                86.93659282277973,
                27.90174631356362
              ],
              [
                86.93659287540304,
                27.90165603935442
              ],
              [
                86.93628803361156,
                27.901655898768077
              ],
              [
                86.9362880864864,
                27.901565624558877
              ],
              [
                86.93598324494644,
                27.9015654832988
              ],
              [
                86.9359832980818,
                27.901475209089597
              ],
              [
                86.93588168432198,
                27.9014751618472
              ],
              [
                86.93588173752919,
                27.901384887637995
              ],
              [
                86.93557689650129,
                27.901384745479604
              ],
              [
                86.935576949969,
                27.90129447126142
              ],
              [
                86.93537372278176,
                27.90129437612085
              ],
              [
                86.93537377642016,
                27.901204101902664
              ],
              [
                86.934967322396,
                27.901203910714223
              ],
              [
                86.93496737636679,
                27.90111363649604
              ],
              [
                86.93456092268399,
                27.901113444103853
              ],
              [
                86.93456097699614,
                27.90102316988567
              ],
              [
                86.9341545236547,
                27.901022976298727
              ],
              [
                86.93415457829921,
                27.900932702089523
              ],
              [
                86.93374812529913,
                27.900932507298837
              ],
              [
                86.93374818027604,
                27.900842233080656
              ],
              [
                86.93263043547579,
                27.900841691243823
              ],
              [
                86.93263049138693,
                27.900751417025642
              ],
              [
                86.93202081292438,
                27.90075111765309
              ],
              [
                86.93202086933857,
                27.900660843443887
              ],
              [
                86.9315128043843,
                27.900660591906625
              ],
              [
                86.9315128612207,
                27.90057031768844
              ],
              [
                86.93100479668864,
                27.900570064282682
              ],
              [
                86.93100485394724,
                27.900479790073483
              ],
              [
                86.93070001548853,
                27.90047963712632
              ],
              [
                86.93070007299866,
                27.90038936291712
              ],
              [
                86.92978555838604,
                27.900388900042206
              ],
              [
                86.92978561665976,
                27.90029862582402
              ],
              [
                86.92968400400487,
                27.90029857402716
              ],
              [
                86.92968394565929,
                27.90038884823636
              ],
              [
                86.92907426926286,
                27.90038853583824
              ],
              [
                86.92907432812048,
                27.900298261620055
              ],
              [
                86.92897271547457,
                27.90029820929319
              ],
              [
                86.9289726565361,
                27.900388483511374
              ],
              [
                86.92795652923266,
                27.900387956101486
              ],
              [
                86.92795646944978,
                27.90047823031069
              ],
              [
                86.92734679257724,
                27.900477910267902
              ],
              [
                86.92734673228232,
                27.900568184477102
              ],
              [
                86.92653382912982,
                27.90056775355526
              ],
              [
                86.92653376816116,
                27.90065802775548
              ],
              [
                86.9249079605626,
                27.900657151529767
              ],
              [
                86.92490789824647,
                27.900747425729985
              ],
              [
                86.92429821990967,
                27.900747092194504
              ],
              [
                86.9242981570815,
                27.900837366394722
              ],
              [
                86.92358686511065,
                27.900836973866873
              ],
              [
                86.92358680169858,
                27.900927248058107
              ],
              [
                86.92267228271116,
                27.900926737976725
              ],
              [
                86.92267221853552,
                27.90101701217694
              ],
              [
                86.92246899193218,
                27.901016898001068
              ],
              [
                86.9224690562785,
                27.900926623809834
              ],
              [
                86.92226582983685,
                27.900926509328535
              ],
              [
                86.92226576532883,
                27.90101678351977
              ],
              [
                86.92155447221712,
                27.9010163804996
              ],
              [
                86.92155440711622,
                27.901106654690835
              ],
              [
                86.92114795357715,
                27.90110642274583
              ],
              [
                86.92114788814386,
                27.90119669692808
              ],
              [
                86.92023336694659,
                27.901196170659052
              ],
              [
                86.92023330074075,
                27.90128644485029
              ],
              [
                86.9197252330017,
                27.90128614985253
              ],
              [
                86.91972516638263,
                27.901376424034783
              ],
              [
                86.9189122573372,
                27.90137594814328
              ],
              [
                86.91891232462999,
                27.90128567397001
              ],
              [
                86.91881071108577,
                27.90128561414221
              ],
              [
                86.91881064370314,
                27.901375888324463
              ],
              [
                86.91830257555985,
                27.901375588080548
              ],
              [
                86.918302507764,
                27.901465862262796
              ],
              [
                86.91799766662828,
                27.901465681216337
              ],
              [
                86.91799759857192,
                27.901555955389604
              ],
              [
                86.91769275718468,
                27.90155577367839
              ],
              [
                86.91769268887678,
                27.901646047851656
              ],
              [
                86.9174894611236,
                27.901645926327564
              ],
              [
                86.91748939264502,
                27.90173620050083
              ],
              [
                86.91728616472116,
                27.901736078680297
              ],
              [
                86.9172860960719,
                27.90182635284458
              ],
              [
                86.91698125393906,
                27.901826169552333
              ],
              [
                86.91698118503828,
                27.9019164437256
              ],
              [
                86.91687957091015,
                27.901916382478465
              ],
              [
                86.91687970887342,
                27.90173583414091
              ],
              [
                86.91667648094955,
                27.90173571142206
              ],
              [
                86.91667634264493,
                27.901916259750628
              ],
              [
                86.91626988614142,
                27.901916013414613
              ],
              [
                86.91626974715408,
                27.902096561743182
              ],
              [
                86.91586328997684,
                27.902096314203423
              ],
              [
                86.91586315031576,
                27.90227686252301
              ],
              [
                86.91576153585527,
                27.902276800449425
              ],
              [
                86.91576146593938,
                27.902367074613707
              ],
              [
                86.9145420913983,
                27.902366323891627
              ],
              [
                86.91454237509525,
                27.902005227252452
              ],
              [
                86.91464398930422,
                27.902005290224352
              ],
              [
                86.91464413097752,
                27.901824741904765
              ],
              [
                86.91474574501581,
                27.90182480479582
              ],
              [
                86.91474588652741,
                27.90164425646725
              ],
              [
                86.91464427265981,
                27.901644193576196
              ],
              [
                86.91464434349197,
                27.90155391940293
              ],
              [
                86.91454272971419,
                27.90155385644001
              ],
              [
                86.91454280063618,
                27.90146358226674
              ],
              [
                86.91444118693026,
                27.901463519222975
              ],
              [
                86.91444125794209,
                27.90137324505869
              ],
              [
                86.914339644326,
                27.901373181934073
              ],
              [
                86.91433978650237,
                27.901192633596523
              ],
              [
                86.91423817305696,
                27.901192570400042
              ],
              [
                86.91423838657752,
                27.90092174788922
              ],
              [
                86.91413677338365,
                27.900921684620872
              ],
              [
                86.91413691590137,
                27.900741136265353
              ],
              [
                86.91352723775321,
                27.90074075508323
              ],
              [
                86.91352730951962,
                27.900650480909963
              ],
              [
                86.91342569658626,
                27.900650417120595
              ],
              [
                86.91342584027178,
                27.900469868765075
              ],
              [
                86.91322261473744,
                27.900469740961757
              ],
              [
                86.91322254271951,
                27.900560015135028
              ],
              [
                86.91301931701447,
                27.900559887026283
              ],
              [
                86.91301917264623,
                27.900740435381802
              ],
              [
                86.91312078566942,
                27.900740499467616
              ],
              [
                86.91312071357063,
                27.900830773640884
              ],
              [
                86.91322232667468,
                27.900830837663815
              ],
              [
                86.91322225465674,
                27.900921111837082
              ],
              [
                86.91332386785062,
                27.900921175779164
              ],
              [
                86.91332336431795,
                27.901553094947126
              ],
              [
                86.91322175054017,
                27.901553031005044
              ],
              [
                86.91322167852223,
                27.90164330516933
              ],
              [
                86.913018450796,
                27.901643177060585
              ],
              [
                86.91301837860738,
                27.90173345121589
              ],
              [
                86.91281515071046,
                27.901733322801718
              ],
              [
                86.91281522306078,
                27.901643048646417
              ],
              [
                86.91271360920214,
                27.901642984327044
              ],
              [
                86.91271368164229,
                27.901552710162758
              ],
              [
                86.91261206786452,
                27.901552645771517
              ],
              [
                86.91261221291548,
                27.901372097442948
              ],
              [
                86.9125105992994,
                27.90137203297086
              ],
              [
                86.91251067191023,
                27.901281758806576
              ],
              [
                86.91240905838397,
                27.90128169426262
              ],
              [
                86.91240913107565,
                27.901191420098336
              ],
              [
                86.91230751763922,
                27.901191355482517
              ],
              [
                86.91230773596577,
                27.90092053298068
              ],
              [
                86.91240934915066,
                27.9009205975965
              ],
              [
                86.91240942184234,
                27.90083032342323
              ],
              [
                86.91251103494638,
                27.900830387967183
              ],
              [
                86.91251118015904,
                27.900649839620648
              ],
              [
                86.91230795429232,
                27.900649710460875
              ],
              [
                86.91230788151081,
                27.900739984634143
              ],
              [
                86.9121046554824,
                27.900739855177928
              ],
              [
                86.91210472842559,
                27.90064958100466
              ],
              [
                86.91200311549223,
                27.90064951616426
              ],
              [
                86.91200326154032,
                27.900468967817726
              ],
              [
                86.91210487430301,
                27.900469032658123
              ],
              [
                86.9121049472462,
                27.900378758484855
              ],
              [
                86.91220655992805,
                27.900378823253387
              ],
              [
                86.91220677849714,
                27.900108000715615
              ],
              [
                86.9119019412152,
                27.900107806194423
              ],
              [
                86.91190201432909,
                27.900017532021156
              ],
              [
                86.9118004019886,
                27.900017467028047
              ],
              [
                86.91180054836909,
                27.899836918663542
              ],
              [
                86.91200377271765,
                27.899837048568916
              ],
              [
                86.91200391876575,
                27.89965650019543
              ],
              [
                86.91210553077386,
                27.899656565035826
              ],
              [
                86.91210560370807,
                27.899566290853574
              ],
              [
                86.91230882755359,
                27.899566420300808
              ],
              [
                86.91230875478107,
                27.899656694492045
              ],
              [
                86.91241036678916,
                27.899656759098878
              ],
              [
                86.91241029410648,
                27.89974703329011
              ],
              [
                86.9127151303823,
                27.899747226679427
              ],
              [
                86.91271520281346,
                27.899656952488193
              ],
              [
                86.91281681482155,
                27.899657016807566
              ],
              [
                86.91281688717187,
                27.899566742616333
              ],
              [
                86.91271527524462,
                27.89956667830594
              ],
              [
                86.91271542010695,
                27.89938612992347
              ],
              [
                86.91261380835935,
                27.899386065532234
              ],
              [
                86.91261395338337,
                27.899205517149763
              ],
              [
                86.91251234179748,
                27.899205452686658
              ],
              [
                86.91251241439933,
                27.899115178495425
              ],
              [
                86.91261402590438,
                27.89911524295853
              ],
              [
                86.91261417093737,
                27.898934694567078
              ],
              [
                86.91291900493148,
                27.898934887507234
              ],
              [
                86.91291907719196,
                27.898844613307016
              ],
              [
                86.91302068844547,
                27.898844677464695
              ],
              [
                86.91302090497538,
                27.89857385486404
              ],
              [
                86.9129192939734,
                27.89857379070636
              ],
              [
                86.91291936623388,
                27.898483516506147
              ],
              [
                86.91302097714603,
                27.89848358066382
              ],
              [
                86.91302112150531,
                27.898303032254404
              ],
              [
                86.91312273224678,
                27.898303096340218
              ],
              [
                86.91312287642639,
                27.898122547921815
              ],
              [
                86.91383415046685,
                27.898122994420444
              ],
              [
                86.91383400746405,
                27.898303542838846
              ],
              [
                86.91403722895598,
                27.89830366973486
              ],
              [
                86.91403751427887,
                27.89794257289806
              ],
              [
                86.91444395592424,
                27.897942825782795
              ],
              [
                86.91444409791197,
                27.89776227735541
              ],
              [
                86.9148505388836,
                27.897762529045387
              ],
              [
                86.91485068019757,
                27.89758198060902
              ],
              [
                86.91505390034203,
                27.897582106004847
              ],
              [
                86.91505404131465,
                27.897401557559498
              ],
              [
                86.91566370076886,
                27.89740193195036
              ],
              [
                86.91566384072638,
                27.897221383496024
              ],
              [
                86.91688315764054,
                27.89722212416596
              ],
              [
                86.91688329556787,
                27.897041575711626
              ],
              [
                86.91708651472418,
                27.89704169810708
              ],
              [
                86.91708665231913,
                27.896861149643765
              ]
            ],
            [
              [
                86.92287941290765,
                27.895420123846243
              ],
              [
                86.92287934892065,
                27.895510398109344
              ],
              [
                86.92277774075734,
                27.895510341219037
              ],
              [
                86.92277780483417,
                27.89542006695594
              ],
              [
                86.92287941290765,
                27.895420123846243
              ]
            ],
            [
              [
                86.92542004806492,
                27.894789601747195
              ],
              [
                86.92552165555449,
                27.894789656688157
              ],
              [
                86.92552147017815,
                27.895060479522375
              ],
              [
                86.92521664693689,
                27.895060314474907
              ],
              [
                86.92521670898353,
                27.894970040202825
              ],
              [
                86.92531831664377,
                27.894970095287515
              ],
              [
                86.92531837860956,
                27.894879821015433
              ],
              [
                86.92541998618897,
                27.894879876028263
              ],
              [
                86.92542004806492,
                27.894789601747195
              ]
            ],
            [
              [
                86.92917952552945,
                27.894791584580556
              ],
              [
                86.92917946677065,
                27.894881858861623
              ],
              [
                86.92907785918226,
                27.89488180662459
              ],
              [
                86.92907791802192,
                27.89479153233454
              ],
              [
                86.92917952552945,
                27.894791584580556
              ]
            ],
            [
              [
                86.9401534353928,
                27.894255139977957
              ],
              [
                86.94025504241526,
                27.894255184049307
              ],
              [
                86.9402549928552,
                27.894345458366306
              ],
              [
                86.94015338574292,
                27.894345414285972
              ],
              [
                86.9401534353928,
                27.894255139977957
              ]
            ],
            [
              [
                86.94086453738794,
                27.894526269883286
              ],
              [
                86.940661322831,
                27.894526182549075
              ],
              [
                86.94066137205867,
                27.89443590824106
              ],
              [
                86.94076297926078,
                27.894435951944097
              ],
              [
                86.94076302840762,
                27.8943456776271
              ],
              [
                86.94086463551092,
                27.894345721258272
              ],
              [
                86.94086453738794,
                27.894526269883286
              ]
            ],
            [
              [
                86.9416775408014,
                27.894255793268766
              ],
              [
                86.94147432674752,
                27.894255707129314
              ],
              [
                86.94147437530145,
                27.894165432821296
              ],
              [
                86.94167758918466,
                27.894165518951766
              ],
              [
                86.9416775408014,
                27.894255793268766
              ]
            ],
            [
              [
                86.94188032087916,
                27.89506834790188
              ],
              [
                86.9418801279929,
                27.895429445115976
              ],
              [
                86.94167691173816,
                27.895429359272967
              ],
              [
                86.94167710529815,
                27.89506826205887
              ],
              [
                86.94188032087916,
                27.89506834790188
              ]
            ],
            [
              [
                86.91322290279122,
                27.900108644241737
              ],
              [
                86.913223190845,
                27.899747547494766
              ],
              [
                86.91342641503188,
                27.89974767529808
              ],
              [
                86.91342612765183,
                27.90010877204505
              ],
              [
                86.91322290279122,
                27.900108644241737
              ]
            ],
            [
              [
                86.91830610080953,
                27.896681329238035
              ],
              [
                86.91830623637429,
                27.896500780756753
              ],
              [
                86.9185094545245,
                27.896500901059134
              ],
              [
                86.91850931929211,
                27.89668144954042
              ],
              [
                86.91830610080953,
                27.896681329238035
              ]
            ],
            [
              [
                86.92247285195701,
                27.89560044437104
              ],
              [
                86.92247291627639,
                27.895510170107944
              ],
              [
                86.9225745244397,
                27.89551022722283
              ],
              [
                86.92257446020118,
                27.895600501485927
              ],
              [
                86.92247285195701,
                27.89560044437104
              ]
            ],
            [
              [
                86.92562313963352,
                27.894970260110405
              ],
              [
                86.92562326305305,
                27.894789711548274
              ],
              [
                86.92572487054262,
                27.894789766336523
              ],
              [
                86.92572474729377,
                27.894970314898654
              ],
              [
                86.92562313963352,
                27.894970260110405
              ]
            ],
            [
              [
                86.9301955426635,
                27.894882377162592
              ],
              [
                86.93019560057789,
                27.894792102872543
              ],
              [
                86.93029720808543,
                27.89479215429211
              ],
              [
                86.93029715025189,
                27.894882428582157
              ],
              [
                86.9301955426635,
                27.894882377162592
              ]
            ],
            [
              [
                86.93527629844104,
                27.894252936212936
              ],
              [
                86.93527635214232,
                27.89416266190492
              ],
              [
                86.93537795907494,
                27.894162709578513
              ],
              [
                86.9353779054545,
                27.894252983877546
              ],
              [
                86.93527629844104,
                27.894252936212936
              ]
            ],
            [
              [
                86.9357841736801,
                27.894523996732392
              ],
              [
                86.93578422695919,
                27.894433722433362
              ],
              [
                86.93588583414333,
                27.89443376972966
              ],
              [
                86.93588588734157,
                27.894343495421644
              ],
              [
                86.93608910153918,
                27.894343589789667
              ],
              [
                86.93608904851162,
                27.89443386409768
              ],
              [
                86.93598744132748,
                27.894433816954095
              ],
              [
                86.93598738821908,
                27.89452409125313
              ],
              [
                86.9357841736801,
                27.894523996732392
              ]
            ],
            [
              [
                86.93801562478745,
                27.90138586387315
              ],
              [
                86.9380157276715,
                27.90120531543678
              ],
              [
                86.93821895469706,
                27.901205406687648
              ],
              [
                86.93821885214538,
                27.901385955124017
              ],
              [
                86.93801562478745,
                27.90138586387315
              ]
            ],
            [
              [
                86.93821905723975,
                27.90102485825128
              ],
              [
                86.93821915978243,
                27.90084430980593
              ],
              [
                86.93842238613425,
                27.900844400751367
              ],
              [
                86.93842228392394,
                27.901024949196717
              ],
              [
                86.93821905723975,
                27.90102485825128
              ]
            ],
            [
              [
                86.93944188476105,
                27.89479647519761
              ],
              [
                86.93944193500383,
                27.894706200889594
              ],
              [
                86.93954354244849,
                27.894706245490948
              ],
              [
                86.93954349229554,
                27.894796519798962
              ],
              [
                86.93944188476105,
                27.89479647519761
              ]
            ],
            [
              [
                86.93964344721736,
                27.89777561577431
              ],
              [
                86.93964354737952,
                27.897595067239127
              ],
              [
                86.93984676766772,
                27.89759515607353
              ],
              [
                86.93984666783794,
                27.897775704617693
              ],
              [
                86.93964344721736,
                27.89777561577431
              ]
            ],
            [
              [
                86.94005167916019,
                27.89452591875879
              ],
              [
                86.94005172889092,
                27.894435644450777
              ],
              [
                86.94015333608405,
                27.89443568860297
              ],
              [
                86.94015328643417,
                27.894525962910986
              ],
              [
                86.94005167916019,
                27.89452591875879
              ]
            ],
            [
              [
                86.94035640202371,
                27.89470659960683
              ],
              [
                86.9403565009911,
                27.8945260509908
              ],
              [
                86.94045810827406,
                27.89452609491842
              ],
              [
                86.94045800946836,
                27.89470664353445
              ],
              [
                86.94035640202371,
                27.89470659960683
              ]
            ],
            [
              [
                86.940559616922,
                27.8947066873902
              ],
              [
                86.94055966623053,
                27.894616413082186
              ],
              [
                86.94066127359434,
                27.89461645685709
              ],
              [
                86.94066122436666,
                27.89470673117409
              ],
              [
                86.940559616922,
                27.8947066873902
              ]
            ]
          ],
          [
            [
              [
                86.91678203124371,
                27.89659014322984
              ],
              [
                86.91708685870707,
                27.896590326935314
              ],
              [
                86.91708678991408,
                27.896680601171465
              ],
              [
                86.9169851806728,
                27.89668054000518
              ],
              [
                86.91698511178998,
                27.89677081424133
              ],
              [
                86.91688350246784,
                27.89677075301216
              ],
              [
                86.91688357143151,
                27.89668047877601
              ],
              [
                86.91678196219921,
                27.89668041746599
              ],
              [
                86.91678203124371,
                27.89659014322984
              ]
            ]
          ],
          [
            [
              [
                86.91698511178998,
                27.89677081424133
              ],
              [
                86.91708672111211,
                27.896770875407615
              ],
              [
                86.91708665231913,
                27.896861149643765
              ],
              [
                86.91698504290717,
                27.89686108847748
              ],
              [
                86.91698511178998,
                27.89677081424133
              ]
            ]
          ],
          [
            [
              [
                86.92542010994087,
                27.894699327466128
              ],
              [
                86.92521689512343,
                27.894699217368608
              ],
              [
                86.92521695717006,
                27.894608943087544
              ],
              [
                86.92531856448896,
                27.894608998172234
              ],
              [
                86.92531862645475,
                27.89451872389117
              ],
              [
                86.92542023369279,
                27.894518778903997
              ],
              [
                86.92542010994087,
                27.894699327466128
              ]
            ]
          ],
          [
            [
              [
                86.94177914783283,
                27.89425583621722
              ],
              [
                86.94208396891814,
                27.894255964631387
              ],
              [
                86.94208392086726,
                27.894346238948387
              ],
              [
                86.94198231375498,
                27.89434619621553
              ],
              [
                86.94198226561426,
                27.89443647053253
              ],
              [
                86.94208387281637,
                27.8944365132564
              ],
              [
                86.94208382476549,
                27.8945267875734
              ],
              [
                86.94188061019958,
                27.894526702044804
              ],
              [
                86.94188056197801,
                27.89461697635282
              ],
              [
                86.9419821693508,
                27.894617019157543
              ],
              [
                86.94198212121007,
                27.894707293465558
              ],
              [
                86.94177890631178,
                27.894707207784247
              ],
              [
                86.94177914783283,
                27.89425583621722
              ]
            ]
          ]
        ]
      },
      "id": "+9360+1461",
      "properties": {
        "area_m2": 1854444.49386878,
        "count": 18501,
        "image_id": "COPERNICUS/S2_SR_HARMONIZED/20241122T045029_20241122T045607_T45RVL",
        "lake_id": "imja-tsho",
        "observed_at": "2024-11-22T05:01:04.916000Z",
        "water": 1
      }
    }
  ]
}
