{
  "type": "FeatureCollection",
  "features": [
    {
      "type": "Feature",
      "geometry": {
        "geodesic": false,
        "type": "Polygon",
        "coordinates": [
          [
            [
              86.9142900111579,
              27.899883626405042
            ],
            [
              86.91429022453472,
              27.899612803840323
            ],
            [
              86.91489989636773,
              27.899613181626815
            ],
            [
              86.9149001082264,
              27.89934235904413
            ],
            [
              86.91581461371214,
              27.899342920670843
            ],
            [
              86.9158148232891,
              27.899072098061207
            ],
            [
              86.91703416095434,
              27.899072837446553
            ],
            [
              86.91703457402666,
              27.89853119219135
            ],
            [
              86.91977807027178,
              27.898532816327414
            ],
            [
              86.91977826997625,
              27.89826199366388
            ],
            [
              86.9206927664968,
              27.89826252290633
            ],
            [
              86.92069355617882,
              27.897179232135407
            ],
            [
              86.92160804362638,
              27.897179755278298
            ],
            [
              86.9216090192866,
              27.895825641547397
            ],
            [
              86.92282832073178,
              27.895826329594023
            ],
            [
              86.92282851282752,
              27.895555506804723
            ],
            [
              86.92404781128131,
              27.89555618406258
            ],
            [
              86.92404800033175,
              27.89528536125532
            ],
            [
              86.92496247192406,
              27.895285862111002
            ],
            [
              86.92496209836864,
              27.895827507725535
            ],
            [
              86.93075378115846,
              27.89583053900063
            ],
            [
              86.93075360879871,
              27.896101361825863
            ],
            [
              86.93136326118318,
              27.896101666758984
            ],
            [
              86.93136257777186,
              27.897184957961098
            ],
            [
              86.93197223623793,
              27.897185260208257
            ],
            [
              86.93197189755509,
              27.897726905750922
            ],
            [
              86.93227672830628,
              27.89772705586839
            ],
            [
              86.93227655971945,
              27.89799787862176
            ],
            [
              86.9319717282047,
              27.89799772850429
            ],
            [
              86.93197088144373,
              27.89935184212739
            ],
            [
              86.93166604613808,
              27.899351691327205
            ],
            [
              86.93166553576924,
              27.900164159362728
            ],
            [
              86.93014134788632,
              27.900163395228798
            ],
            [
              86.93014117397247,
              27.900434217874366
            ],
            [
              86.92983633563951,
              27.900434063022775
            ],
            [
              86.9298365103259,
              27.900163240377207
            ],
            [
              86.92861716007526,
              27.900162614233487
            ],
            [
              86.92861698235257,
              27.900433436870074
            ],
            [
              86.92587343760741,
              27.900431988588206
            ],
            [
              86.9258738066982,
              27.899890343333002
            ],
            [
              86.92343511257496,
              27.899889010152272
            ],
            [
              86.92343492195246,
              27.900159832770893
            ],
            [
              86.92038654695018,
              27.900158105589078
            ],
            [
              86.9203863487459,
              27.900428928180748
            ],
            [
              86.91733796642235,
              27.900427133562406
            ],
            [
              86.9173377606273,
              27.900697956118144
            ],
            [
              86.91672808267678,
              27.90069758910245
            ],
            [
              86.9167278753546,
              27.90096841164022
            ],
            [
              86.91611819590389,
              27.9009680419206
            ],
            [
              86.91611798706356,
              27.901238864449386
            ],
            [
              86.91581314657464,
              27.901238678578974
            ],
            [
              86.91581356577346,
              27.90069703351241
            ],
            [
              86.91550872681168,
              27.900696846968263
            ],
            [
              86.91550893717016,
              27.900426024421506
            ],
            [
              86.91489926077372,
              27.900425649320976
            ],
            [
              86.91489968450007,
              27.89988400420052
            ],
            [
              86.9142900111579,
              27.899883626405042
            ]
          ]
        ]
      },
      "id": "+4510+1836",
      "properties": {
        "area_m2": 635989.861911513,
        "count": 705,
        "water": 1
      }
    }
  ]
}
