{
  "type": "FeatureCollection",
  "features": [
    {
      "type": "Feature",
      "geometry": {
        "geodesic": false,
        "type": "Polygon",
        "coordinates": [
          [
            [
              86.91520473228422,
              27.899613369509456
            ],
            [
              86.91520494337934,
              27.89934254692677
            ],
            [
              86.91855813034003,
              27.899344569124306
            ],
            [
              86.91855833308979,
              27.89907374650569
            ],
            [
              86.91916800196734,
              27.899074105409593
            ],
            [
              86.91916820318995,
              27.89880328277301
            ],
            [
              86.92099720533099,
              27.898804343297083
            ],
            [
              86.92099740200814,
              27.89853352063355
            ],
            [
              86.92282639969353,
              27.898534556867176
            ],
            [
              86.92282659180724,
              27.89826373419466
            ],
            [
              86.92496041724344,
              27.89826491244295
            ],
            [
              86.92496060404811,
              27.897994089743484
            ],
            [
              86.92587509843067,
              27.89799458458944
            ],
            [
              86.92587472937579,
              27.89853622999736
            ],
            [
              86.92800856030969,
              27.898537361066136
            ],
            [
              86.92800909795139,
              27.897724892895866
            ],
            [
              86.92892359013308,
              27.897725367511764
            ],
            [
              86.92892376706526,
              27.89745454476738
            ],
            [
              86.93075274693706,
              27.897455475781342
            ],
            [
              86.93075291931478,
              27.89718465301899
            ],
            [
              86.93258189472195,
              27.897185559751488
            ],
            [
              86.93258206253623,
              27.89691473696219
            ],
            [
              86.93471586197519,
              27.8969157641408
            ],
            [
              86.93471602448042,
              27.896644941324553
            ],
            [
              86.93654499096733,
              27.896645795460692
            ],
            [
              86.9365451489181,
              27.896374972626475
            ],
            [
              86.93867893792762,
              27.89637593843219
            ],
            [
              86.93867909056935,
              27.896105115580006
            ],
            [
              86.94050804810904,
              27.896105917110802
            ],
            [
              86.94050819619632,
              27.895835094240656
            ],
            [
              86.94233714926239,
              27.89583587149897
            ],
            [
              86.9423372927952,
              27.895565048601874
            ],
            [
              86.94355659184187,
              27.895565553284385
            ],
            [
              86.94355574883586,
              27.897190490532218
            ],
            [
              86.94416540748159,
              27.89719073884453
            ],
            [
              86.94416526849425,
              27.897461561678746
            ],
            [
              86.94355560833037,
              27.897461313366435
            ],
            [
              86.94355462472903,
              27.89935707292746
            ],
            [
              86.94568847250633,
              27.89935793030652
            ],
            [
              86.94568928372995,
              27.89773299350784
            ],
            [
              86.9475182688569,
              27.897733702063004
            ],
            [
              86.94751892205787,
              27.896379587739215
            ],
            [
              86.94873823033923,
              27.89638004659866
            ],
            [
              86.9487383579449,
              27.896109223692584
            ],
            [
              86.94904318425841,
              27.896109336727594
            ],
            [
              86.94904229632766,
              27.89800509682761
            ],
            [
              86.94934712795919,
              27.898005209188884
            ],
            [
              86.94934662357312,
              27.899088500453882
            ],
            [
              86.94995629290881,
              27.899088723164205
            ],
            [
              86.9499560437341,
              27.89963036873382
            ],
            [
              86.94873669899913,
              27.89962992060026
            ],
            [
              86.94873682662278,
              27.899359097819943
            ],
            [
              86.94843199120035,
              27.89935898410221
            ],
            [
              86.94843186282212,
              27.899629806882526
            ],
            [
              86.9478221904681,
              27.89962957741687
            ],
            [
              86.94782141104484,
              27.901254513820287
            ],
            [
              86.94751657032236,
              27.901254398072364
            ],
            [
              86.94751643964443,
              27.90152522076285
            ],
            [
              86.94721159816737,
              27.90152510434119
            ],
            [
              86.94721212387046,
              27.900441813498404
            ],
            [
              86.94507825477612,
              27.900440979682156
            ],
            [
              86.94507757107735,
              27.901795093152543
            ],
            [
              86.943553359955,
              27.9017944773125
            ],
            [
              86.94355321942257,
              27.902065299967052
            ],
            [
              86.9414193186177,
              27.902064409449146
            ],
            [
              86.94141917275826,
              27.902335232085733
            ],
            [
              86.93959011045705,
              27.902334442475578
            ],
            [
              86.93958996004314,
              27.9026052650942
            ],
            [
              86.93745604879986,
              27.90260431319441
            ],
            [
              86.9374558930769,
              27.90287513578608
            ],
            [
              86.93562682182846,
              27.9028742935616
            ],
            [
              86.93562698210589,
              27.902603470978914
            ],
            [
              86.93501729322286,
              27.90260318484753
            ],
            [
              86.93501745501842,
              27.90233236225586
            ],
            [
              86.93471261134049,
              27.902332218184053
            ],
            [
              86.93471277389962,
              27.902061395574417
            ],
            [
              86.93410308806189,
              27.902061105409597
            ],
            [
              86.93410325213918,
              27.90179028279996
            ],
            [
              86.93349356782858,
              27.901789989931213
            ],
            [
              86.93349373341503,
              27.901519167321577
            ],
            [
              86.9331888920278,
              27.90151901988109
            ],
            [
              86.93318905836884,
              27.901248197253487
            ],
            [
              86.93288421773619,
              27.901248049139262
            ],
            [
              86.93288471902306,
              27.900435581202558
            ],
            [
              86.93257988067214,
              27.900435432423578
            ],
            [
              86.93258021637256,
              27.899893787087525
            ],
            [
              86.93075119543876,
              27.899892880238248
            ],
            [
              86.93075136783445,
              27.89962205756573
            ],
            [
              86.93044653177422,
              27.899621904070596
            ],
            [
              86.93044670493347,
              27.89935108138011
            ],
            [
              86.92648384630148,
              27.899349024570487
            ],
            [
              86.92648366327872,
              27.89961984723402
            ],
            [
              86.92282563119379,
              27.899617847485384
            ],
            [
              86.92282543906212,
              27.899888670112986
            ],
            [
              86.92099641861341,
              27.899887633816476
            ],
            [
              86.92099622192728,
              27.900158456417127
            ],
            [
              86.91916719702294,
              27.900157395839155
            ],
            [
              86.91916699578235,
              27.90042821842184
            ],
            [
              86.91855731931405,
              27.90042785949997
            ],
            [
              86.91855691378758,
              27.900969504620427
            ],
            [
              86.91825207404426,
              27.900969324148885
            ],
            [
              86.91825187051296,
              27.901240146686657
            ],
            [
              86.91794703001506,
              27.901239965532397
            ],
            [
              86.91794723430094,
              27.900969142994626
            ],
            [
              86.91611819590389,
              27.9009680419206
            ],
            [
              86.91611861357559,
              27.900426396836075
            ],
            [
              86.91581377536838,
              27.90042621096566
            ],
            [
              86.91581398495433,
              27.90015538840992
            ],
            [
              86.91550914751967,
              27.90015520186577
            ],
            [
              86.9155095682097,
              27.899613556718364
            ],
            [
              86.91520473228422,
              27.899613369509456
            ]
          ]
        ]
      },
      "id": "+2521+1895",
      "properties": {
        "area_m2": 1186279.1814870883,
        "count": 1315,
        "water": 1
      }
    }
  ]
}
