{
  "type": "FeatureCollection",
  "features": [
    {
      "type": "Feature",
      "geometry": {
        "geodesic": false,
        "type": "Polygon",
        "coordinates": [
          [
            [
              86.9164255323798,
              27.897718355918425
            ],
            [
              86.91642594846147,
              27.897176710564406
            ],
            [
              86.91764526489952,
              27.897177444496975
            ],
            [
              86.91764546990406,
              27.89690662179751
            ],
            [
              86.91795029825674,
              27.896906803589573
            ],
            [
              86.9179505024977,
              27.896635980881122
            ],
            [
              86.91886498530997,
              27.896636522214894
            ],
            [
              86.91886538922844,
              27.896094876744094
            ],
            [
              86.91917021532636,
              27.89609505584121
            ],
            [
              86.91916941050773,
              27.8971783467379
            ],
            [
              86.91947423963296,
              27.897178525170265
            ],
            [
              86.91947403918289,
              27.89744934786973
            ],
            [
              86.92008369896948,
              27.897449702704268
            ],
            [
              86.92008389790139,
              27.897178879995817
            ],
            [
              86.92069355617882,
              27.897179232135407
            ],
            [
              86.92069335876505,
              27.89745005484386
            ],
            [
              86.92099818867182,
              27.89745022989856
            ],
            [
              86.9209985819812,
              27.89690858446369
            ],
            [
              86.92038892521295,
              27.896908233680556
            ],
            [
              86.92038932155863,
              27.89636658821874
            ],
            [
              86.92069414842011,
              27.89636676393819
            ],
            [
              86.9206943458249,
              27.896095941193806
            ],
            [
              86.9200846936201,
              27.896095589072182
            ],
            [
              86.92008489253405,
              27.895824766318817
            ],
            [
              86.92069454322969,
              27.895825118431457
            ],
            [
              86.92069474063446,
              27.89555429565114
            ],
            [
              86.92160921440967,
              27.89555481876708
            ],
            [
              86.9216090192866,
              27.895825641547397
            ],
            [
              86.92282832073178,
              27.895826329594023
            ],
            [
              86.92282793654928,
              27.896367975136688
            ],
            [
              86.92221828278142,
              27.896367632447376
            ],
            [
              86.92221692742127,
              27.898263391478395
            ],
            [
              86.92435075282155,
              27.898264579167982
            ],
            [
              86.92435131777204,
              27.897452111033648
            ],
            [
              86.92526580758216,
              27.897452609922023
            ],
            [
              86.92526655171062,
              27.896369318899573
            ],
            [
              86.92587620553239,
              27.896369648105175
            ],
            [
              86.92587639003736,
              27.896098825315875
            ],
            [
              86.92618121618918,
              27.896098988908072
            ],
            [
              86.92617992989152,
              27.897994748190623
            ],
            [
              86.92800891873749,
              27.897995715631268
            ],
            [
              86.92800784341816,
              27.899620651810107
            ],
            [
              86.92739817135161,
              27.899620332000882
            ],
            [
              86.92739762911053,
              27.900432799937587
            ],
            [
              86.92709279080452,
              27.90043263901339
            ],
            [
              86.9270929723181,
              27.900161816385786
            ],
            [
              86.92617845969076,
              27.90016132957975
            ],
            [
              86.92617809210913,
              27.900702974825972
            ],
            [
              86.92526357495427,
              27.900702481947324
            ],
            [
              86.92526376102232,
              27.900431659328707
            ],
            [
              86.9246540844552,
              27.90043132737426
            ],
            [
              86.92465370928281,
              27.900972972584547
            ],
            [
              86.92373918989115,
              27.900972469581887
            ],
            [
              86.92373937975009,
              27.900701646990218
            ],
            [
              86.92221518460877,
              27.900700795180715
            ],
            [
              86.92221499094997,
              27.900971617763403
            ],
            [
              86.92038595231936,
              27.900970573328156
            ],
            [
              86.92038575410609,
              27.901241395883893
            ],
            [
              86.91977607306536,
              27.901241042342928
            ],
            [
              86.91977647252821,
              27.90069939722247
            ],
            [
              86.91825227756657,
              27.900698501593148
            ],
            [
              86.91825349865552,
              27.899073566043132
            ],
            [
              86.91794866423022,
              27.899073384906835
            ],
            [
              86.91794907274809,
              27.89853173964265
            ],
            [
              86.91703457402666,
              27.89853119219135
            ],
            [
              86.9170347805673,
              27.898260369554762
            ],
            [
              86.91672994842374,
              27.898260185723522
            ],
            [
              86.91673036299623,
              27.89771854041442
            ],
            [
              86.9164255323798,
              27.897718355918425
            ]
          ],
          [
            [
              86.9182543126639,
              27.897990275460856
            ],
            [
              86.91825451615028,
              27.897719452788337
            ],
            [
              86.91855934679367,
              27.897719633241913
            ],
            [
              86.91855914406189,
              27.897990455914428
            ],
            [
              86.9182543126639,
              27.897990275460856
            ]
          ],
          [
            [
              86.91886377348264,
              27.898261458366786
            ],
            [
              86.91886397545986,
              27.897990635703252
            ],
            [
              86.91916880685783,
              27.89799081480935
            ],
            [
              86.91916900808044,
              27.89771999212785
            ],
            [
              86.9197786693762,
              27.897720348318845
            ],
            [
              86.91977826997625,
              27.89826199366388
            ],
            [
              86.91886377348264,
              27.898261458366786
            ]
          ]
        ]
      },
      "id": "+4219+1745",
      "properties": {
        "area_m2": 395125.54638725956,
        "count": 438,
        "water": 1
      }
    }
  ]
}
