{
  "type": "FeatureCollection",
  "features": [
    {
      "type": "Feature",
      "geometry": {
        "geodesic": false,
        "type": "MultiPolygon",
        "coordinates": [
          [
            [
              [
                86.91825370215986,
                27.898802743415526
              ],
              [
                86.92038753794466,
                27.898803992486997
              ],
              [
                86.92038833068993,
                27.89772070180591
              ],
              [
                86.921302822674,
                27.897721226987972
              ],
              [
                86.9213041939343,
                27.895825467849154
              ],
              [
                86.92099936858199,
                27.895825293477174
              ],
              [
                86.92099956522321,
                27.895554470696858
              ],
              [
                86.92160921440967,
                27.89555481876708
              ],
              [
                86.9216086290315,
                27.896367287072096
              ],
              [
                86.92282793654928,
                27.896367975136688
              ],
              [
                86.92282774445354,
                27.896638797890056
              ],
              [
                86.92435188270454,
                27.89663964280948
              ],
              [
                86.92435094114437,
                27.897993756468512
              ],
              [
                86.92465577259624,
                27.897993923438374
              ],
              [
                86.92465520990052,
                27.898806391518814
              ],
              [
                86.92556971111028,
                27.898806888403946
              ],
              [
                86.9255695258148,
                27.899077711076465
              ],
              [
                86.92526469131762,
                27.89907754611883
              ],
              [
                86.92526376102232,
                27.900431659328707
              ],
              [
                86.9246540844552,
                27.90043132737426
              ],
              [
                86.924653896869,
                27.900702149983896
              ],
              [
                86.92191034559309,
                27.900700622794012
              ],
              [
                86.92191015117072,
                27.9009714453767
              ],
              [
                86.92008111255808,
                27.900970396899034
              ],
              [
                86.92008091358124,
                27.90124121945477
              ],
              [
                86.9194712325495,
                27.901240864566333
              ],
              [
                86.91947103205452,
                27.901511687104104
              ],
              [
                86.91916619078405,
                27.90151150864479
              ],
              [
                86.91916639203363,
                27.90124068610702
              ],
              [
                86.91825187051296,
                27.901240146686657
              ],
              [
                86.91825370215986,
                27.898802743415526
              ]
            ]
          ],
          [
            [
              [
                86.91825370215986,
                27.898802743415526
              ],
              [
                86.91733920115672,
                27.898802197985436
              ],
              [
                86.91733981847898,
                27.897989730057713
              ],
              [
                86.91673015570998,
                27.897989363077954
              ],
              [
                86.91673077756874,
                27.8971768950604
              ],
              [
                86.91764526489952,
                27.897177444496975
              ],
              [
                86.917645059895,
                27.89744826718746
              ],
              [
                86.91825471964565,
                27.897448630106837
              ],
              [
                86.91825370215986,
                27.898802743415526
              ]
            ]
          ]
        ]
      },
      "id": "+4379+1865",
      "properties": {
        "area_m2": 275144.4817399969,
        "count": 305,
        "water": 1
      }
    }
  ]
}
