{
  "type": "FeatureCollection",
  "features": [
    {
      "type": "Feature",
      "geometry": {
        "geodesic": false,
        "type": "Polygon",
        "coordinates": [
          [
            [
              86.91550767501025,
              27.902050959540336
            ],
            [
              86.91550851646217,
              27.90096766950603
            ],
            [
              86.91703271508894,
              27.900968595489427
            ],
            [
              86.91703436749499,
              27.898802014827933
            ],
            [
              86.91672953383326,
              27.898801830996693
            ],
            [
              86.91672974112849,
              27.89853100836909
            ],
            [
              86.91642490823034,
              27.898530823864114
            ],
            [
              86.91642511628017,
              27.89826000122753
            ],
            [
              86.91612028414556,
              27.898259816048817
            ],
            [
              86.91612153695404,
              27.896634880013707
            ],
            [
              86.9170360197124,
              27.89663543348372
            ],
            [
              86.91703622622609,
              27.896364610766287
            ],
            [
              86.91825553358218,
              27.896365339273032
            ],
            [
              86.91825573705957,
              27.896094516537634
            ],
            [
              86.9197798675132,
              27.896095412005256
            ],
            [
              86.91978006719971,
              27.895824589242906
            ],
            [
              86.92069454322969,
              27.895825118431457
            ],
            [
              86.92069474063446,
              27.89555429565114
            ],
            [
              86.92160921440967,
              27.89555481876708
            ],
            [
              86.92160940953273,
              27.89528399597778
            ],
            [
              86.92252388106216,
              27.895284513012125
            ],
            [
              86.9225240739035,
              27.895013690204863
            ],
            [
              86.92435301248874,
              27.8950147060647
            ],
            [
              86.92435320077561,
              27.894743883239467
            ],
            [
              86.92465802311857,
              27.894744050182382
            ],
            [
              86.92465689790681,
              27.896368987008007
            ],
            [
              86.92526655171062,
              27.896369318899573
            ],
            [
              86.92526543550896,
              27.897994255365873
            ],
            [
              86.92557026696981,
              27.897994420314525
            ],
            [
              86.9255700816833,
              27.898265243022976
            ],
            [
              86.92526524946787,
              27.89826507806534
            ],
            [
              86.92526487736771,
              27.89880672344631
            ],
            [
              86.92496004363412,
              27.89880655782392
            ],
            [
              86.92495967001581,
              27.899348203150993
            ],
            [
              86.9243499995213,
              27.89934786986704
            ],
            [
              86.92434981118052,
              27.899618692512608
            ],
            [
              86.92404497518318,
              27.899618524851043
            ],
            [
              86.92404421878373,
              27.90070181532552
            ],
            [
              86.92282486265812,
              27.900701137923928
            ],
            [
              86.92282467051746,
              27.900971960515598
            ],
            [
              86.92191015117072,
              27.9009714453767
            ],
            [
              86.92191092882429,
              27.899888155001037
            ],
            [
              86.9197770717045,
              27.899886929465428
            ],
            [
              86.91977607306536,
              27.901241042342928
            ],
            [
              86.91764218951715,
              27.9012397837044
            ],
            [
              86.9176419844677,
              27.901510606233188
            ],
            [
              86.91733714320623,
              27.901510423731455
            ],
            [
              86.9173369374022,
              27.90178124625126
            ],
            [
              86.916422411372,
              27.901780694685677
            ],
            [
              86.91642220328623,
              27.90205151717853
            ],
            [
              86.91550767501025,
              27.902050959540336
            ]
          ]
        ]
      },
      "id": "+3979+1758",
      "properties": {
        "area_m2": 470903.06719026226,
        "count": 522,
        "water": 1
      }
    }
  ]
}
