{
  "type": "FeatureCollection",
  "features": [
    {
      "type": "Feature",
      "geometry": {
        "geodesic": false,
        "type": "Polygon",
        "coordinates": [
          [
            [
              86.9142900111579,
              27.899883626405042
            ],
            [
              86.91429022453472,
              27.899612803840323
            ],
            [
              86.91489989636773,
              27.899613181626815
            ],
            [
              86.9149001082264,
              27.89934235904413
            ],
            [
              86.91520494337934,
              27.89934254692677
            ],
            [
              86.91520515448342,
              27.899071724326117
            ],
            [
              86.91550998888177,
              27.899071911535025
            ],
            [
              86.9155101992223,
              27.89880108892539
            ],
            [
              86.91581503286605,
              27.89880127545157
            ],
            [
              86.91581649981491,
              27.896905516869708
            ],
            [
              86.91612132815861,
              27.896905702713177
            ],
            [
              86.91612153695404,
              27.896634880013707
            ],
            [
              86.91673119212328,
              27.896635249661465
            ],
            [
              86.91673139940055,
              27.896364426953014
            ],
            [
              86.91734105306062,
              27.896364793905825
            ],
            [
              86.9173408473015,
              27.896635616623257
            ],
            [
              86.91947464053311,
              27.896636879735397
            ],
            [
              86.9194748409742,
              27.896366056999994
            ],
            [
              86.91977966783568,
              27.89636623474964
            ],
            [
              86.9197798675132,
              27.896095412005256
            ],
            [
              86.91947504141528,
              27.89609523425561
            ],
            [
              86.91947524185638,
              27.895824411502247
            ],
            [
              86.92038971788635,
              27.895824942712004
            ],
            [
              86.92038991604572,
              27.895554119940673
            ],
            [
              86.9219140390074,
              27.895554991782607
            ],
            [
              86.92191423337587,
              27.895284168993307
            ],
            [
              86.92252388106216,
              27.895284513012125
            ],
            [
              86.9225240739035,
              27.895013690204863
            ],
            [
              86.9231337200896,
              27.895014031519754
            ],
            [
              86.92313180671397,
              27.89772225914325
            ],
            [
              86.9234366373933,
              27.89772242880806
            ],
            [
              86.92343625620218,
              27.898264074206995
            ],
            [
              86.92313142400471,
              27.898263904533202
            ],
            [
              86.92313065855924,
              27.899347195196327
            ],
            [
              86.92282582332547,
              27.8993470248488
            ],
            [
              86.92282543906212,
              27.899888670112986
            ],
            [
              86.92221576556724,
              27.899888327378758
            ],
            [
              86.9222155719174,
              27.900159149988394
            ],
            [
              86.9194720345025,
              27.900157574289487
            ],
            [
              86.91947183401649,
              27.900428396872172
            ],
            [
              86.91703312820617,
              27.900426950386937
            ],
            [
              86.91703292164756,
              27.900697772942674
            ],
            [
              86.91642324370602,
              27.900697404579507
            ],
            [
              86.91642303562925,
              27.90096822711728
            ],
            [
              86.91581335617855,
              27.900967856050183
            ],
            [
              86.91581356577346,
              27.90069703351241
            ],
            [
              86.91550872681168,
              27.900696846968263
            ],
            [
              86.91550893717016,
              27.900426024421506
            ],
            [
              86.91520409896296,
              27.90042583720362
            ],
            [
              86.91520431007604,
              27.900155014656864
            ],
            [
              86.9148994726414,
              27.90015482676524
            ],
            [
              86.91489968450007,
              27.89988400420052
            ],
            [
              86.9142900111579,
              27.899883626405042
            ]
          ]
        ]
      },
      "id": "+4274+1767",
      "properties": {
        "area_m2": 356334.678613447,
        "count": 395,
        "water": 1
      }
    }
  ]
}
