{
  "type": "FeatureCollection",
  "features": [
    {
      "type": "Feature",
      "geometry": {
        "geodesic": false,
        "type": "Polygon",
        "coordinates": [
          [
            [
              86.91825288812451,
              27.899886033863055
            ],
            [
              86.91825370215986,
              27.898802743415526
            ],
            [
              86.91947303687863,
              27.898803461214357
            ],
            [
              86.9194748409742,
              27.896366056999994
            ],
            [
              86.92069414842011,
              27.89636676393819
            ],
            [
              86.9206943458249,
              27.896095941193806
            ],
            [
              86.9209991719318,
              27.896096116239523
            ],
            [
              86.92099936858199,
              27.895825293477174
            ],
            [
              86.9216090192866,
              27.895825641547397
            ],
            [
              86.92160882416356,
              27.896096464309746
            ],
            [
              86.92191365027942,
              27.896096637334253
            ],
            [
              86.9219138446479,
              27.895825814562922
            ],
            [
              86.92313314610206,
              27.8958264999146
            ],
            [
              86.92313276343772,
              27.89636814546625
            ],
            [
              86.92404724411199,
              27.896368652412516
            ],
            [
              86.92404686598414,
              27.89691029792823
            ],
            [
              86.92435169439071,
              27.896910465562847
            ],
            [
              86.92435150608587,
              27.89718128830723
            ],
            [
              86.92496116444413,
              27.897181621564233
            ],
            [
              86.92496060404811,
              27.897994089743484
            ],
            [
              86.92526543550896,
              27.897994255365873
            ],
            [
              86.92526487736771,
              27.89880672344631
            ],
            [
              86.92496004363412,
              27.89880655782392
            ],
            [
              86.92495985682945,
              27.899077380487455
            ],
            [
              86.92465502233229,
              27.89907721418235
            ],
            [
              86.92465483476406,
              27.899348036845883
            ],
            [
              86.9243499995213,
              27.89934786986704
            ],
            [
              86.92434981118052,
              27.899618692512608
            ],
            [
              86.92404497518318,
              27.899618524851043
            ],
            [
              86.9240447860878,
              27.899889347487626
            ],
            [
              86.92221576556724,
              27.899888327378758
            ],
            [
              86.9222155719174,
              27.900159149988394
            ],
            [
              86.91977687198207,
              27.900157752066082
            ],
            [
              86.91977667225963,
              27.900428574648767
            ],
            [
              86.91886215754819,
              27.900428039297775
            ],
            [
              86.91886256154753,
              27.899886394132402
            ],
            [
              86.91825288812451,
              27.899886033863055
            ]
          ]
        ]
      },
      "id": "+4534+1844",
      "properties": {
        "area_m2": 240864.2234000451,
        "count": 267,
        "water": 1
      }
    }
  ]
}
