{
  "type": "FeatureCollection",
  "features": [
    {
      "type": "Feature",
      "geometry": {
        "geodesic": false,
        "type": "Polygon",
        "coordinates": [
          [
            [
              86.91429107802408,
              27.898529513455678
            ],
            [
              86.91429171810965,
              27.897717045554906
            ],
            [
              86.91459654870812,
              27.897717234767054
            ],
            [
              86.91459676130341,
              27.8974464121125
            ],
            [
              86.91490159114731,
              27.897446600659894
            ],
            [
              86.91490180298801,
              27.89717577798738
            ],
            [
              86.91642594846147,
              27.897176710564406
            ],
            [
              86.91642615650231,
              27.89690588787392
            ],
            [
              86.91764546990406,
              27.89690662179751
            ],
            [
              86.9176456748996,
              27.896635799089058
            ],
            [
              86.9179505024977,
              27.896635980881122
            ],
            [
              86.91794988976584,
              27.89744844898851
            ],
            [
              86.91825471964565,
              27.897448630106837
            ],
            [
              86.91825410915956,
              27.89826109812439
            ],
            [
              86.92038793431729,
              27.89826234716891
            ],
            [
              86.9203881325036,
              27.89799152448741
            ],
            [
              86.92130262676041,
              27.897992049678457
            ],
            [
              86.92130399804768,
              27.896096290611503
            ],
            [
              86.9206943458249,
              27.896095941193806
            ],
            [
              86.92069454322969,
              27.895825118431457
            ],
            [
              86.92099936858199,
              27.895825293477174
            ],
            [
              86.92099956522321,
              27.895554470696858
            ],
            [
              86.92130438981195,
              27.895554645068838
            ],
            [
              86.9213041939343,
              27.895825467849154
            ],
            [
              86.9216090192866,
              27.895825641547397
            ],
            [
              86.92160921440967,
              27.89555481876708
            ],
            [
              86.9219140390074,
              27.895554991782607
            ],
            [
              86.92191423337587,
              27.895284168993307
            ],
            [
              86.92282870491428,
              27.89528468400644
            ],
            [
              86.92282889700104,
              27.895013861199175
            ],
            [
              86.9240481893822,
              27.895014538439067
            ],
            [
              86.92404837843266,
              27.89474371561384
            ],
            [
              86.92526766782244,
              27.89474438205598
            ],
            [
              86.92526785383659,
              27.89447355921278
            ],
            [
              86.9258774970313,
              27.894473888391435
            ],
            [
              86.92587639003736,
              27.896098825315875
            ],
            [
              86.92618121618918,
              27.896098988908072
            ],
            [
              86.92618084868839,
              27.896640634468703
            ],
            [
              86.92587602101842,
              27.89664047087651
            ],
            [
              86.92587472937579,
              27.89853622999736
            ],
            [
              86.9261795623548,
              27.89853639359854
            ],
            [
              86.92617864347709,
              27.899890506943166
            ],
            [
              86.92648348025597,
              27.89989066987959
            ],
            [
              86.92648311420147,
              27.900432315152763
            ],
            [
              86.92343473133894,
              27.90043065538053
            ],
            [
              86.92343454071643,
              27.90070147798118
            ],
            [
              86.92160550657741,
              27.90070044974256
            ],
            [
              86.92160511622349,
              27.90124209488098
            ],
            [
              86.92130027568965,
              27.901241921146806
            ],
            [
              86.9213004716212,
              27.900971098582083
            ],
            [
              86.92008111255808,
              27.900970396899034
            ],
            [
              86.92008091358124,
              27.90124121945477
            ],
            [
              86.91855671101985,
              27.90124032716718
            ],
            [
              86.91855650824314,
              27.90151114970495
            ],
            [
              86.91825166698167,
              27.90151096922443
            ],
            [
              86.91825187051296,
              27.901240146686657
            ],
            [
              86.91794703001506,
              27.901239965532397
            ],
            [
              86.9179468257202,
              27.90151078807017
            ],
            [
              86.91703230195374,
              27.901510240555986
            ],
            [
              86.91703209538615,
              27.901781063066807
            ],
            [
              86.9161175693739,
              27.901780509480012
            ],
            [
              86.91611882240694,
              27.900155574271356
            ],
            [
              86.91581398495433,
              27.90015538840992
            ],
            [
              86.91581419454924,
              27.899884565836217
            ],
            [
              86.9155093578602,
              27.89988437930105
            ],
            [
              86.91550977855023,
              27.899342734135676
            ],
            [
              86.91520494337934,
              27.89934254692677
            ],
            [
              86.91520515448342,
              27.899071724326117
            ],
            [
              86.9149003200761,
              27.89907153645246
            ],
            [
              86.91490053193478,
              27.898800713842824
            ],
            [
              86.91459569829101,
              27.898800525295428
            ],
            [
              86.91459591090427,
              27.89852970267681
            ],
            [
              86.91429107802408,
              27.898529513455678
            ]
          ]
        ]
      },
      "id": "+4353+1839",
      "properties": {
        "area_m2": 537659.418665765,
        "count": 596,
        "water": 1
      }
    }
  ]
}
