{
  "type": "FeatureCollection",
  "features": [
    {
      "type": "Feature",
      "geometry": {
        "geodesic": false,
        "type": "Polygon",
        "coordinates": [
          [
            [
              86.91642574042064,
              27.89744753324591
            ],
            [
              86.91642594846147,
              27.897176710564406
            ],
            [
              86.91703560667601,
              27.897177078882656
            ],
            [
              86.9170358131987,
              27.89690625618319
            ],
            [
              86.91795029825674,
              27.896906803589573
            ],
            [
              86.9179505024977,
              27.896635980881122
            ],
            [
              86.91977946814917,
              27.89663705748504
            ],
            [
              86.91977966783568,
              27.89636623474964
            ],
            [
              86.92069414842011,
              27.89636676393819
            ],
            [
              86.92069454322969,
              27.895825118431457
            ],
            [
              86.92099936858199,
              27.895825293477174
            ],
            [
              86.92099956522321,
              27.895554470696858
            ],
            [
              86.92160921440967,
              27.89555481876708
            ],
            [
              86.9216090192866,
              27.895825641547397
            ],
            [
              86.9219138446479,
              27.895825814562922
            ],
            [
              86.9219140390074,
              27.895554991782607
            ],
            [
              86.9222188636141,
              27.895555164133377
            ],
            [
              86.9222186700092,
              27.895825986913692
            ],
            [
              86.92252349537048,
              27.895826158590726
            ],
            [
              86.92252368822082,
              27.89555533581041
            ],
            [
              86.92282851282752,
              27.895555506804723
            ],
            [
              86.92282774445354,
              27.896638797890056
            ],
            [
              86.92496153801753,
              27.8966399760575
            ],
            [
              86.92496191159091,
              27.896098330514835
            ],
            [
              86.92618121618918,
              27.896098988908072
            ],
            [
              86.92618139993957,
              27.89582816610979
            ],
            [
              86.9292296540286,
              27.8958297648954
            ],
            [
              86.92923035863117,
              27.89474647352261
            ],
            [
              86.92953518101905,
              27.894746629685738
            ],
            [
              86.92953500563198,
              27.895017452546902
            ],
            [
              86.93014465193485,
              27.89501776285195
            ],
            [
              86.93014413030113,
              27.895830231381545
            ],
            [
              86.9304489557253,
              27.895830385532445
            ],
            [
              86.93044878260199,
              27.896101208348696
            ],
            [
              86.93075360879871,
              27.896101361825863
            ],
            [
              86.93075343642997,
              27.89637218464211
            ],
            [
              86.93105826338129,
              27.89637233744554
            ],
            [
              86.93105809176713,
              27.896643160243823
            ],
            [
              86.92983878094354,
              27.8966425449787
            ],
            [
              86.92983808233274,
              27.897725836064033
            ],
            [
              86.9292284208663,
              27.897725524375577
            ],
            [
              86.9292282446887,
              27.89799634711098
            ],
            [
              86.92861858170411,
              27.897996032718595
            ],
            [
              86.92861840400836,
              27.898266855445012
            ],
            [
              86.92800873952359,
              27.898266538357685
            ],
            [
              86.92800856030969,
              27.898537361066136
            ],
            [
              86.92831339330667,
              27.89853751995116
            ],
            [
              86.92831321484735,
              27.89880834265961
            ],
            [
              86.92861804861687,
              27.8988085008709
            ],
            [
              86.92861769320741,
              27.899350146242885
            ],
            [
              86.92800802265003,
              27.899349829137588
            ],
            [
              86.92800784341816,
              27.899620651810107
            ],
            [
              86.92739817135161,
              27.899620332000882
            ],
            [
              86.92739762911053,
              27.900432799937587
            ],
            [
              86.92709279080452,
              27.90043263901339
            ],
            [
              86.92709260929094,
              27.90070346163201
            ],
            [
              86.92648293116973,
              27.90070313777138
            ],
            [
              86.92648348025597,
              27.89989066987959
            ],
            [
              86.92556896991933,
              27.89989017904012
            ],
            [
              86.9255691552238,
              27.899619356394552
            ],
            [
              86.92069177932915,
              27.89961663612519
            ],
            [
              86.92069158187945,
              27.89988745874381
            ],
            [
              86.92038674515447,
              27.899887282988423
            ],
            [
              86.92038654695018,
              27.900158105589078
            ],
            [
              86.92008170946164,
              27.900157929168937
            ],
            [
              86.92008151049379,
              27.900428751751626
            ],
            [
              86.91886215754819,
              27.900428039297775
            ],
            [
              86.91886316752407,
              27.89907392629451
            ],
            [
              86.91855833308979,
              27.89907374650569
            ],
            [
              86.91855873858033,
              27.898532101232515
            ],
            [
              86.9182539056642,
              27.89853192076996
            ],
            [
              86.9182543126639,
              27.897990275460856
            ],
            [
              86.91733981847898,
              27.897989730057713
            ],
            [
              86.91734023002417,
              27.89744808471268
            ],
            [
              86.91642574042064,
              27.89744753324591
            ]
          ]
        ]
      },
      "id": "+4365+1798",
      "properties": {
        "area_m2": 467294.70455723844,
        "count": 518,
        "water": 1
      }
    }
  ]
}
