{
  "type": "FeatureCollection",
  "features": [
    {
      "type": "Feature",
      "geometry": {
        "geodesic": false,
        "type": "Polygon",
        "coordinates": [
          [
            [
              86.92130223494223,
              27.898533695023495
            ],
            [
              86.9213024308558,
              27.898262872359957
            ],
            [
              86.9216072630443,
              27.898263046076167
            ],
            [
              86.92160804362638,
              27.897179755278298
            ],
            [
              86.92191287277856,
              27.897179928311786
            ],
            [
              86.92191306715603,
              27.896909105585372
            ],
            [
              86.92252272395122,
              27.896909449622157
            ],
            [
              86.92252060231917,
              27.899888499082742
            ],
            [
              86.92373994932689,
              27.899889179152325
            ],
            [
              86.92373975946795,
              27.90016000177993
            ],
            [
              86.92404459699243,
              27.900160170115228
            ],
            [
              86.92404440788809,
              27.900430992724868
            ],
            [
              86.92343473133894,
              27.90043065538053
            ],
            [
              86.92343492195246,
              27.900159832770893
            ],
            [
              86.92191073441988,
              27.900158977610673
            ],
            [
              86.92191092882429,
              27.899888155001037
            ],
            [
              86.92221576556724,
              27.899888327378758
            ],
            [
              86.9222161528669,
              27.899346682123554
            ],
            [
              86.9219113176421,
              27.899346509745833
            ],
            [
              86.92191190083736,
              27.89853404179116
            ],
            [
              86.92130223494223,
              27.898533695023495
            ]
          ]
        ]
      },
      "id": "+4382+1800",
      "properties": {
        "area_m2": 30671.8461657674,
        "count": 34,
        "water": 1
      }
    }
  ]
}
