{
  "type": "FeatureCollection",
  "features": [
    {
      "type": "Feature",
      "geometry": {
        "geodesic": false,
        "type": "Polygon",
        "coordinates": [
          [
            [
              86.91429022453472,
              27.899612803840323
            ],
            [
              86.91429171810965,
              27.897717045554906
            ],
            [
              86.91490137931558,
              27.897717423314447
            ],
            [
              86.91490180298801,
              27.89717577798738
            ],
            [
              86.91551146116662,
              27.89717615304299
            ],
            [
              86.91551125085304,
              27.89744697571551
            ],
            [
              86.91612091055879,
              27.897447348076177
            ],
            [
              86.91612070176336,
              27.897718170748696
            ],
            [
              86.91734002425606,
              27.897718907385197
            ],
            [
              86.91733961271088,
              27.898260552712266
            ],
            [
              86.91977826997625,
              27.89826199366388
            ],
            [
              86.91978006719971,
              27.895824589242906
            ],
            [
              86.92069454322969,
              27.895825118431457
            ],
            [
              86.92069474063446,
              27.89555429565114
            ],
            [
              86.92160921440967,
              27.89555481876708
            ],
            [
              86.92160940953273,
              27.89528399597778
            ],
            [
              86.92252388106216,
              27.895284513012125
            ],
            [
              86.9225240739035,
              27.895013690204863
            ],
            [
              86.92282889700104,
              27.895013861199175
            ],
            [
              86.92282832073178,
              27.895826329594023
            ],
            [
              86.92313314610206,
              27.8958264999146
            ],
            [
              86.92313276343772,
              27.89636814546625
            ],
            [
              86.92252310966086,
              27.89636780412441
            ],
            [
              86.92252175960977,
              27.898263563173394
            ],
            [
              86.92282659180724,
              27.89826373419466
            ],
            [
              86.92282543906212,
              27.899888670112986
            ],
            [
              86.92160609209033,
              27.899887981949583
            ],
            [
              86.92160589692234,
              27.900158804550234
            ],
            [
              86.92099622192728,
              27.900158456417127
            ],
            [
              86.92099563185093,
              27.90097092417417
            ],
            [
              86.91947143304449,
              27.900970042010595
            ],
            [
              86.9194712325495,
              27.901240864566333
            ],
            [
              86.91764218951715,
              27.9012397837044
            ],
            [
              86.9176419844677,
              27.901510606233188
            ],
            [
              86.91703230195374,
              27.901510240555986
            ],
            [
              86.91703209538615,
              27.901781063066807
            ],
            [
              86.9161175693739,
              27.901780509480012
            ],
            [
              86.91611736052458,
              27.902051331972867
            ],
            [
              86.91581251776292,
              27.90205114609347
            ],
            [
              86.91581335617855,
              27.900967856050183
            ],
            [
              86.91550851646217,
              27.90096766950603
            ],
            [
              86.91550914751967,
              27.90015520186577
            ],
            [
              86.91520431007604,
              27.900155014656864
            ],
            [
              86.91520452118013,
              27.899884192092145
            ],
            [
              86.91459484782898,
              27.89988381564414
            ],
            [
              86.91459506045123,
              27.899612993070438
            ],
            [
              86.91429022453472,
              27.899612803840323
            ]
          ]
        ]
      },
      "id": "+4613+1857",
      "properties": {
        "area_m2": 350019.8408031421,
        "count": 388,
        "water": 1
      }
    }
  ]
}
