{
  "type": "FeatureCollection",
  "features": [
    {
      "type": "Feature",
      "geometry": {
        "geodesic": false,
        "type": "Polygon",
        "coordinates": [
          [
            [
              86.91886437940529,
              27.897448990340248
            ],
            [
              86.9188645813825,
              27.89717816764078
            ],
            [
              86.92069355617882,
              27.897179232135407
            ],
            [
              86.92069375360157,
              27.89690840940899
            ],
            [
              86.92191306715603,
              27.896909105585372
            ],
            [
              86.92191326153349,
              27.896638282840986
            ],
            [
              86.92221808916752,
              27.89663845520074
            ],
            [
              86.92221828278142,
              27.896367632447376
            ],
            [
              86.92252310966086,
              27.89636780412441
            ],
            [
              86.92252330252016,
              27.89609698136206
            ],
            [
              86.92282812864502,
              27.896097152365357
            ],
            [
              86.92282678392094,
              27.897992911504176
            ],
            [
              86.92313161535485,
              27.897993081842717
            ],
            [
              86.92313142400471,
              27.898263904533202
            ],
            [
              86.9255700816833,
              27.898265243022976
            ],
            [
              86.9255708228024,
              27.897181952126292
            ],
            [
              86.92587565199051,
              27.897182116392223
            ],
            [
              86.92587602101842,
              27.89664047087651
            ],
            [
              86.92557119334846,
              27.896640306610575
            ],
            [
              86.92557137861701,
              27.89636948383924
            ],
            [
              86.92526655171062,
              27.896369318899573
            ],
            [
              86.92526673773375,
              27.896098496119258
            ],
            [
              86.92557156388555,
              27.896098661058925
            ],
            [
              86.92557193441365,
              27.895557015462362
            ],
            [
              86.92648640832361,
              27.895557506212
            ],
            [
              86.92648659130145,
              27.895286683395753
            ],
            [
              86.92770588684469,
              27.895287328287313
            ],
            [
              86.92770570690317,
              27.895558151112542
            ],
            [
              86.92801053155479,
              27.89555831065334
            ],
            [
              86.92801035235885,
              27.895829133469586
            ],
            [
              86.92831517777404,
              27.895829292336646
            ],
            [
              86.92831499934168,
              27.89610011514391
            ],
            [
              86.92801017316292,
              27.896099956276853
            ],
            [
              86.92800999396698,
              27.896370779075134
            ],
            [
              86.92770516704263,
              27.896370619525356
            ],
            [
              86.92770498708312,
              27.896641442314657
            ],
            [
              86.92800981477106,
              27.896641601864435
            ],
            [
              86.92800963556614,
              27.896912424635765
            ],
            [
              86.92861929246914,
              27.89691274171411
            ],
            [
              86.92861911478236,
              27.897183564476464
            ],
            [
              86.92892394398845,
              27.897183722005032
            ],
            [
              86.92892412092063,
              27.896912899233698
            ],
            [
              86.92922894937213,
              27.89691305608853
            ],
            [
              86.92922930170936,
              27.896371410509932
            ],
            [
              86.92892447476702,
              27.896371253664082
            ],
            [
              86.92892465169021,
              27.896100430856816
            ],
            [
              86.92861982551146,
              27.896100273337233
            ],
            [
              86.92862000318924,
              27.895829450529966
            ],
            [
              86.92892482860442,
              27.895829608049553
            ],
            [
              86.92892518243285,
              27.895287962390103
            ],
            [
              86.92983965415092,
              27.895288430888474
            ],
            [
              86.92983982878341,
              27.895017608036294
            ],
            [
              86.93014465193485,
              27.89501776285195
            ],
            [
              86.93014430417904,
              27.895559408547328
            ],
            [
              86.9307539535272,
              27.895559716166414
            ],
            [
              86.93075378115846,
              27.89583053900063
            ],
            [
              86.93105860659162,
              27.89583069180406
            ],
            [
              86.93105843498645,
              27.89610151462929
            ],
            [
              86.93136326118318,
              27.896101666758984
            ],
            [
              86.9313630903326,
              27.896372489575235
            ],
            [
              86.93258239817376,
              27.89637309134766
            ],
            [
              86.93258223035949,
              27.896643914163906
            ],
            [
              86.9331918858162,
              27.89664421100321
            ],
            [
              86.93319155320599,
              27.897185856608758
            ],
            [
              86.93532535798093,
              27.89718687435506
            ],
            [
              86.935325518977,
              27.896916051547795
            ],
            [
              86.9356303474824,
              27.896916194245176
            ],
            [
              86.93563050771489,
              27.896645371428928
            ],
            [
              86.93654499096733,
              27.896645795460692
            ],
            [
              86.93654467504781,
              27.897187441093187
            ],
            [
              86.93623984577884,
              27.897187300425998
            ],
            [
              86.9362396870645,
              27.89745812322428
            ],
            [
              86.93593485703197,
              27.89745798187437
            ],
            [
              86.93593390012856,
              27.89908291844847
            ],
            [
              86.93562906555056,
              27.89908277641584
            ],
            [
              86.93562922580102,
              27.89881195368044
            ],
            [
              86.93532439198658,
              27.898811810974074
            ],
            [
              86.93532423097254,
              27.89908263370049
            ],
            [
              86.93501939640352,
              27.89908249032039
            ],
            [
              86.93501955817214,
              27.89881166759397
            ],
            [
              86.93471472435769,
              27.898811523540132
            ],
            [
              86.9347148868809,
              27.89854070079575
            ],
            [
              86.93501971993177,
              27.898540844849588
            ],
            [
              86.93501988170038,
              27.89827002209622
            ],
            [
              86.93441021710781,
              27.89826973332379
            ],
            [
              86.93441054366339,
              27.89772808779909
            ],
            [
              86.93380088212508,
              27.89772779633171
            ],
            [
              86.9338005525332,
              27.89826944184743
            ],
            [
              86.93288605568927,
              27.898268999579866
            ],
            [
              86.93288538737862,
              27.89935229047655
            ],
            [
              86.932580552064,
              27.899352141706558
            ],
            [
              86.93258038422277,
              27.89962296439704
            ],
            [
              86.93227554814457,
              27.899622814944326
            ],
            [
              86.93227571674937,
              27.89935199225384
            ],
            [
              86.92800802265003,
              27.899349829137588
            ],
            [
              86.92800820187291,
              27.899079006456088
            ],
            [
              86.92770336735778,
              27.899078846897325
            ],
            [
              86.92770318737134,
              27.89934966957883
            ],
            [
              86.9267886815622,
              27.899349186833177
            ],
            [
              86.92678849930302,
              27.89962000949671
            ],
            [
              86.92374013917684,
              27.899618356524723
            ],
            [
              86.92373994932689,
              27.899889179152325
            ],
            [
              86.92191092882429,
              27.899888155001037
            ],
            [
              86.92191190083736,
              27.89853404179116
            ],
            [
              86.9216070678853,
              27.898533868739705
            ],
            [
              86.92160745819432,
              27.897992223385685
            ],
            [
              86.91977846968072,
              27.897991171000346
            ],
            [
              86.91977886907169,
              27.897449525619376
            ],
            [
              86.91886437940529,
              27.897448990340248
            ]
          ],
          [
            [
              86.92770372731272,
              27.898537201507374
            ],
            [
              86.92770390729018,
              27.898266378798922
            ],
            [
              86.92861840400836,
              27.898266855445012
            ],
            [
              86.92861858170411,
              27.897996032718595
            ],
            [
              86.9292282446887,
              27.89799634711098
            ],
            [
              86.92922789232453,
              27.898537992563814
            ],
            [
              86.92861822631262,
              27.898537678162448
            ],
            [
              86.92861804861687,
              27.8988085008709
            ],
            [
              86.9280083810958,
              27.898808183765603
            ],
            [
              86.92800856030969,
              27.898537361066136
            ],
            [
              86.92770372731272,
              27.898537201507374
            ]
          ],
          [
            [
              86.9292285970349,
              27.897454701622213
            ],
            [
              86.92922877320352,
              27.897183878859863
            ],
            [
              86.92953360242757,
              27.897184035040958
            ],
            [
              86.92953342701354,
              27.897454857803307
            ],
            [
              86.9292285970349,
              27.897454701622213
            ]
          ],
          [
            [
              86.93166757710088,
              27.896914286627755
            ],
            [
              86.93166774719688,
              27.896643463838455
            ],
            [
              86.93227740263563,
              27.89664376472916
            ],
            [
              86.93227706547994,
              27.89718541031674
            ],
            [
              86.93197223623793,
              27.897185260208257
            ],
            [
              86.93197240557933,
              27.896914437418957
            ],
            [
              86.93166757710088,
              27.896914286627755
            ]
          ],
          [
            [
              86.93227605394998,
              27.898810346827958
            ],
            [
              86.9322762225368,
              27.89853952410154
            ],
            [
              86.9325810555787,
              27.898539673554254
            ],
            [
              86.93258088773747,
              27.89881049628067
            ],
            [
              86.93227605394998,
              27.898810346827958
            ]
          ]
        ]
      },
      "id": "+4177+2167",
      "properties": {
        "area_m2": 424895.4440804974,
        "count": 471,
        "water": 1
      }
    }
  ]
}
