{
  "type": "FeatureCollection",
  "features": [
    {
      "type": "Feature",
      "geometry": {
        "geodesic": false,
        "type": "MultiPolygon",
        "coordinates": [
          [
            [
              [
                86.92709369832754,
                27.899078525749612
              ],
              [
                86.92709387983214,
                27.898807703059127
              ],
              [
                86.9273987135837,
                27.898807863974344
              ],
              [
                86.92739889431574,
                27.898537041274878
              ],
              [
                86.92800856030969,
                27.898537361066136
              ],
              [
                86.9280083810958,
                27.898808183765603
              ],
              [
                86.92831321484735,
                27.89880834265961
              ],
              [
                86.92831303638803,
                27.899079165350095
              ],
              [
                86.92709369832754,
                27.899078525749612
              ]
            ]
          ],
          [
            [
              [
                86.92709369832754,
                27.899078525749612
              ],
              [
                86.92709351683192,
                27.89934934842213
              ],
              [
                86.92648384630148,
                27.899349024570487
              ],
              [
                86.92648366327872,
                27.89961984723402
              ],
              [
                86.92678849930302,
                27.89962000949671
              ],
              [
                86.92678831703485,
                27.899890832151264
              ],
              [
                86.92617864347709,
                27.899890506943166
              ],
              [
                86.92617845969076,
                27.90016132957975
              ],
              [
                86.92800748496342,
                27.90016229711921
              ],
              [
                86.92800730573155,
                27.900433119755796
              ],
              [
                86.92709279080452,
                27.90043263901339
              ],
              [
                86.92709260929094,
                27.90070346163201
              ],
              [
                86.924653896869,
                27.900702149983896
              ],
              [
                86.92465370928281,
                27.900972972584547
              ],
              [
                86.92221499094997,
                27.900971617763403
              ],
              [
                86.92221518460877,
                27.900700795180715
              ],
              [
                86.92130066756172,
                27.90070027600838
              ],
              [
                86.9213004716212,
                27.900971098582083
              ],
              [
                86.92160531140044,
                27.90097127231626
              ],
              [
                86.92160511622349,
                27.90124209488098
              ],
              [
                86.91977607306536,
                27.901241042342928
              ],
              [
                86.91977587333395,
                27.90151186488968
              ],
              [
                86.91886134951359,
                27.901511329511738
              ],
              [
                86.91886155152675,
                27.90124050697397
              ],
              [
                86.91825187051296,
                27.901240146686657
              ],
              [
                86.91825166698167,
                27.90151096922443
              ],
              [
                86.9176419844677,
                27.901510606233188
              ],
              [
                86.91764177940928,
                27.901781428752994
              ],
              [
                86.91703209538615,
                27.901781063066807
              ],
              [
                86.91703188881854,
                27.902051885568646
              ],
              [
                86.91642220328623,
                27.90205151717853
              ],
              [
                86.9164219951915,
                27.902322339671386
              ],
              [
                86.91520262112653,
                27.90232159478835
              ],
              [
                86.91520283225756,
                27.902050772313462
              ],
              [
                86.9148979895049,
                27.902050584412855
              ],
              [
                86.91489820139051,
                27.90177976192
              ],
              [
                86.91459335940141,
                27.901779573345657
              ],
              [
                86.91459357204161,
                27.901508750843817
              ],
              [
                86.91428873081608,
                27.901508561604718
              ],
              [
                86.91428915760567,
                27.900966916583076
              ],
              [
                86.91398431789828,
                27.90096672666126
              ],
              [
                86.91398453205665,
                27.900695904132473
              ],
              [
                86.91215549843864,
                27.900694750489034
              ],
              [
                86.91215593583733,
                27.90015310543146
              ],
              [
                86.91185109842964,
                27.90015291080247
              ],
              [
                86.91185131787907,
                27.8998820882647
              ],
              [
                86.91276582783843,
                27.899882670121475
              ],
              [
                86.91276604501512,
                27.899611847565737
              ],
              [
                86.9136805527197,
                27.8996124233499
              ],
              [
                86.9136807676057,
                27.899341600776197
              ],
              [
                86.91398560275863,
                27.899341791353784
              ],
              [
                86.91398581689005,
                27.899070968762114
              ],
              [
                86.9142906512794,
                27.89907115866597
              ],
              [
                86.91429086465624,
                27.898800336065314
              ],
              [
                86.91459569829101,
                27.898800525295428
              ],
              [
                86.91459612350855,
                27.898258880049205
              ],
              [
                86.91520578775078,
                27.89825925647026
              ],
              [
                86.91520599883691,
                27.897988433833675
              ],
              [
                86.91551083020794,
                27.897988621033598
              ],
              [
                86.91551104053049,
                27.897717798379045
              ],
              [
                86.9164255323798,
                27.897718355918425
              ],
              [
                86.91642574042064,
                27.89744753324591
              ],
              [
                86.91673057028248,
                27.8974477177419
              ],
              [
                86.91673077756874,
                27.8971768950604
              ],
              [
                86.91795009401578,
                27.897177626298024
              ],
              [
                86.91795029825674,
                27.896906803589573
              ],
              [
                86.91977926846266,
                27.896907880202473
              ],
              [
                86.91977946814917,
                27.89663705748504
              ],
              [
                86.92008429576524,
                27.89663723456095
              ],
              [
                86.92008449469715,
                27.896366411816565
              ],
              [
                86.92099897529057,
                27.89636693899289
              ],
              [
                86.9209991719318,
                27.896096116239523
              ],
              [
                86.92130399804768,
                27.896096290611503
              ],
              [
                86.9213041939343,
                27.895825467849154
              ],
              [
                86.9216090192866,
                27.895825641547397
              ],
              [
                86.92160882416356,
                27.896096464309746
              ],
              [
                86.92252330252016,
                27.89609698136206
              ],
              [
                86.92252253108293,
                27.89718027235756
              ],
              [
                86.92526599362326,
                27.89718178717764
              ],
              [
                86.92526617965538,
                27.896910964433257
              ],
              [
                86.92557100807993,
                27.896911129372924
              ],
              [
                86.9255708228024,
                27.897181952126292
              ],
              [
                86.92587565199051,
                27.897182116392223
              ],
              [
                86.92587546747656,
                27.897452939136606
              ],
              [
                86.92557063752487,
                27.89745277486169
              ],
              [
                86.9255700816833,
                27.898265243022976
              ],
              [
                86.92587491390772,
                27.89826540729789
              ],
              [
                86.92587472937579,
                27.89853622999736
              ],
              [
                86.9261795623548,
                27.89853639359854
              ],
              [
                86.92617974613215,
                27.89826557089907
              ],
              [
                86.92648457835656,
                27.898265733826516
              ],
              [
                86.92648494436615,
                27.897724088391648
              ],
              [
                86.9267897750814,
                27.897724250636372
              ],
              [
                86.9267895928312,
                27.89799507336279
              ],
              [
                86.92709442431001,
                27.89799523494276
              ],
              [
                86.92709424281439,
                27.89826605766019
              ],
              [
                86.926789410581,
                27.898265896080222
              ],
              [
                86.92678886382139,
                27.89907836416066
              ],
              [
                86.92709369832754,
                27.899078525749612
              ]
            ],
            [
              [
                86.9176419844677,
                27.901510606233188
              ],
              [
                86.91733714320623,
                27.901510423731455
              ],
              [
                86.91733734901925,
                27.90123960120267
              ],
              [
                86.91764218951715,
                27.9012397837044
              ],
              [
                86.9176419844677,
                27.901510606233188
              ]
            ],
            [
              [
                86.924653896869,
                27.900702149983896
              ],
              [
                86.92434905782638,
                27.90070198299607
              ],
              [
                86.92434924616715,
                27.900431160386432
              ],
              [
                86.9246540844552,
                27.90043132737426
              ],
              [
                86.924653896869,
                27.900702149983896
              ]
            ],
            [
              [
                86.92617845969076,
                27.90016132957975
              ],
              [
                86.92617827590443,
                27.90043215220735
              ],
              [
                86.92556859931037,
                27.900431824295325
              ],
              [
                86.92556878462383,
                27.900161001676704
              ],
              [
                86.92526394709037,
                27.900160836710086
              ],
              [
                86.92526413314943,
                27.899890014082484
              ],
              [
                86.9258738066982,
                27.899890343333002
              ],
              [
                86.9258736221573,
                27.90016116596959
              ],
              [
                86.92617845969076,
                27.90016132957975
              ]
            ],
            [
              [
                86.92069079208963,
                27.90097074908354
              ],
              [
                86.92069098953934,
                27.90069992651882
              ],
              [
                86.92099582854604,
                27.900700101600467
              ],
              [
                86.92099563185093,
                27.90097092417417
              ],
              [
                86.92069079208963,
                27.90097074908354
              ]
            ],
            [
              [
                86.92252021652868,
                27.900430144302014
              ],
              [
                86.92252040942392,
                27.900159321692378
              ],
              [
                86.92282524693044,
                27.900159492731607
              ],
              [
                86.92282505479876,
                27.900430315332258
              ],
              [
                86.92252021652868,
                27.900430144302014
              ]
            ],
            [
              [
                86.92343473133894,
                27.90043065538053
              ],
              [
                86.92343492195246,
                27.900159832770893
              ],
              [
                86.92373975946795,
                27.90016000177993
              ],
              [
                86.92373956960903,
                27.900430824389566
              ],
              [
                86.92343473133894,
                27.90043065538053
              ]
            ]
          ]
        ]
      },
      "id": "+4439+1814",
      "properties": {
        "area_m2": 593590.3220172423,
        "count": 658,
        "water": 1
      }
    }
  ]
}
