{
  "type": "FeatureCollection",
  "features": [
    {
      "type": "Feature",
      "geometry": {
        "geodesic": false,
        "type": "Polygon",
        "coordinates": [
          [
            [
              86.9142900111579,
              27.899883626405042
            ],
            [
              86.91429043791156,
              27.89934198125764
            ],
            [
              86.91520494337934,
              27.89934254692677
            ],
            [
              86.91520536556955,
              27.89880090171648
            ],
            [
              86.91581503286605,
              27.89880127545157
            ],
            [
              86.91581587114692,
              27.897717984896246
            ],
            [
              86.91673036299623,
              27.89771854041442
            ],
            [
              86.91673057028248,
              27.8974477177419
            ],
            [
              86.91794988976584,
              27.89744844898851
            ],
            [
              86.91795009401578,
              27.897177626298024
            ],
            [
              86.92008389790139,
              27.897178879995817
            ],
            [
              86.92008429576524,
              27.89663723456095
            ],
            [
              86.92191326153349,
              27.896638282840986
            ],
            [
              86.92191345590197,
              27.896367460096602
            ],
            [
              86.92313276343772,
              27.89636814546625
            ],
            [
              86.92313295476988,
              27.896097322694917
            ],
            [
              86.92404743317142,
              27.89609782964118
            ],
            [
              86.92404762223086,
              27.89582700685188
            ],
            [
              86.92526692375688,
              27.895827673329958
            ],
            [
              86.92526710978001,
              27.895556850531676
            ],
            [
              86.92587675904731,
              27.89555717971931
            ],
            [
              86.92587546747656,
              27.897452939136606
            ],
            [
              86.9280092771563,
              27.897454070151483
            ],
            [
              86.9280094563702,
              27.897183247398118
            ],
            [
              86.92831428557629,
              27.89718340627416
            ],
            [
              86.92831571306216,
              27.895016823842983
            ],
            [
              86.92953500563198,
              27.895017452546902
            ],
            [
              86.92953483023591,
              27.895288275399082
            ],
            [
              86.93075412588695,
              27.895288893323215
            ],
            [
              86.93075378115846,
              27.89583053900063
            ],
            [
              86.93105860659162,
              27.89583069180406
            ],
            [
              86.93105843498645,
              27.89610151462929
            ],
            [
              86.93136326118318,
              27.896101666758984
            ],
            [
              86.93136274863143,
              27.896914135171798
            ],
            [
              86.93197240557933,
              27.896914437418957
            ],
            [
              86.93197189755509,
              27.897726905750922
            ],
            [
              86.93227672830628,
              27.89772705586839
            ],
            [
              86.93227655971945,
              27.89799787862176
            ],
            [
              86.9319717282047,
              27.89799772850429
            ],
            [
              86.9319710508031,
              27.89908101941894
            ],
            [
              86.93166621625205,
              27.89908086862774
            ],
            [
              86.93166604613808,
              27.899351691327205
            ],
            [
              86.92739835210162,
              27.89934950933735
            ],
            [
              86.92739817135161,
              27.899620332000882
            ],
            [
              86.92374013917684,
              27.899618356524723
            ],
            [
              86.92373994932689,
              27.899889179152325
            ],
            [
              86.92160609209033,
              27.899887981949583
            ],
            [
              86.92160589692234,
              27.900158804550234
            ],
            [
              86.9194720345025,
              27.900157574289487
            ],
            [
              86.91947183401649,
              27.900428396872172
            ],
            [
              86.91886215754819,
              27.900428039297775
            ],
            [
              86.91886175353989,
              27.900969684427213
            ],
            [
              86.91855691378758,
              27.900969504620427
            ],
            [
              86.9185571165553,
              27.90069868206469
            ],
            [
              86.91642324370602,
              27.900697404579507
            ],
            [
              86.91642303562925,
              27.90096822711728
            ],
            [
              86.91581335617855,
              27.900967856050183
            ],
            [
              86.91581356577346,
              27.90069703351241
            ],
            [
              86.91550872681168,
              27.900696846968263
            ],
            [
              86.91550893717016,
              27.900426024421506
            ],
            [
              86.91520409896296,
              27.90042583720362
            ],
            [
              86.91520452118013,
              27.899884192092145
            ],
            [
              86.9142900111579,
              27.899883626405042
            ]
          ]
        ]
      },
      "id": "+4445+1927",
      "properties": {
        "area_m2": 607122.2161219614,
        "count": 673,
        "water": 1
      }
    }
  ]
}
