{
  "type": "FeatureCollection",
  "features": [
    {
      "type": "Feature",
      "geometry": {
        "geodesic": false,
        "type": "Polygon",
        "coordinates": [
          [
            [
              86.91733796642235,
              27.900427133562406
            ],
            [
              86.9173381722174,
              27.900156310988702
            ],
            [
              86.91794784714061,
              27.90015667530945
            ],
            [
              86.9179484599623,
              27.899344207525456
            ],
            [
              86.91825329515117,
              27.89934438866175
            ],
            [
              86.91825349865552,
              27.899073566043132
            ],
            [
              86.91855833308979,
              27.89907374650569
            ],
            [
              86.91855853583955,
              27.898802923878087
            ],
            [
              86.91886336951026,
              27.898803103657922
            ],
            [
              86.91886478334173,
              27.89690734493233
            ],
            [
              86.92008409683332,
              27.896908057287366
            ],
            [
              86.92008429576524,
              27.89663723456095
            ],
            [
              86.92221808916752,
              27.89663845520074
            ],
            [
              86.92221828278142,
              27.896367632447376
            ],
            [
              86.92313276343772,
              27.89636814546625
            ],
            [
              86.92313295476988,
              27.896097322694917
            ],
            [
              86.92465708544809,
              27.89609816422769
            ],
            [
              86.92465727298938,
              27.89582734143839
            ],
            [
              86.92740070154643,
              27.89582881371426
            ],
            [
              86.92740106295665,
              27.89528716807278
            ],
            [
              86.92892518243285,
              27.895287962390103
            ],
            [
              86.92892412092063,
              27.896912899233698
            ],
            [
              86.9295337778326,
              27.896913212269624
            ],
            [
              86.92953325159951,
              27.897725680556675
            ],
            [
              86.93197189755509,
              27.897726905750922
            ],
            [
              86.93197155886328,
              27.898268551248673
            ],
            [
              86.93441021710781,
              27.89826973332379
            ],
            [
              86.9344103803856,
              27.89799891056144
            ],
            [
              86.93471521191832,
              27.897999055289016
            ],
            [
              86.9347145618345,
              27.89908234626655
            ],
            [
              86.93410489269645,
              27.89908205612868
            ],
            [
              86.93410472865509,
              27.899352878846113
            ],
            [
              86.93379989333148,
              27.899352732762082
            ],
            [
              86.93379972851758,
              27.89962355547053
            ],
            [
              86.93349489243938,
              27.899623408712763
            ],
            [
              86.93349472687089,
              27.89989423140325
            ],
            [
              86.93288505320534,
              27.899893935866505
            ],
            [
              86.93288522029198,
              27.89962311317602
            ],
            [
              86.93105620389468,
              27.899622210387125
            ],
            [
              86.9310563755268,
              27.89935138770562
            ],
            [
              86.92709351683192,
              27.89934934842213
            ],
            [
              86.92709333532731,
              27.899620171085665
            ],
            [
              86.92404497518318,
              27.899618524851043
            ],
            [
              86.9240447860878,
              27.899889347487626
            ],
            [
              86.92252060231917,
              27.899888499082742
            ],
            [
              86.92252040942392,
              27.900159321692378
            ],
            [
              86.91977687198207,
              27.900157752066082
            ],
            [
              86.91977667225963,
              27.900428574648767
            ],
            [
              86.91733796642235,
              27.900427133562406
            ]
          ]
        ]
      },
      "id": "+4203+2166",
      "properties": {
        "area_m2": 522323.6094438019,
        "count": 579,
        "water": 1
      }
    }
  ]
}
