{
  "type": "FeatureCollection",
  "features": [
    {
      "type": "Feature",
      "geometry": {
        "geodesic": false,
        "type": "MultiPolygon",
        "coordinates": [
          [
            [
              [
                86.9286205362046,
                27.89501698202732
              ],
              [
                86.92862071386442,
                27.89474615917514
              ],
              [
                86.92923035863117,
                27.89474647352261
              ],
              [
                86.92923018248952,
                27.895017296383774
              ],
              [
                86.9286205362046,
                27.89501698202732
              ]
            ]
          ],
          [
            [
              [
                86.93197359088839,
                27.89501867759742
              ],
              [
                86.93197376021183,
                27.89474785472727
              ],
              [
                86.93227858261767,
                27.894748004826774
              ],
              [
                86.93227841405779,
                27.89501882769692
              ],
              [
                86.93197359088839,
                27.89501867759742
              ]
            ]
          ],
          [
            [
              [
                86.93319321614028,
                27.894477628176777
              ],
              [
                86.93319338242743,
                27.89420680527968
              ],
              [
                86.93349820332409,
                27.89420695267525
              ],
              [
                86.93349803780052,
                27.894477775581333
              ],
              [
                86.93319321614028,
                27.894477628176777
              ]
            ]
          ],
          [
            [
              [
                86.93715511577581,
                27.895833606235286
              ],
              [
                86.93776476674094,
                27.895833882844528
              ],
              [
                86.93776445691199,
                27.896375528557872
              ],
              [
                86.93745962990678,
                27.89637539058563
              ],
              [
                86.93745978558482,
                27.89610456774243
              ],
              [
                86.93715495934318,
                27.89610442909645
              ],
              [
                86.93715511577581,
                27.895833606235286
              ]
            ]
          ],
          [
            [
              [
                86.9286205362046,
                27.89501698202732
              ],
              [
                86.92862035853581,
                27.89528780487052
              ],
              [
                86.92801071074173,
                27.89528748781912
              ],
              [
                86.92801053155479,
                27.89555831065334
              ],
              [
                86.92831535620641,
                27.895558469511414
              ],
              [
                86.92831499934168,
                27.89610011514391
              ],
              [
                86.92892465169021,
                27.896100430856816
              ],
              [
                86.92892500551864,
                27.89555878522432
              ],
              [
                86.92983947950944,
                27.895559253731673
              ],
              [
                86.92983965415092,
                27.895288430888474
              ],
              [
                86.93075412588695,
                27.895288893323215
              ],
              [
                86.9307539535272,
                27.895559716166414
              ],
              [
                86.93105877819679,
                27.895559868969844
              ],
              [
                86.93105912139814,
                27.89501822326548
              ],
              [
                86.93197359088839,
                27.89501867759742
              ],
              [
                86.93197342156493,
                27.895289500467566
              ],
              [
                86.93136377371697,
                27.895289198238373
              ],
              [
                86.93136360287536,
                27.895560021090557
              ],
              [
                86.93166842755393,
                27.89556017253753
              ],
              [
                86.9316682574759,
                27.895830995380727
              ],
              [
                86.93258273380232,
                27.895831445688213
              ],
              [
                86.9325829016166,
                27.895560622845014
              ],
              [
                86.93288772630416,
                27.895560771597044
              ],
              [
                86.93288839448904,
                27.89447748010747
              ],
              [
                86.93319321614028,
                27.894477628176777
              ],
              [
                86.93319205211232,
                27.896373388186962
              ],
              [
                86.9334968790816,
                27.8963735356005
              ],
              [
                86.93349671354007,
                27.896644358416747
              ],
              [
                86.9338015412729,
                27.89664450515655
              ],
              [
                86.93380187083784,
                27.896102859506087
              ],
              [
                86.93349704462314,
                27.896102712775267
              ],
              [
                86.93349754122082,
                27.895290244227706
              ],
              [
                86.93380236516276,
                27.895290390949544
              ],
              [
                86.93380252993175,
                27.895019568079395
              ],
              [
                86.93410735311015,
                27.895019714136478
              ],
              [
                86.93410718910472,
                27.895290537006623
              ],
              [
                86.93502166093957,
                27.895290971126467
              ],
              [
                86.9350214991979,
                27.895561793996617
              ],
              [
                86.93532632390342,
                27.895561937358753
              ],
              [
                86.93532664585962,
                27.895020291609473
              ],
              [
                86.93502182267225,
                27.895020148247337
              ],
              [
                86.93502198440494,
                27.894749325359225
              ],
              [
                86.93471716197216,
                27.894749181332333
              ],
              [
                86.93471732446841,
                27.894478358435236
              ],
              [
                86.93532696780684,
                27.89447864581528
              ],
              [
                86.93532680683772,
                27.894749468712376
              ],
              [
                86.9356316292705,
                27.894749611400776
              ],
              [
                86.93563146905598,
                27.89502043428889
              ],
              [
                86.93593629225234,
                27.895020576303555
              ],
              [
                86.93593613279238,
                27.895291399182685
              ],
              [
                86.93685060466316,
                27.895291821175274
              ],
              [
                86.93685044748494,
                27.895562644054404
              ],
              [
                86.93715527219945,
                27.895562783365136
              ],
              [
                86.93715511577581,
                27.895833606235286
              ],
              [
                86.93593581386351,
                27.89583304492298
              ],
              [
                86.93593533545672,
                27.89664551344359
              ],
              [
                86.93654499096733,
                27.896645795460692
              ],
              [
                86.93654467504781,
                27.897187441093187
              ],
              [
                86.93623984577884,
                27.897187300425998
              ],
              [
                86.93624000449319,
                27.89691647760975
              ],
              [
                86.9359351759878,
                27.896916336268823
              ],
              [
                86.93593437858925,
                27.898270450206336
              ],
              [
                86.93654404319979,
                27.898270732241404
              ],
              [
                86.93654420116853,
                27.89799990947007
              ],
              [
                86.93684903271023,
                27.898000049472508
              ],
              [
                86.93684840387156,
                27.89908334050394
              ],
              [
                86.93654356928458,
                27.89908320049252
              ],
              [
                86.93654388523105,
                27.898541555003753
              ],
              [
                86.93623905217119,
                27.898541414318597
              ],
              [
                86.93623889343888,
                27.89881223707196
              ],
              [
                86.93532439198658,
                27.898811810974074
              ],
              [
                86.93532423097254,
                27.89908263370049
              ],
              [
                86.93501939640352,
                27.89908249032039
              ],
              [
                86.93501988170038,
                27.89827002209622
              ],
              [
                86.9347150494041,
                27.898269878051366
              ],
              [
                86.93471521191832,
                27.897999055289016
              ],
              [
                86.9344103803856,
                27.89799891056144
              ],
              [
                86.93441054366339,
                27.89772808779909
              ],
              [
                86.93380088212508,
                27.89772779633171
              ],
              [
                86.93380071732915,
                27.897998619094064
              ],
              [
                86.93288622275794,
                27.897998176835483
              ],
              [
                86.9328858886116,
                27.89853982232425
              ],
              [
                86.9322762225368,
                27.89853952410154
              ],
              [
                86.93227588534518,
                27.899081169545394
              ],
              [
                86.93258071990522,
                27.899081318998107
              ],
              [
                86.932580552064,
                27.899352141706558
              ],
              [
                86.93197088144373,
                27.89935184212739
              ],
              [
                86.9319710508031,
                27.89908101941894
              ],
              [
                86.93166621625205,
                27.89908086862774
              ],
              [
                86.93166604613808,
                27.899351691327205
              ],
              [
                86.93136121083243,
                27.89935153985328
              ],
              [
                86.93136138170998,
                27.899080717153815
              ],
              [
                86.92861787091215,
                27.89907932356138
              ],
              [
                86.92861769320741,
                27.899350146242885
              ],
              [
                86.92831285791974,
                27.899349988031595
              ],
              [
                86.92831303638803,
                27.899079165350095
              ],
              [
                86.92770336735778,
                27.899078846897325
              ],
              [
                86.92770318737134,
                27.89934966957883
              ],
              [
                86.92617901103176,
                27.89934886163406
              ],
              [
                86.92617882725442,
                27.899619684297598
              ],
              [
                86.92374013917684,
                27.899618356524723
              ],
              [
                86.92373994932689,
                27.899889179152325
              ],
              [
                86.92191092882429,
                27.899888155001037
              ],
              [
                86.9219113176421,
                27.899346509745833
              ],
              [
                86.9216064824173,
                27.899346336694375
              ],
              [
                86.9216068727353,
                27.89880469140324
              ],
              [
                86.92130203902865,
                27.89880451768703
              ],
              [
                86.9213024308558,
                27.898262872359957
              ],
              [
                86.92099759867631,
                27.89826269797001
              ],
              [
                86.92099799200365,
                27.897721052598026
              ],
              [
                86.9206931613423,
                27.89772087754333
              ],
              [
                86.92069335876505,
                27.89745005484386
              ],
              [
                86.92038852886726,
                27.89744987910644
              ],
              [
                86.9203887270446,
                27.89717905639799
              ],
              [
                86.92069355617882,
                27.897179232135407
              ],
              [
                86.92069375360157,
                27.89690840940899
              ],
              [
                86.92191306715603,
                27.896909105585372
              ],
              [
                86.92191345590197,
                27.896367460096602
              ],
              [
                86.92221828278142,
                27.896367632447376
              ],
              [
                86.9222184763953,
                27.896096809685023
              ],
              [
                86.92313295476988,
                27.896097322694917
              ],
              [
                86.92313314610206,
                27.8958264999146
              ],
              [
                86.92435244761012,
                27.8958271744865
              ],
              [
                86.92435263590598,
                27.895556351688214
              ],
              [
                86.92587675904731,
                27.89555717971931
              ],
              [
                86.92587694354332,
                27.895286356903064
              ],
              [
                86.92709623906859,
                27.895287007184514
              ],
              [
                86.92709642052827,
                27.895016184350297
              ],
              [
                86.9286205362046,
                27.89501698202732
              ]
            ],
            [
              [
                86.92770354733526,
                27.89880802420684
              ],
              [
                86.92770390729018,
                27.898266378798922
              ],
              [
                86.92800873952359,
                27.898266538357685
              ],
              [
                86.92800891873749,
                27.897995715631268
              ],
              [
                86.9283137502253,
                27.89799587451629
              ],
              [
                86.92831392867562,
                27.897725051780892
              ],
              [
                86.92892359013308,
                27.897725367511764
              ],
              [
                86.92892341319191,
                27.897996190256148
              ],
              [
                86.9292282446887,
                27.89799634711098
              ],
              [
                86.92922789232453,
                27.898537992563814
              ],
              [
                86.92861822631262,
                27.898537678162448
              ],
              [
                86.92861804861687,
                27.8988085008709
              ],
              [
                86.92770354733526,
                27.89880802420684
              ]
            ],
            [
              [
                86.92770498708312,
                27.896641442314657
              ],
              [
                86.92770516704263,
                27.896370619525356
              ],
              [
                86.92892447476702,
                27.896371253664082
              ],
              [
                86.92892429784382,
                27.896642076453382
              ],
              [
                86.92922912554074,
                27.896642233308214
              ],
              [
                86.92922894937213,
                27.89691305608853
              ],
              [
                86.92892412092063,
                27.896912899233698
              ],
              [
                86.92892394398845,
                27.897183722005032
              ],
              [
                86.92861911478236,
                27.897183564476464
              ],
              [
                86.92861929246914,
                27.89691274171411
              ],
              [
                86.92800963556614,
                27.896912424635765
              ],
              [
                86.92800981477106,
                27.896641601864435
              ],
              [
                86.92770498708312,
                27.896641442314657
              ]
            ],
            [
              [
                86.9292285970349,
                27.897454701622213
              ],
              [
                86.92922877320352,
                27.897183878859863
              ],
              [
                86.92953360242757,
                27.897184035040958
              ],
              [
                86.92953342701354,
                27.897454857803307
              ],
              [
                86.9292285970349,
                27.897454701622213
              ]
            ],
            [
              [
                86.9316674070049,
                27.897185109417055
              ],
              [
                86.93166774719688,
                27.896643463838455
              ],
              [
                86.93197257492075,
                27.896643614620675
              ],
              [
                86.93197240557933,
                27.896914437418957
              ],
              [
                86.93227723405778,
                27.896914587527444
              ],
              [
                86.93227706547994,
                27.89718541031674
              ],
              [
                86.9316674070049,
                27.897185109417055
              ]
            ]
          ]
        ]
      },
      "id": "+4248+2170",
      "properties": {
        "area_m2": 577352.6837533773,
        "count": 640,
        "water": 1
      }
    }
  ]
}
