{
  "type": "FeatureCollection",
  "features": [
    {
      "type": "Feature",
      "geometry": {
        "geodesic": false,
        "type": "Polygon",
        "coordinates": [
          [
            [
              86.92191015117072,
              27.9009714453767
            ],
            [
              86.92038595231936,
              27.900970573328156
            ],
            [
              86.92038555588385,
              27.901512218430646
            ],
            [
              86.92008071460441,
              27.901512042001524
            ],
            [
              86.92008170946164,
              27.900157929168937
            ],
            [
              86.91977687198207,
              27.900157752066082
            ],
            [
              86.91977826997625,
              27.89826199366388
            ],
            [
              86.91825410915956,
              27.89826109812439
            ],
            [
              86.91825451615028,
              27.897719452788337
            ],
            [
              86.91855934679367,
              27.897719633241913
            ],
            [
              86.91855954952547,
              27.89744881056041
            ],
            [
              86.91947403918289,
              27.89744934786973
            ],
            [
              86.9194748409742,
              27.896366056999994
            ],
            [
              86.92038932155863,
              27.89636658821874
            ],
            [
              86.92038971788635,
              27.895824942712004
            ],
            [
              86.9219138446479,
              27.895825814562922
            ],
            [
              86.92191423337587,
              27.895284168993307
            ],
            [
              86.9231335287664,
              27.89528485432702
            ],
            [
              86.9231337200896,
              27.895014031519754
            ],
            [
              86.92343854318713,
              27.895014201166596
            ],
            [
              86.92343720916199,
              27.896909960628808
            ],
            [
              86.92435169439071,
              27.896910465562847
            ],
            [
              86.92435094114437,
              27.897993756468512
            ],
            [
              86.92557026696981,
              27.897994420314525
            ],
            [
              86.9255698963968,
              27.89853606571346
            ],
            [
              86.92435056449874,
              27.898535401858467
            ],
            [
              86.92434962284872,
              27.89988951514919
            ],
            [
              86.9240447860878,
              27.899889347487626
            ],
            [
              86.92404421878373,
              27.90070181532552
            ],
            [
              86.92373937975009,
              27.900701646990218
            ],
            [
              86.92373918989115,
              27.900972469581887
            ],
            [
              86.92282467051746,
              27.900971960515598
            ],
            [
              86.9228244783768,
              27.9012427830893
            ],
            [
              86.92190995675732,
              27.90124226794142
            ],
            [
              86.92191015117072,
              27.9009714453767
            ]
          ],
          [
            [
              86.92191015117072,
              27.9009714453767
            ],
            [
              86.92191034559309,
              27.900700622794012
            ],
            [
              86.92221518460877,
              27.900700795180715
            ],
            [
              86.92221499094997,
              27.900971617763403
            ],
            [
              86.92191015117072,
              27.9009714453767
            ]
          ]
        ]
      },
      "id": "+4235+1817",
      "properties": {
        "area_m2": 272438.1795385203,
        "count": 302,
        "water": 1
      }
    }
  ]
}
