{
  "type": "FeatureCollection",
  "features": [
    {
      "type": "Feature",
      "geometry": {
        "geodesic": false,
        "type": "Polygon",
        "coordinates": [
          [
            [
              86.91581314657464,
              27.901238678578974
            ],
            [
              86.91581335617855,
              27.900967856050183
            ],
            [
              86.91611819590389,
              27.9009680419206
            ],
            [
              86.91611861357559,
              27.900426396836075
            ],
            [
              86.91672828998999,
              27.900426766546712
            ],
            [
              86.91672849730318,
              27.900155943981993
            ],
            [
              86.9170333347558,
              27.900156127822214
            ],
            [
              86.91703354131442,
              27.89988530524851
            ],
            [
              86.91733837801246,
              27.899885488415
            ],
            [
              86.91733981847898,
              27.897989730057713
            ],
            [
              86.91673015570998,
              27.897989363077954
            ],
            [
              86.91673036299623,
              27.89771854041442
            ],
            [
              86.91581587114692,
              27.897717984896246
            ],
            [
              86.9158167093739,
              27.896634694170242
            ],
            [
              86.9170360197124,
              27.89663543348372
            ],
            [
              86.91703622622609,
              27.896364610766287
            ],
            [
              86.91795070673867,
              27.896365158154705
            ],
            [
              86.9179505024977,
              27.896635980881122
            ],
            [
              86.91825533010478,
              27.89663616199945
            ],
            [
              86.91825573705957,
              27.896094516537634
            ],
            [
              86.91886538922844,
              27.896094876744094
            ],
            [
              86.9188655911877,
              27.89582405399971
            ],
            [
              86.92099936858199,
              27.895825293477174
            ],
            [
              86.92099956522321,
              27.895554470696858
            ],
            [
              86.9222188636141,
              27.895555164133377
            ],
            [
              86.92221905721902,
              27.895284341344077
            ],
            [
              86.92252388106216,
              27.895284513012125
            ],
            [
              86.9225240739035,
              27.895013690204863
            ],
            [
              86.9231337200896,
              27.895014031519754
            ],
            [
              86.92313391141278,
              27.894743208703506
            ],
            [
              86.9237435560897,
              27.89474354731447
            ],
            [
              86.92374374589474,
              27.894472724480252
            ],
            [
              86.9243533890625,
              27.894473060396273
            ],
            [
              86.9243535773404,
              27.89420223754409
            ],
            [
              86.92618250236107,
              27.8942032291045
            ],
            [
              86.9261826860935,
              27.893932406234352
            ],
            [
              86.92801160664953,
              27.893933373513303
            ],
            [
              86.92801178581851,
              27.893662550625187
            ],
            [
              86.92984070190994,
              27.893663493631657
            ],
            [
              86.92984087653345,
              27.893392670716594
            ],
            [
              86.93166978816024,
              27.8933935894416
            ],
            [
              86.93166995822928,
              27.893122766508572
            ],
            [
              86.93349886539144,
              27.893123660952117
            ],
            [
              86.93349903090603,
              27.89285283800112
            ],
            [
              86.93563275071833,
              27.89285385084262
            ],
            [
              86.93563243031622,
              27.89339549677156
            ],
            [
              86.93593724895811,
              27.893395638768258
            ],
            [
              86.93593708951613,
              27.893666461719253
            ],
            [
              86.93563227011066,
              27.893666319722556
            ],
            [
              86.93563146905598,
              27.89502043428889
            ],
            [
              86.93471699948489,
              27.89502000422045
            ],
            [
              86.93471683698863,
              27.89529082709958
            ],
            [
              86.93410718910472,
              27.895290537006623
            ],
            [
              86.93410702509031,
              27.895561359867788
            ],
            [
              86.93380220038479,
              27.89556121381071
            ],
            [
              86.93380104691204,
              27.897456973551396
            ],
            [
              86.93593485703197,
              27.89745798187437
            ],
            [
              86.93593501650987,
              27.89718715907609
            ],
            [
              86.93715433359472,
              27.897187720424327
            ],
            [
              86.93715527219945,
              27.895562783365136
            ],
            [
              86.9377649216554,
              27.89556305997438
            ],
            [
              86.9377650765609,
              27.895292237095248
            ],
            [
              86.9380699005298,
              27.895292374384773
            ],
            [
              86.93807005468071,
              27.895021551487677
            ],
            [
              86.93867970110934,
              27.895021824045518
            ],
            [
              86.93868076946673,
              27.89312606346041
            ],
            [
              86.94050967693431,
              27.89312686489239
            ],
            [
              86.9405101211063,
              27.89231439588669
            ],
            [
              86.94081493675681,
              27.89231452709462
            ],
            [
              86.94081508405357,
              27.89204370407176
            ],
            [
              86.94142471382744,
              27.89204396445743
            ],
            [
              86.94142485960604,
              27.891773141425585
            ],
            [
              86.94294893028577,
              27.891773780603856
            ],
            [
              86.9429490722645,
              27.891502957545065
            ],
            [
              86.94355869902901,
              27.89150320848944
            ],
            [
              86.94355855856844,
              27.891774031557215
            ],
            [
              86.94386337270977,
              27.891774156018798
            ],
            [
              86.94386351241577,
              27.891503332960003
            ],
            [
              86.94477795259398,
              27.891503702302334
            ],
            [
              86.94477809001826,
              27.891232879225573
            ],
            [
              86.94508290265941,
              27.89123300099221
            ],
            [
              86.94508276598972,
              27.891503824077954
            ],
            [
              86.94538757938545,
              27.891503945170854
            ],
            [
              86.94538771529157,
              27.89123312208511
            ],
            [
              86.94660696586514,
              27.891233599719346
            ],
            [
              86.94660709874394,
              27.89096277662462
            ],
            [
              86.94843597009925,
              27.890963472845915
            ],
            [
              86.9484360984236,
              27.89069264973322
            ],
            [
              86.94996015414637,
              27.890693211377904
            ],
            [
              86.9499579123377,
              27.89556802591517
            ],
            [
              86.94965308753336,
              27.895567914910348
            ],
            [
              86.94965283689442,
              27.896109560758443
            ],
            [
              86.94904318425841,
              27.896109336727594
            ],
            [
              86.9490430574163,
              27.89638015962469
            ],
            [
              86.94721409498977,
              27.89637947133552
            ],
            [
              86.94721396360218,
              27.896650294223633
            ],
            [
              86.94568982450677,
              27.8966497021081
            ],
            [
              86.94568995969423,
              27.896378879228966
            ],
            [
              86.94508030558501,
              27.896378637663005
            ],
            [
              86.94508044229062,
              27.89610781477489
            ],
            [
              86.94050804810904,
              27.896105917110802
            ],
            [
              86.9405073076547,
              27.897460031326794
            ],
            [
              86.93989764754473,
              27.897459766835823
            ],
            [
              86.9398974979303,
              27.89773058964309
            ],
            [
              86.93806851309981,
              27.897729779964575
            ],
            [
              86.93806835893093,
              27.898000602753875
            ],
            [
              86.93623936961785,
              27.897999768793895
            ],
            [
              86.93623921089451,
              27.89827059156523
            ],
            [
              86.93441021710781,
              27.89826973332379
            ],
            [
              86.93441005383002,
              27.898540556068173
            ],
            [
              86.9325810555787,
              27.898539673554254
            ],
            [
              86.93258088773747,
              27.89881049628067
            ],
            [
              86.93075188501253,
              27.898809589476308
            ],
            [
              86.93075171262582,
              27.89908041218476
            ],
            [
              86.92892270543625,
              27.899079481098934
            ],
            [
              86.92892252848611,
              27.89935030378942
            ],
            [
              86.92709351683192,
              27.89934934842213
            ],
            [
              86.92709333532731,
              27.899620171085665
            ],
            [
              86.9252643192085,
              27.899619191436916
            ],
            [
              86.92526413314943,
              27.899890014082484
            ],
            [
              86.92373994932689,
              27.899889179152325
            ],
            [
              86.92373975946795,
              27.90016000177993
            ],
            [
              86.92191073441988,
              27.900158977610673
            ],
            [
              86.92191054000648,
              27.900429800211327
            ],
            [
              86.92008151049379,
              27.900428751751626
            ],
            [
              86.92008131152593,
              27.90069957433431
            ],
            [
              86.91825227756657,
              27.900698501593148
            ],
            [
              86.91825207404426,
              27.900969324148885
            ],
            [
              86.91642303562925,
              27.90096822711728
            ],
            [
              86.9164228275435,
              27.90123904965505
            ],
            [
              86.91581314657464,
              27.901238678578974
            ]
          ],
          [
            [
              86.91733796642235,
              27.900427133562406
            ],
            [
              86.9173381722174,
              27.900156310988702
            ],
            [
              86.91764300967901,
              27.90015649348145
            ],
            [
              86.91764280463855,
              27.900427316055154
            ],
            [
              86.91733796642235,
              27.900427133562406
            ]
          ],
          [
            [
              86.92892571315753,
              27.89447549382458
            ],
            [
              86.92892589005376,
              27.894204670945445
            ],
            [
              86.92923071092349,
              27.894204827782314
            ],
            [
              86.92923053478182,
              27.894475650661445
            ],
            [
              86.92892571315753,
              27.89447549382458
            ]
          ],
          [
            [
              86.93075309168351,
              27.896913830229693
            ],
            [
              86.93075429823772,
              27.895018070471036
            ],
            [
              86.93288806039659,
              27.895019125874715
            ],
            [
              86.93288689102366,
              27.896914885723202
            ],
            [
              86.93075309168351,
              27.896913830229693
            ]
          ],
          [
            [
              86.93075447059748,
              27.894747247600886
            ],
            [
              86.93075464294824,
              27.894476424721756
            ],
            [
              86.93105946459052,
              27.894476577516205
            ],
            [
              86.93105929299433,
              27.894747400395335
            ],
            [
              86.93075447059748,
              27.894747247600886
            ]
          ],
          [
            [
              86.93075481529901,
              27.894205601833644
            ],
            [
              86.93075498764979,
              27.893934778936547
            ],
            [
              86.9310598077739,
              27.89393493172201
            ],
            [
              86.9310596361867,
              27.89420575462809
            ],
            [
              86.93075481529901,
              27.894205601833644
            ]
          ],
          [
            [
              86.93227908828833,
              27.893935536135483
            ],
            [
              86.93227925683922,
              27.89366471322042
            ],
            [
              86.93258407621774,
              27.893664862637202
            ],
            [
              86.93258390842142,
              27.893935685552265
            ],
            [
              86.93227908828833,
              27.893935536135483
            ]
          ],
          [
            [
              86.94142427648265,
              27.89285643351703
            ],
            [
              86.94142442226125,
              27.892585610512132
            ],
            [
              86.94172923866634,
              27.892585739698855
            ],
            [
              86.94172909364232,
              27.89285656270375
            ],
            [
              86.94142427648265,
              27.89285643351703
            ]
          ],
          [
            [
              86.9417285135193,
              27.893939854633498
            ],
            [
              86.94172865856127,
              27.893669031673518
            ],
            [
              86.94203347800267,
              27.8936691601865
            ],
            [
              86.94203333372425,
              27.893939983155466
            ],
            [
              86.9417285135193,
              27.893939854633498
            ]
          ],
          [
            [
              86.94294850432263,
              27.892586249708373
            ],
            [
              86.94294864631034,
              27.892315426685514
            ],
            [
              86.94325346196983,
              27.89231555250355
            ],
            [
              86.94325360319398,
              27.892044729462725
            ],
            [
              86.94355841809887,
              27.892044854607025
            ],
            [
              86.94355813715976,
              27.892586500670713
            ],
            [
              86.94294850432263,
              27.892586249708373
            ]
          ],
          [
            [
              86.94386309328881,
              27.892315802109437
            ],
            [
              86.94386323300378,
              27.892044979068608
            ],
            [
              86.94416804790869,
              27.89204510286544
            ],
            [
              86.94416790895728,
              27.892315925906267
            ],
            [
              86.94386309328881,
              27.892315802109437
            ]
          ],
          [
            [
              86.91977926846266,
              27.896907880202473
            ],
            [
              86.91977946814917,
              27.89663705748504
            ],
            [
              86.92008429576524,
              27.89663723456095
            ],
            [
              86.92008409683332,
              27.896908057287366
            ],
            [
              86.91977926846266,
              27.896907880202473
            ]
          ],
          [
            [
              86.91977926846266,
              27.896907880202473
            ],
            [
              86.91977906876718,
              27.89717870291991
            ],
            [
              86.91947423963296,
              27.897178525170265
            ],
            [
              86.91947444008304,
              27.89690770245283
            ],
            [
              86.91977926846266,
              27.896907880202473
            ]
          ]
        ]
      },
      "id": "+7142+1953",
      "properties": {
        "area_m2": 1644553.680245228,
        "count": 1823,
        "water": 1
      }
    }
  ]
}
