{
  "type": "FeatureCollection",
  "features": [
    {
      "type": "Feature",
      "geometry": {
        "geodesic": false,
        "type": "MultiPolygon",
        "coordinates": [
          [
            [
              [
                86.92953518101905,
                27.894746629685738
              ],
              [
                86.9298400034159,
                27.89474678517513
              ],
              [
                86.92983982878341,
                27.895017608036294
              ],
              [
                86.92953500563198,
                27.895017452546902
              ],
              [
                86.92953518101905,
                27.894746629685738
              ]
            ]
          ],
          [
            [
              [
                86.92953518101905,
                27.894746629685738
              ],
              [
                86.9289255362523,
                27.89474631668574
              ],
              [
                86.92892535933808,
                27.895017139546905
              ],
              [
                86.92923018248952,
                27.895017296383774
              ],
              [
                86.92923000633887,
                27.89528811922697
              ],
              [
                86.92983965415092,
                27.895288430888474
              ],
              [
                86.92983895558503,
                27.89637172218042
              ],
              [
                86.92770516704263,
                27.896370619525356
              ],
              [
                86.92770498708312,
                27.896641442314657
              ],
              [
                86.92740015940417,
                27.896641282091142
              ],
              [
                86.92739889431574,
                27.898537041274878
              ],
              [
                86.92770372731272,
                27.898537201507374
              ],
              [
                86.92770354733526,
                27.89880802420684
              ],
              [
                86.92617937858645,
                27.898807216289025
              ],
              [
                86.92617919480911,
                27.899078038970526
              ],
              [
                86.92587436031195,
                27.899077875360362
              ],
              [
                86.92587325305752,
                27.900702811206827
              ],
              [
                86.92495873591164,
                27.900702316297988
              ],
              [
                86.92495985682945,
                27.899077380487455
              ],
              [
                86.92374051887674,
                27.899076711224602
              ],
              [
                86.9237407087267,
                27.898805888561068
              ],
              [
                86.92069237163334,
                27.898804168224416
              ],
              [
                86.92069197676088,
                27.89934581350657
              ],
              [
                86.91855813034003,
                27.899344569124306
              ],
              [
                86.91855792759027,
                27.899615391733942
              ],
              [
                86.91794825568542,
                27.89961503012611
              ],
              [
                86.9179480514175,
                27.89988585271778
              ],
              [
                86.91764321471048,
                27.899885670898765
              ],
              [
                86.91764280463855,
                27.900427316055154
              ],
              [
                86.91672828998999,
                27.900426766546712
              ],
              [
                86.91672932652905,
                27.899072653615313
              ],
              [
                86.91642449211274,
                27.899072469101355
              ],
              [
                86.91642490823034,
                27.898530823864114
              ],
              [
                86.91429107802408,
                27.898529513455678
              ],
              [
                86.91429129138294,
                27.898258690828076
              ],
              [
                86.91459612350855,
                27.898258880049205
              ],
              [
                86.91459633610384,
                27.897988057421603
              ],
              [
                86.91520599883691,
                27.897988433833675
              ],
              [
                86.91520620992303,
                27.89771761117912
              ],
              [
                86.9164255323798,
                27.897718355918425
              ],
              [
                86.91642574042064,
                27.89744753324591
              ],
              [
                86.91734023002417,
                27.89744808471268
              ],
              [
                86.9173406415424,
                27.89690643933171
              ],
              [
                86.91795029825674,
                27.896906803589573
              ],
              [
                86.9179505024977,
                27.896635980881122
              ],
              [
                86.91825533010478,
                27.89663616199945
              ],
              [
                86.91825573705957,
                27.896094516537634
              ],
              [
                86.91947504141528,
                27.89609523425561
              ],
              [
                86.9194748409742,
                27.896366056999994
              ],
              [
                86.92069414842011,
                27.89636676393819
              ],
              [
                86.9206943458249,
                27.896095941193806
              ],
              [
                86.920389519718,
                27.896095765465372
              ],
              [
                86.92038971788635,
                27.895824942712004
              ],
              [
                86.9216090192866,
                27.895825641547397
              ],
              [
                86.92160882416356,
                27.896096464309746
              ],
              [
                86.92374260703758,
                27.89609766133283
              ],
              [
                86.9237427968516,
                27.895826838552512
              ],
              [
                86.92465727298938,
                27.89582734143839
              ],
              [
                86.92465746052167,
                27.89555651864011
              ],
              [
                86.92587675904731,
                27.89555717971931
              ],
              [
                86.92587694354332,
                27.895286356903064
              ],
              [
                86.92801071074173,
                27.89528748781912
              ],
              [
                86.92801088992869,
                27.895016664984908
              ],
              [
                86.92770606679521,
                27.895016505444115
              ],
              [
                86.92770624673675,
                27.894745682600917
              ],
              [
                86.92801106910665,
                27.89474584213273
              ],
              [
                86.92801142747157,
                27.894204196401414
              ],
              [
                86.92923071092349,
                27.894204827782314
              ],
              [
                86.92923088706515,
                27.893934004885214
              ],
              [
                86.92953570718028,
                27.893934161048346
              ],
              [
                86.92953518101905,
                27.894746629685738
              ]
            ]
          ]
        ]
      },
      "id": "+4405+1861",
      "properties": {
        "area_m2": 453763.01423410885,
        "count": 503,
        "water": 1
      }
    }
  ]
}
