{
  "type": "FeatureCollection",
  "features": [
    {
      "type": "Feature",
      "geometry": {
        "geodesic": false,
        "type": "Polygon",
        "coordinates": [
          [
            [
              86.91612132815861,
              27.896905702713177
            ],
            [
              86.91612153695404,
              27.896634880013707
            ],
            [
              86.9170360197124,
              27.89663543348372
            ],
            [
              86.9170358131987,
              27.89690625618319
            ],
            [
              86.91764546990406,
              27.89690662179751
            ],
            [
              86.9176456748996,
              27.896635799089058
            ],
            [
              86.9173408473015,
              27.896635616623257
            ],
            [
              86.91734105306062,
              27.896364793905825
            ],
            [
              86.91825553358218,
              27.896365339273032
            ],
            [
              86.91825573705957,
              27.896094516537634
            ],
            [
              86.91947504141528,
              27.89609523425561
            ],
            [
              86.91947524185638,
              27.895824411502247
            ],
            [
              86.92069454322969,
              27.895825118431457
            ],
            [
              86.92069474063446,
              27.89555429565114
            ],
            [
              86.9219140390074,
              27.895554991782607
            ],
            [
              86.92191423337587,
              27.895284168993307
            ],
            [
              86.92252388106216,
              27.895284513012125
            ],
            [
              86.9225240739035,
              27.895013690204863
            ],
            [
              86.9240481893822,
              27.895014538439067
            ],
            [
              86.92404762223086,
              27.89582700685188
            ],
            [
              86.92435244761012,
              27.8958271744865
            ],
            [
              86.92435188270454,
              27.89663964280948
            ],
            [
              86.92404705504357,
              27.896639475174865
            ],
            [
              86.92404535336492,
              27.899076879550922
            ],
            [
              86.9255695258148,
              27.899077711076465
            ],
            [
              86.92556878462383,
              27.900161001676704
            ],
            [
              86.92526394709037,
              27.900160836710086
            ],
            [
              86.92526376102232,
              27.900431659328707
            ],
            [
              86.92434924616715,
              27.900431160386432
            ],
            [
              86.92434905782638,
              27.90070198299607
            ],
            [
              86.92160550657741,
              27.90070044974256
            ],
            [
              86.92160531140044,
              27.90097127231626
            ],
            [
              86.92008111255808,
              27.900970396899034
            ],
            [
              86.92008091358124,
              27.90124121945477
            ],
            [
              86.91916639203363,
              27.90124068610702
            ],
            [
              86.9191665932832,
              27.900969863551282
            ],
            [
              86.91855691378758,
              27.900969504620427
            ],
            [
              86.91855671101985,
              27.90124032716718
            ],
            [
              86.91794703001506,
              27.901239965532397
            ],
            [
              86.9179484599623,
              27.899344207525456
            ],
            [
              86.91764362477345,
              27.89934402570644
            ],
            [
              86.91764382979595,
              27.899073203096805
            ],
            [
              86.91733899537066,
              27.899073020604057
            ],
            [
              86.91733940693379,
              27.898531375348853
            ],
            [
              86.91672974112849,
              27.89853100836909
            ],
            [
              86.91672994842374,
              27.898260185723522
            ],
            [
              86.91642511628017,
              27.89826000122753
            ],
            [
              86.91642532432998,
              27.897989178572978
            ],
            [
              86.91581566157895,
              27.8979888075508
            ],
            [
              86.91581649981491,
              27.896905516869708
            ],
            [
              86.91612132815861,
              27.896905702713177
            ]
          ],
          [
            [
              86.91612132815861,
              27.896905702713177
            ],
            [
              86.91673098484601,
              27.896906072369916
            ],
            [
              86.91673077756874,
              27.8971768950604
            ],
            [
              86.91612111936318,
              27.89717652540366
            ],
            [
              86.91612132815861,
              27.896905702713177
            ]
          ],
          [
            [
              86.92282524693044,
              27.900159492731607
            ],
            [
              86.92282543906212,
              27.899888670112986
            ],
            [
              86.92313027581405,
              27.899888840469497
            ],
            [
              86.92313008444594,
              27.900159663088118
            ],
            [
              86.92282524693044,
              27.900159492731607
            ]
          ]
        ]
      },
      "id": "+4407+1827",
      "properties": {
        "area_m2": 421286.8439891,
        "count": 467,
        "water": 1
      }
    }
  ]
}
