{
  "type": "FeatureCollection",
  "features": [
    {
      "type": "Feature",
      "geometry": {
        "geodesic": false,
        "type": "Polygon",
        "coordinates": [
          [
            [
              86.92191151203752,
              27.899075687100265
            ],
            [
              86.92191287277856,
              27.897179928311786
            ],
            [
              86.92221770193075,
              27.89718010067154
            ],
            [
              86.92221828278142,
              27.896367632447376
            ],
            [
              86.92282793654928,
              27.896367975136688
            ],
            [
              86.92282716813938,
              27.897451266087273
            ],
            [
              86.92313199806411,
              27.89745143642582
            ],
            [
              86.92313180671397,
              27.89772225914325
            ],
            [
              86.92252214535533,
              27.897721917783443
            ],
            [
              86.92252195248705,
              27.89799274048291
            ],
            [
              86.92282678392094,
              27.897992911504176
            ],
            [
              86.92282639969353,
              27.898534556867176
            ],
            [
              86.92252156673248,
              27.898534385854898
            ],
            [
              86.92252118097794,
              27.899076031172985
            ],
            [
              86.92191151203752,
              27.899075687100265
            ]
          ]
        ]
      },
      "id": "+4173+2162",
      "properties": {
        "area_m2": 22552.832586439796,
        "count": 25,
        "water": 1
      }
    }
  ]
}
