{
  "type": "FeatureCollection",
  "features": [
    {
      "type": "Feature",
      "geometry": {
        "geodesic": false,
        "type": "MultiPolygon",
        "coordinates": [
          [
            [
              [
                86.9197798675132,
                27.896095412005256
              ],
              [
                86.9209991719318,
                27.896096116239523
              ],
              [
                86.92099936858199,
                27.895825293477174
              ],
              [
                86.9216090192866,
                27.895825641547397
              ],
              [
                86.92160921440967,
                27.89555481876708
              ],
              [
                86.9219140390074,
                27.895554991782607
              ],
              [
                86.92191306715603,
                27.896909105585372
              ],
              [
                86.92221789555363,
                27.896909277936143
              ],
              [
                86.92221770193075,
                27.89718010067154
              ],
              [
                86.9228273602441,
                27.897180443360856
              ],
              [
                86.92282755234882,
                27.89690962063444
              ],
              [
                86.92252272395122,
                27.896909449622157
              ],
              [
                86.92252291681054,
                27.896638626877774
              ],
              [
                86.92374222739157,
                27.89663930686651
              ],
              [
                86.92374089856767,
                27.89853506588855
              ],
              [
                86.92404573152871,
                27.89853523421487
              ],
              [
                86.92404535336492,
                27.899076879550922
              ],
              [
                86.92495985682945,
                27.899077380487455
              ],
              [
                86.92495948320216,
                27.899619025805542
              ],
              [
                86.92404497518318,
                27.899618524851043
              ],
              [
                86.9240447860878,
                27.899889347487626
              ],
              [
                86.92373994932689,
                27.899889179152325
              ],
              [
                86.92374013917684,
                27.899618356524723
              ],
              [
                86.92313046719113,
                27.899618017841895
              ],
              [
                86.92313065855924,
                27.899347195196327
              ],
              [
                86.92282582332547,
                27.8993470248488
              ],
              [
                86.92282620757084,
                27.898805379539695
              ],
              [
                86.92099720533099,
                27.898804343297083
              ],
              [
                86.92099700865384,
                27.89907516594265
              ],
              [
                86.9206921742016,
                27.899074990869988
              ],
              [
                86.92069197676088,
                27.89934581350657
              ],
              [
                86.92008230634723,
                27.89934546134003
              ],
              [
                86.92008350002858,
                27.897720525394753
              ],
              [
                86.9197786693762,
                27.897720348318845
              ],
              [
                86.91977906876718,
                27.89717870291991
              ],
              [
                86.9188645813825,
                27.89717816764078
              ],
              [
                86.9188651872692,
                27.896365699488477
              ],
              [
                86.91977966783568,
                27.89636623474964
              ],
              [
                86.9197798675132,
                27.896095412005256
              ]
            ],
            [
              [
                86.92252195248705,
                27.89799274048291
              ],
              [
                86.92252214535533,
                27.897721917783443
              ],
              [
                86.92282697603466,
                27.897722088795724
              ],
              [
                86.92282678392094,
                27.897992911504176
              ],
              [
                86.92252195248705,
                27.89799274048291
              ]
            ],
            [
              [
                86.92313084991837,
                27.89907637255076
              ],
              [
                86.92313123264559,
                27.898534727214706
              ],
              [
                86.92343606560662,
                27.898534896888496
              ],
              [
                86.92343568439756,
                27.89907654222455
              ],
              [
                86.92313084991837,
                27.89907637255076
              ]
            ]
          ],
          [
            [
              [
                86.9197798675132,
                27.896095412005256
              ],
              [
                86.91947504141528,
                27.89609523425561
              ],
              [
                86.91947524185638,
                27.895824411502247
              ],
              [
                86.91978006719971,
                27.895824589242906
              ],
              [
                86.9197798675132,
                27.896095412005256
              ]
            ]
          ]
        ]
      },
      "id": "+4100+2165",
      "properties": {
        "area_m2": 130806.42555785754,
        "count": 145,
        "water": 1
      }
    }
  ]
}
