{
  "type": "FeatureCollection",
  "features": [
    {
      "type": "Feature",
      "geometry": {
        "geodesic": false,
        "type": "MultiPolygon",
        "coordinates": [
          [
            [
              [
                86.91703209538615,
                27.901781063066807
              ],
              [
                86.9173369374022,
                27.90178124625126
              ],
              [
                86.91733673158919,
                27.902052068753097
              ],
              [
                86.91703188881854,
                27.902051885568646
              ],
              [
                86.91703209538615,
                27.901781063066807
              ]
            ]
          ],
          [
            [
              [
                86.91703209538615,
                27.901781063066807
              ],
              [
                86.916422411372,
                27.901780694685677
              ],
              [
                86.9164219951915,
                27.902322339671386
              ],
              [
                86.91520262112653,
                27.90232159478835
              ],
              [
                86.91520283225756,
                27.902050772313462
              ],
              [
                86.9148979895049,
                27.902050584412855
              ],
              [
                86.91489841326715,
                27.90150893941816
              ],
              [
                86.91459357204161,
                27.901508750843817
              ],
              [
                86.91459378468183,
                27.901237928341978
              ],
              [
                86.91428894421087,
                27.901237739093897
              ],
              [
                86.91428937100046,
                27.90069609405429
              ],
              [
                86.913374854169,
                27.900695522285595
              ],
              [
                86.91337506983653,
                27.900424699756805
              ],
              [
                86.91398474619704,
                27.900425081603682
              ],
              [
                86.91398603102145,
                27.898800146170444
              ],
              [
                86.91429086465624,
                27.898800336065314
              ],
              [
                86.91429107802408,
                27.898529513455678
              ],
              [
                86.91703457402666,
                27.89853119219135
              ],
              [
                86.9170347805673,
                27.898260369554762
              ],
              [
                86.91733961271088,
                27.898260552712266
              ],
              [
                86.91734002425606,
                27.897718907385197
              ],
              [
                86.92099799200365,
                27.897721052598026
              ],
              [
                86.92099818867182,
                27.89745022989856
              ],
              [
                86.92191267839212,
                27.897450751029222
              ],
              [
                86.92191306715603,
                27.896909105585372
              ],
              [
                86.92374203756857,
                27.896910129610895
              ],
              [
                86.92374222739157,
                27.89663930686651
              ],
              [
                86.92404705504357,
                27.896639475174865
              ],
              [
                86.92404724411199,
                27.896368652412516
              ],
              [
                86.92557137861701,
                27.89636948383924
              ],
              [
                86.92557156388555,
                27.896098661058925
              ],
              [
                86.92679086850178,
                27.896099314062273
              ],
              [
                86.92679013956385,
                27.897182605156587
              ],
              [
                86.9255708228024,
                27.897181952126292
              ],
              [
                86.92556934051929,
                27.89934853374
              ],
              [
                86.92861769320741,
                27.899350146242885
              ],
              [
                86.9286175154937,
                27.8996209689154
              ],
              [
                86.92770300738488,
                27.899620492242363
              ],
              [
                86.92770282739843,
                27.899891314896916
              ],
              [
                86.92739799061057,
                27.899891154655435
              ],
              [
                86.92739780986055,
                27.900161977301003
              ],
              [
                86.92617845969076,
                27.90016132957975
              ],
              [
                86.92617809210913,
                27.900702974825972
              ],
              [
                86.92587325305752,
                27.900702811206827
              ],
              [
                86.92587343760741,
                27.900431988588206
              ],
              [
                86.9246540844552,
                27.90043132737426
              ],
              [
                86.92465370928281,
                27.900972972584547
              ],
              [
                86.9240440296794,
                27.90097263791719
              ],
              [
                86.92404421878373,
                27.90070181532552
              ],
              [
                86.92160550657741,
                27.90070044974256
              ],
              [
                86.92160511622349,
                27.90124209488098
              ],
              [
                86.9209954351558,
                27.90124174672991
              ],
              [
                86.92099563185093,
                27.90097092417417
              ],
              [
                86.92008111255808,
                27.900970396899034
              ],
              [
                86.92008091358124,
                27.90124121945477
              ],
              [
                86.9194712325495,
                27.901240864566333
              ],
              [
                86.91947103205452,
                27.901511687104104
              ],
              [
                86.91886134951359,
                27.901511329511738
              ],
              [
                86.91886155152675,
                27.90124050697397
              ],
              [
                86.91794703001506,
                27.901239965532397
              ],
              [
                86.9179468257202,
                27.90151078807017
              ],
              [
                86.91703230195374,
                27.901510240555986
              ],
              [
                86.91703209538615,
                27.901781063066807
              ]
            ]
          ]
        ]
      },
      "id": "+4366+1823",
      "properties": {
        "area_m2": 498868.46786782856,
        "count": 553,
        "water": 1
      }
    }
  ]
}
