{
  "type": "FeatureCollection",
  "features": [
    {
      "type": "Feature",
      "geometry": {
        "geodesic": false,
        "type": "MultiPolygon",
        "coordinates": [
          [
            [
              [
                86.92038654695018,
                27.900158105589078
              ],
              [
                86.92069138443874,
                27.900158281344464
              ],
              [
                86.92069118698903,
                27.900429103936133
              ],
              [
                86.9203863487459,
                27.900428928180748
              ],
              [
                86.92038654695018,
                27.900158105589078
              ]
            ]
          ],
          [
            [
              [
                86.92252098809169,
                27.899346853818553
              ],
              [
                86.92343549379302,
                27.8993473648791
              ],
              [
                86.9234353031795,
                27.899618187515685
              ],
              [
                86.92252079520543,
                27.899617676455136
              ],
              [
                86.92252098809169,
                27.899346853818553
              ]
            ]
          ],
          [
            [
              [
                86.92709406132775,
                27.898536880368642
              ],
              [
                86.92709369832754,
                27.899078525749612
              ],
              [
                86.92678886382139,
                27.89907836416066
              ],
              [
                86.92678922833079,
                27.898536718788673
              ],
              [
                86.92709406132775,
                27.898536880368642
              ]
            ]
          ],
          [
            [
              [
                86.91947444008304,
                27.89690770245283
              ],
              [
                86.91947403918289,
                27.89744934786973
              ],
              [
                86.91916920929408,
                27.897449169437365
              ],
              [
                86.91916961171239,
                27.896907524029448
              ],
              [
                86.91947444008304,
                27.89690770245283
              ]
            ]
          ],
          [
            [
              [
                86.91947403918289,
                27.89744934786973
              ],
              [
                86.91977886907169,
                27.897449525619376
              ],
              [
                86.91977926846266,
                27.896907880202473
              ],
              [
                86.91947444008304,
                27.89690770245283
              ],
              [
                86.91947464053311,
                27.896636879735397
              ],
              [
                86.92008429576524,
                27.89663723456095
              ],
              [
                86.92008409683332,
                27.896908057287366
              ],
              [
                86.92038892521295,
                27.896908233680556
              ],
              [
                86.92038912339028,
                27.89663741095414
              ],
              [
                86.92069395100634,
                27.896637586682573
              ],
              [
                86.92069375360157,
                27.89690840940899
              ],
              [
                86.92130341036982,
                27.896908758844653
              ],
              [
                86.92130360626543,
                27.896637936109254
              ],
              [
                86.92099877864038,
                27.896637761737274
              ],
              [
                86.92099897529057,
                27.89636693899289
              ],
              [
                86.92191345590197,
                27.896367460096602
              ],
              [
                86.92191326153349,
                27.896638282840986
              ],
              [
                86.92221808916752,
                27.89663845520074
              ],
              [
                86.92221828278142,
                27.896367632447376
              ],
              [
                86.92282793654928,
                27.896367975136688
              ],
              [
                86.92282774445354,
                27.896638797890056
              ],
              [
                86.92313257209656,
                27.896638968219616
              ],
              [
                86.92313276343772,
                27.89636814546625
              ],
              [
                86.92374241721457,
                27.896368484104162
              ],
              [
                86.92374222739157,
                27.89663930686651
              ],
              [
                86.92404705504357,
                27.896639475174865
              ],
              [
                86.92404724411199,
                27.896368652412516
              ],
              [
                86.92526655171062,
                27.896369318899573
              ],
              [
                86.92526673773375,
                27.896098496119258
              ],
              [
                86.92648604234996,
                27.89609915181755
              ],
              [
                86.92648622533679,
                27.895828329019267
              ],
              [
                86.92801035235885,
                27.895829133469586
              ],
              [
                86.92800891873749,
                27.897995715631268
              ],
              [
                86.92770408725868,
                27.89799555608149
              ],
              [
                86.92770444719564,
                27.897453910601705
              ],
              [
                86.92739961723497,
                27.89745375037819
              ],
              [
                86.92739889431574,
                27.898537041274878
              ],
              [
                86.92709406132775,
                27.898536880368642
              ],
              [
                86.92709424281439,
                27.89826605766019
              ],
              [
                86.926789410581,
                27.898265896080222
              ],
              [
                86.9267895928312,
                27.89799507336279
              ],
              [
                86.92557026696981,
                27.897994420314525
              ],
              [
                86.9255698963968,
                27.89853606571346
              ],
              [
                86.92496023043878,
                27.898535735133436
              ],
              [
                86.92496041724344,
                27.89826491244295
              ],
              [
                86.92465558503699,
                27.898264746146825
              ],
              [
                86.92465539746875,
                27.89853556883731
              ],
              [
                86.92435056449874,
                27.898535401858467
              ],
              [
                86.92435018784411,
                27.8990770472035
              ],
              [
                86.92404535336492,
                27.899076879550922
              ],
              [
                86.92404516426956,
                27.899347702214456
              ],
              [
                86.92374032903578,
                27.899347533879155
              ],
              [
                86.92374051887674,
                27.899076711224602
              ],
              [
                86.92343568439756,
                27.89907654222455
              ],
              [
                86.9234358750021,
                27.898805719561015
              ],
              [
                86.92313104128647,
                27.89880554988722
              ],
              [
                86.92313084991837,
                27.89907637255076
              ],
              [
                86.92252118097794,
                27.899076031172985
              ],
              [
                86.92252098809169,
                27.899346853818553
              ],
              [
                86.9222161528669,
                27.899346682123554
              ],
              [
                86.92221595921707,
                27.899617504751156
              ],
              [
                86.92191112323768,
                27.899617332373435
              ],
              [
                86.92191092882429,
                27.899888155001037
              ],
              [
                86.92160609209033,
                27.899887981949583
              ],
              [
                86.92160589692234,
                27.900158804550234
              ],
              [
                86.92130105942482,
                27.90015863082504
              ],
              [
                86.92130125534737,
                27.899887808215404
              ],
              [
                86.92038674515447,
                27.899887282988423
              ],
              [
                86.92038694335875,
                27.899616460378788
              ],
              [
                86.92099661529954,
                27.899616811197856
              ],
              [
                86.92099700865384,
                27.89907516594265
              ],
              [
                86.92130184311507,
                27.899075340332598
              ],
              [
                86.92130203902865,
                27.89880451768703
              ],
              [
                86.92069237163334,
                27.898804168224416
              ],
              [
                86.9206921742016,
                27.899074990869988
              ],
              [
                86.92038733974935,
                27.899074815123583
              ],
              [
                86.92038714155406,
                27.89934563776017
              ],
              [
                86.91977747114039,
                27.899345284246156
              ],
              [
                86.91977826997625,
                27.89826199366388
              ],
              [
                86.91947343780572,
                27.89826181590525
              ],
              [
                86.91947403918289,
                27.89744934786973
              ]
            ],
            [
              [
                86.92191326153349,
                27.896638282840986
              ],
              [
                86.92191306715603,
                27.896909105585372
              ],
              [
                86.92160823875842,
                27.89690893255188
              ],
              [
                86.92160843389945,
                27.89663810981648
              ],
              [
                86.92191326153349,
                27.896638282840986
              ]
            ],
            [
              [
                86.92374222739157,
                27.89663930686651
              ],
              [
                86.92374203756857,
                27.896910129610895
              ],
              [
                86.92343720916199,
                27.896909960628808
              ],
              [
                86.92343739973957,
                27.89663913787544
              ],
              [
                86.92374222739157,
                27.89663930686651
              ]
            ],
            [
              [
                86.92252253108293,
                27.89718027235756
              ],
              [
                86.92252272395122,
                27.896909449622157
              ],
              [
                86.92282755234882,
                27.89690962063444
              ],
              [
                86.9228273602441,
                27.897180443360856
              ],
              [
                86.92252253108293,
                27.89718027235756
              ]
            ],
            [
              [
                86.92465577259624,
                27.897993923438374
              ],
              [
                86.924656335265,
                27.897181455268107
              ],
              [
                86.92496116444413,
                27.897181621564233
              ],
              [
                86.92496060404811,
                27.897994089743484
              ],
              [
                86.92465577259624,
                27.897993923438374
              ]
            ]
          ],
          [
            [
              [
                86.92038674515447,
                27.899887282988423
              ],
              [
                86.92038654695018,
                27.900158105589078
              ],
              [
                86.91977687198207,
                27.900157752066082
              ],
              [
                86.91977727141796,
                27.899616106864773
              ],
              [
                86.92008210738835,
                27.89961628395865
              ],
              [
                86.92008190842948,
                27.899887106568286
              ],
              [
                86.92038674515447,
                27.899887282988423
              ]
            ]
          ],
          [
            [
              [
                86.92465539746875,
                27.89853556883731
              ],
              [
                86.92496023043878,
                27.898535735133436
              ],
              [
                86.92496004363412,
                27.89880655782392
              ],
              [
                86.92465520990052,
                27.898806391518814
              ],
              [
                86.92465539746875,
                27.89853556883731
              ]
            ]
          ]
        ]
      },
      "id": "+4510+1824",
      "properties": {
        "area_m2": 233647.35426641253,
        "count": 259,
        "water": 1
      }
    }
  ]
}
