{
  "type": "FeatureCollection",
  "features": [
    {
      "type": "Feature",
      "geometry": {
        "geodesic": false,
        "type": "Polygon",
        "coordinates": [
          [
            [
              86.9209991719318,
              27.896096116239523
            ],
            [
              86.92099936858199,
              27.895825293477174
            ],
            [
              86.9219138446479,
              27.895825814562922
            ],
            [
              86.92191365027942,
              27.896096637334253
            ],
            [
              86.92252330252016,
              27.89609698136206
            ],
            [
              86.92252349537048,
              27.895826158590726
            ],
            [
              86.92282832073178,
              27.895826329594023
            ],
            [
              86.92282793654928,
              27.896367975136688
            ],
            [
              86.92587620553239,
              27.896369648105175
            ],
            [
              86.92587639003736,
              27.896098825315875
            ],
            [
              86.92709569466257,
              27.896099475624275
            ],
            [
              86.92709533171625,
              27.89664112119389
            ],
            [
              86.93014360864046,
              27.896642699812322
            ],
            [
              86.93014326086669,
              27.897184345372956
            ],
            [
              86.92770462716412,
              27.89718308784834
            ],
            [
              86.92770336735778,
              27.899078846897325
            ],
            [
              86.92953237448447,
              27.89907979416181
            ],
            [
              86.92953219906147,
              27.899350616852296
            ],
            [
              86.92739835210162,
              27.89934950933735
            ],
            [
              86.92739817135161,
              27.899620332000882
            ],
            [
              86.92404497518318,
              27.899618524851043
            ],
            [
              86.9240447860878,
              27.899889347487626
            ],
            [
              86.92191092882429,
              27.899888155001037
            ],
            [
              86.92191073441988,
              27.900158977610673
            ],
            [
              86.92160589692234,
              27.900158804550234
            ],
            [
              86.9216068727353,
              27.89880469140324
            ],
            [
              86.92130203902865,
              27.89880451768703
            ],
            [
              86.9213024308558,
              27.898262872359957
            ],
            [
              86.9216072630443,
              27.898263046076167
            ],
            [
              86.92160882416356,
              27.896096464309746
            ],
            [
              86.9209991719318,
              27.896096116239523
            ]
          ]
        ]
      },
      "id": "+4563+1844",
      "properties": {
        "area_m2": 254395.96188002673,
        "count": 282,
        "water": 1
      }
    }
  ]
}
