{
  "type": "FeatureCollection",
  "features": [
    {
      "type": "Feature",
      "geometry": {
        "geodesic": false,
        "type": "Polygon",
        "coordinates": [
          [
            [
              86.91886215754819,
              27.900428039297775
            ],
            [
              86.91886256154753,
              27.899886394132402
            ],
            [
              86.9197770717045,
              27.899886929465428
            ],
            [
              86.91977767085385,
              27.899074461618554
            ],
            [
              86.92008250529712,
              27.899074638712428
            ],
            [
              86.92008310214678,
              27.898262170757757
            ],
            [
              86.92038793431729,
              27.89826234716891
            ],
            [
              86.92038852886726,
              27.89744987910644
            ],
            [
              86.92069335876505,
              27.89745005484386
            ],
            [
              86.92069355617882,
              27.897179232135407
            ],
            [
              86.92191287277856,
              27.897179928311786
            ],
            [
              86.92191306715603,
              27.896909105585372
            ],
            [
              86.92252272395122,
              27.896909449622157
            ],
            [
              86.92252291681054,
              27.896638626877774
            ],
            [
              86.92374222739157,
              27.89663930686651
            ],
            [
              86.92374241721457,
              27.896368484104162
            ],
            [
              86.92526655171062,
              27.896369318899573
            ],
            [
              86.92526673773375,
              27.896098496119258
            ],
            [
              86.92648604234996,
              27.89609915181755
            ],
            [
              86.92648622533679,
              27.895828329019267
            ],
            [
              86.9316682574759,
              27.895830995380727
            ],
            [
              86.93166842755393,
              27.89556017253753
            ],
            [
              86.93471667449238,
              27.895561649960744
            ],
            [
              86.93471683698863,
              27.89529082709958
            ],
            [
              86.93532648488153,
              27.895291114488604
            ],
            [
              86.93532616292532,
              27.895832760219918
            ],
            [
              86.93593581386351,
              27.89583304492298
            ],
            [
              86.93593565440356,
              27.89610386777516
            ],
            [
              86.93624048063622,
              27.896104009116087
            ],
            [
              86.93624032192187,
              27.896374831959285
            ],
            [
              86.9365451489181,
              27.896374972626475
            ],
            [
              86.93654483300757,
              27.896916618285925
            ],
            [
              86.93684966152195,
              27.896916758279378
            ],
            [
              86.93684950432575,
              27.897187581095626
            ],
            [
              86.93715433359472,
              27.897187720424327
            ],
            [
              86.93715386426092,
              27.89800018881019
            ],
            [
              86.93684903271023,
              27.898000049472508
            ],
            [
              86.93684856108572,
              27.898812517759556
            ],
            [
              86.9365437272623,
              27.898812377748136
            ],
            [
              86.93654309536038,
              27.89989566864482
            ],
            [
              86.93623825850065,
              27.89989552795068
            ],
            [
              86.93623841723296,
              27.899624705242232
            ],
            [
              86.93593358113681,
              27.899624563883336
            ],
            [
              86.93593342164093,
              27.899895386582806
            ],
            [
              86.93562858479018,
              27.899895244550176
            ],
            [
              86.93562842453073,
              27.90016606724066
            ],
            [
              86.93501874931108,
              27.900165781136224
            ],
            [
              86.9350190728573,
              27.899624135755257
            ],
            [
              86.93562874504065,
              27.899624421850707
            ],
            [
              86.93562906555056,
              27.89908277641584
            ],
            [
              86.9347145618345,
              27.89908234626655
            ],
            [
              86.93471472435769,
              27.898811523540132
            ],
            [
              86.93440989055225,
              27.898811378812557
            ],
            [
              86.93441054366339,
              27.89772808779909
            ],
            [
              86.9353250359888,
              27.89772851994264
            ],
            [
              86.93532519699386,
              27.897457697153342
            ],
            [
              86.9350203669703,
              27.89745755378222
            ],
            [
              86.93502052872095,
              27.89718673098394
            ],
            [
              86.93410604095898,
              27.897186296828163
            ],
            [
              86.93410620498236,
              27.896915474029882
            ],
            [
              86.93380137648595,
              27.896915327963814
            ],
            [
              86.93380121169899,
              27.8971861507621
            ],
            [
              86.93349638245698,
              27.897186004022295
            ],
            [
              86.93349605135593,
              27.89772764958293
            ],
            [
              86.9328863898266,
              27.897727354073133
            ],
            [
              86.93288555445628,
              27.8990814677681
            ],
            [
              86.93410489269645,
              27.89908205612868
            ],
            [
              86.93410456460475,
              27.899623701554564
            ],
            [
              86.93471423677013,
              27.899623991692433
            ],
            [
              86.93471407423795,
              27.899894814391903
            ],
            [
              86.93288505320534,
              27.899893935866505
            ],
            [
              86.93288522029198,
              27.89962311317602
            ],
            [
              86.93197071208435,
              27.899622664817876
            ],
            [
              86.93197088144373,
              27.89935184212739
            ],
            [
              86.92739835210162,
              27.89934950933735
            ],
            [
              86.92739817135161,
              27.899620332000882
            ],
            [
              86.92404497518318,
              27.899618524851043
            ],
            [
              86.9240447860878,
              27.899889347487626
            ],
            [
              86.92191092882429,
              27.899888155001037
            ],
            [
              86.92191073441988,
              27.900158977610673
            ],
            [
              86.9194720345025,
              27.900157574289487
            ],
            [
              86.91947183401649,
              27.900428396872172
            ],
            [
              86.91886215754819,
              27.900428039297775
            ]
          ],
          [
            [
              86.92892270543625,
              27.899079481098934
            ],
            [
              86.92892305931858,
              27.898537835699997
            ],
            [
              86.92953272533947,
              27.898538148753893
            ],
            [
              86.92953254991646,
              27.89880897146234
            ],
            [
              86.92922771614694,
              27.898808815272265
            ],
            [
              86.92922753996037,
              27.89907963797173
            ],
            [
              86.92892270543625,
              27.899079481098934
            ]
          ]
        ]
      },
      "id": "+4224+2166",
      "properties": {
        "area_m2": 615241.3871239101,
        "count": 682,
        "water": 1
      }
    }
  ]
}
