{
  "type": "FeatureCollection",
  "features": [
    {
      "type": "Feature",
      "geometry": {
        "geodesic": false,
        "type": "Polygon",
        "coordinates": [
          [
            [
              86.91428894421087,
              27.901237739093897
            ],
            [
              86.91428958438628,
              27.900425271516518
            ],
            [
              86.9145944225755,
              27.900425460755617
            ],
            [
              86.91459463520674,
              27.90015463819988
            ],
            [
              86.9148994726414,
              27.90015482676524
            ],
            [
              86.9149001082264,
              27.89934235904413
            ],
            [
              86.91581461371214,
              27.899342920670843
            ],
            [
              86.91581545201097,
              27.898259630196367
            ],
            [
              86.91612028414556,
              27.898259816048817
            ],
            [
              86.91612070176336,
              27.897718170748696
            ],
            [
              86.9164255323798,
              27.897718355918425
            ],
            [
              86.91642615650231,
              27.89690588787392
            ],
            [
              86.9173406415424,
              27.89690643933171
            ],
            [
              86.91734023002417,
              27.89744808471268
            ],
            [
              86.917645059895,
              27.89744826718746
            ],
            [
              86.91764423984094,
              27.89853155783262
            ],
            [
              86.91886357149646,
              27.89853228102134
            ],
            [
              86.91886336951026,
              27.898803103657922
            ],
            [
              86.92099720533099,
              27.898804343297083
            ],
            [
              86.92099877864038,
              27.896637761737274
            ],
            [
              86.92069395100634,
              27.896637586682573
            ],
            [
              86.92069414842011,
              27.89636676393819
            ],
            [
              86.92099897529057,
              27.89636693899289
            ],
            [
              86.92099936858199,
              27.895825293477174
            ],
            [
              86.9222186700092,
              27.895825986913692
            ],
            [
              86.9222188636141,
              27.895555164133377
            ],
            [
              86.9219140390074,
              27.895554991782607
            ],
            [
              86.92191423337587,
              27.895284168993307
            ],
            [
              86.92252388106216,
              27.895284513012125
            ],
            [
              86.9225240739035,
              27.895013690204863
            ],
            [
              86.92374336628467,
              27.8950143701397
            ],
            [
              86.92374317647065,
              27.89528519295595
            ],
            [
              86.92404800033175,
              27.89528536125532
            ],
            [
              86.92404781128131,
              27.89555618406258
            ],
            [
              86.92435263590598,
              27.895556351688214
            ],
            [
              86.92435320077561,
              27.894743883239467
            ],
            [
              86.9249628454705,
              27.89474421646054
            ],
            [
              86.92496228515533,
              27.895556684927254
            ],
            [
              86.92465746052167,
              27.89555651864011
            ],
            [
              86.92465520990052,
              27.898806391518814
            ],
            [
              86.92496004363412,
              27.89880655782392
            ],
            [
              86.92495948320216,
              27.899619025805542
            ],
            [
              86.92374013917684,
              27.899618356524723
            ],
            [
              86.92373994932689,
              27.899889179152325
            ],
            [
              86.92130125534737,
              27.899887808215404
            ],
            [
              86.92130105942482,
              27.90015863082504
            ],
            [
              86.9194720345025,
              27.900157574289487
            ],
            [
              86.91947183401649,
              27.900428396872172
            ],
            [
              86.91703312820617,
              27.900426950386937
            ],
            [
              86.91703292164756,
              27.900697772942674
            ],
            [
              86.91642324370602,
              27.900697404579507
            ],
            [
              86.91642303562925,
              27.90096822711728
            ],
            [
              86.91550851646217,
              27.90096766950603
            ],
            [
              86.91550830610367,
              27.901238492025836
            ],
            [
              86.91489862515279,
              27.90123811690734
            ],
            [
              86.91489841326715,
              27.90150893941816
            ],
            [
              86.91459357204161,
              27.901508750843817
            ],
            [
              86.91459378468183,
              27.901237928341978
            ],
            [
              86.91428894421087,
              27.901237739093897
            ]
          ]
        ]
      },
      "id": "+4150+2168",
      "properties": {
        "area_m2": 337390.30411204597,
        "count": 374,
        "water": 1
      }
    }
  ]
}
