{
  "type": "FeatureCollection",
  "features": [
    {
      "type": "Feature",
      "geometry": {
        "geodesic": false,
        "type": "MultiPolygon",
        "coordinates": [
          [
            [
              [
                86.91642615650231,
                27.89690588787392
              ],
              [
                86.91764546990406,
                27.89690662179751
              ],
              [
                86.91764526489952,
                27.897177444496975
              ],
              [
                86.91977906876718,
                27.89717870291991
              ],
              [
                86.91978006719971,
                27.895824589242906
              ],
              [
                86.92099936858199,
                27.895825293477174
              ],
              [
                86.92099956522321,
                27.895554470696858
              ],
              [
                86.9222188636141,
                27.895555164133377
              ],
              [
                86.92221905721902,
                27.895284341344077
              ],
              [
                86.92252388106216,
                27.895284513012125
              ],
              [
                86.9225240739035,
                27.895013690204863
              ],
              [
                86.92282889700104,
                27.895013861199175
              ],
              [
                86.92282774445354,
                27.896638797890056
              ],
              [
                86.92313257209656,
                27.896638968219616
              ],
              [
                86.9231323807554,
                27.896909790964
              ],
              [
                86.92374203756857,
                27.896910129610895
              ],
              [
                86.92374184774556,
                27.897180952355278
              ],
              [
                86.92404667691571,
                27.89718112066363
              ],
              [
                86.9240462987699,
                27.897722766116466
              ],
              [
                86.92313180671397,
                27.89772225914325
              ],
              [
                86.92313065855924,
                27.899347195196327
              ],
              [
                86.92252098809169,
                27.899346853818553
              ],
              [
                86.92252060231917,
                27.899888499082742
              ],
              [
                86.92160609209033,
                27.899887981949583
              ],
              [
                86.92160589692234,
                27.900158804550234
              ],
              [
                86.92130105942482,
                27.90015863082504
              ],
              [
                86.92130027568965,
                27.901241921146806
              ],
              [
                86.91764218951715,
                27.9012397837044
              ],
              [
                86.9176419844677,
                27.901510606233188
              ],
              [
                86.91733714320623,
                27.901510423731455
              ],
              [
                86.91733858379853,
                27.89961466582333
              ],
              [
                86.91703374786405,
                27.89961448265684
              ],
              [
                86.9170339544047,
                27.89934366005619
              ],
              [
                86.9179484599623,
                27.899344207525456
              ],
              [
                86.91794743857783,
                27.900698320438888
              ],
              [
                86.92008131152593,
                27.90069957433431
              ],
              [
                86.92008190842948,
                27.899887106568286
              ],
              [
                86.92099641861341,
                27.899887633816476
              ],
              [
                86.92099779534446,
                27.89799187528851
              ],
              [
                86.91886397545986,
                27.897990635703252
              ],
              [
                86.91886336951026,
                27.898803103657922
              ],
              [
                86.91855853583955,
                27.898802923878087
              ],
              [
                86.91855954952547,
                27.89744881056041
              ],
              [
                86.91734023002417,
                27.89744808471268
              ],
              [
                86.91734043578327,
                27.897177262022193
              ],
              [
                86.91642594846147,
                27.897176710564406
              ],
              [
                86.91642615650231,
                27.89690588787392
              ]
            ]
          ],
          [
            [
              [
                86.91642615650231,
                27.89690588787392
              ],
              [
                86.91612132815861,
                27.896905702713177
              ],
              [
                86.91612153695404,
                27.896634880013707
              ],
              [
                86.91642636453416,
                27.896635065174454
              ],
              [
                86.91642615650231,
                27.89690588787392
              ]
            ]
          ]
        ]
      },
      "id": "+4293+1777",
      "properties": {
        "area_m2": 200269.12251937666,
        "count": 222,
        "water": 1
      }
    }
  ]
}
