{
  "type": "FeatureCollection",
  "features": [
    {
      "type": "Feature",
      "geometry": {
        "geodesic": false,
        "type": "MultiPolygon",
        "coordinates": [
          [
            [
              [
                86.91246142704789,
                27.8993408317195
              ],
              [
                86.9124612091166,
                27.89961165428422
              ],
              [
                86.91215637322705,
                27.89961146033795
              ],
              [
                86.91215659191292,
                27.899340637773232
              ],
              [
                86.91246142704789,
                27.8993408317195
              ]
            ]
          ],
          [
            [
              [
                86.92648457835656,
                27.898265733826516
              ],
              [
                86.92648476136135,
                27.89799491110908
              ],
              [
                86.92709442431001,
                27.89799523494276
              ],
              [
                86.92709424281439,
                27.89826605766019
              ],
              [
                86.92648457835656,
                27.898265733826516
              ]
            ]
          ],
          [
            [
              [
                86.92709351683192,
                27.89934934842213
              ],
              [
                86.92709369832754,
                27.899078525749612
              ],
              [
                86.92770336735778,
                27.899078846897325
              ],
              [
                86.92770318737134,
                27.89934966957883
              ],
              [
                86.92709351683192,
                27.89934934842213
              ]
            ]
          ],
          [
            [
              [
                86.91246142704789,
                27.8993408317195
              ],
              [
                86.91246164497018,
                27.899070009145795
              ],
              [
                86.91276647935057,
                27.89907020241833
              ],
              [
                86.91276669651829,
                27.89879937982666
              ],
              [
                86.9130715301351,
                27.898799572425457
              ],
              [
                86.91307174653925,
                27.89852874981582
              ],
              [
                86.91368141227268,
                27.89852913298322
              ],
              [
                86.91368119738668,
                27.898799955592857
              ],
              [
                86.91429086465624,
                27.898800336065314
              ],
              [
                86.91429107802408,
                27.898529513455678
              ],
              [
                86.91459591090427,
                27.89852970267681
              ],
              [
                86.91459612350855,
                27.898258880049205
              ],
              [
                86.91490095562517,
                27.8982590685966
              ],
              [
                86.91490137931558,
                27.897717423314447
              ],
              [
                86.91520620992303,
                27.89771761117912
              ],
              [
                86.91520642100018,
                27.897446788524572
              ],
              [
                86.91581608070591,
                27.897447162232712
              ],
              [
                86.9158162902649,
                27.897176339560193
              ],
              [
                86.91673077756874,
                27.8971768950604
              ],
              [
                86.91673098484601,
                27.896906072369916
              ],
              [
                86.9182551266184,
                27.896906984716885
              ],
              [
                86.91825533010478,
                27.89663616199945
              ],
              [
                86.9179505024977,
                27.896635980881122
              ],
              [
                86.91795070673867,
                27.896365158154705
              ],
              [
                86.91856036042569,
                27.896365519717623
              ],
              [
                86.91856015770288,
                27.89663634244404
              ],
              [
                86.91947464053311,
                27.896636879735397
              ],
              [
                86.9194748409742,
                27.896366056999994
              ],
              [
                86.9191700141217,
                27.8963658785856
              ],
              [
                86.91917021532636,
                27.89609505584121
              ],
              [
                86.9209991719318,
                27.896096116239523
              ],
              [
                86.92099936858199,
                27.895825293477174
              ],
              [
                86.9216090192866,
                27.895825641547397
              ],
              [
                86.92160882416356,
                27.896096464309746
              ],
              [
                86.92252330252016,
                27.89609698136206
              ],
              [
                86.92252349537048,
                27.895826158590726
              ],
              [
                86.9237427968516,
                27.895826838552512
              ],
              [
                86.92374260703758,
                27.89609766133283
              ],
              [
                86.92404743317142,
                27.89609782964118
              ],
              [
                86.92404724411199,
                27.896368652412516
              ],
              [
                86.9243520710094,
                27.89636882004713
              ],
              [
                86.92435188270454,
                27.89663964280948
              ],
              [
                86.92465671035654,
                27.896639809770356
              ],
              [
                86.92465708544809,
                27.89609816422769
              ],
              [
                86.92435225930527,
                27.896097997266814
              ],
              [
                86.92435244761012,
                27.8958271744865
              ],
              [
                86.92526692375688,
                27.895827673329958
              ],
              [
                86.92526673773375,
                27.896098496119258
              ],
              [
                86.92557156388555,
                27.896098661058925
              ],
              [
                86.9255708228024,
                27.897181952126292
              ],
              [
                86.92587565199051,
                27.897182116392223
              ],
              [
                86.92587546747656,
                27.897452939136606
              ],
              [
                86.92618029741925,
                27.897453102728804
              ],
              [
                86.92617974613215,
                27.89826557089907
              ],
              [
                86.92648457835656,
                27.898265733826516
              ],
              [
                86.9264843953428,
                27.898536556525983
              ],
              [
                86.92678922833079,
                27.898536718788673
              ],
              [
                86.92678904608059,
                27.898807541479158
              ],
              [
                86.92648421232902,
                27.89880737922545
              ],
              [
                86.92648402931525,
                27.899078201906953
              ],
              [
                86.92678886382139,
                27.89907836416066
              ],
              [
                86.9267886815622,
                27.899349186833177
              ],
              [
                86.92709351683192,
                27.89934934842213
              ],
              [
                86.92709333532731,
                27.899620171085665
              ],
              [
                86.92739817135161,
                27.899620332000882
              ],
              [
                86.92739799061057,
                27.899891154655435
              ],
              [
                86.92678831703485,
                27.899890832151264
              ],
              [
                86.92678849930302,
                27.89962000949671
              ],
              [
                86.92617882725442,
                27.899619684297598
              ],
              [
                86.92617864347709,
                27.899890506943166
              ],
              [
                86.9258738066982,
                27.899890343333002
              ],
              [
                86.9258736221573,
                27.90016116596959
              ],
              [
                86.92526394709037,
                27.900160836710086
              ],
              [
                86.92526376102232,
                27.900431659328707
              ],
              [
                86.92495892273428,
                27.90043149368835
              ],
              [
                86.92495854908003,
                27.90097313889864
              ],
              [
                86.92465370928281,
                27.900972972584547
              ],
              [
                86.924653896869,
                27.900702149983896
              ],
              [
                86.92404421878373,
                27.90070181532552
              ],
              [
                86.9240440296794,
                27.90097263791719
              ],
              [
                86.92343435009393,
                27.90097230056387
              ],
              [
                86.92343454071643,
                27.90070147798118
              ],
              [
                86.92252002363344,
                27.900700966893684
              ],
              [
                86.92251983073821,
                27.90097178947637
              ],
              [
                86.92282467051746,
                27.900971960515598
              ],
              [
                86.9228244783768,
                27.9012427830893
              ],
              [
                86.92221479729116,
                27.901242440328122
              ],
              [
                86.92221499094997,
                27.900971617763403
              ],
              [
                86.92191015117072,
                27.9009714453767
              ],
              [
                86.92190995675732,
                27.90124226794142
              ],
              [
                86.92160511622349,
                27.90124209488098
              ],
              [
                86.92160531140044,
                27.90097127231626
              ],
              [
                86.92038595231936,
                27.900970573328156
              ],
              [
                86.92038575410609,
                27.901241395883893
              ],
              [
                86.92008091358124,
                27.90124121945477
              ],
              [
                86.92008071460441,
                27.901512042001524
              ],
              [
                86.91947103205452,
                27.901511687104104
              ],
              [
                86.9194712325495,
                27.901240864566333
              ],
              [
                86.91916639203363,
                27.90124068610702
              ],
              [
                86.91916619078405,
                27.90151150864479
              ],
              [
                86.91855650824314,
                27.90151114970495
              ],
              [
                86.91855671101985,
                27.90124032716718
              ],
              [
                86.91794703001506,
                27.901239965532397
              ],
              [
                86.91794662142533,
                27.90178161058997
              ],
              [
                86.91764177940928,
                27.901781428752994
              ],
              [
                86.9176419844677,
                27.901510606233188
              ],
              [
                86.91733714320623,
                27.901510423731455
              ],
              [
                86.91733673158919,
                27.902052068753097
              ],
              [
                86.91703188881854,
                27.902051885568646
              ],
              [
                86.91703209538615,
                27.901781063066807
              ],
              [
                86.91672725337907,
                27.90178087920862
              ],
              [
                86.9167270460479,
                27.902051701710455
              ],
              [
                86.91581251776292,
                27.90205114609347
              ],
              [
                86.91581230815002,
                27.902321968577343
              ],
              [
                86.91520262112653,
                27.90232159478835
              ],
              [
                86.91520304337962,
                27.901779949820607
              ],
              [
                86.91489820139051,
                27.90177976192
              ],
              [
                86.91489841326715,
                27.90150893941816
              ],
              [
                86.91428873081608,
                27.901508561604718
              ],
              [
                86.91428894421087,
                27.901237739093897
              ],
              [
                86.9139841037489,
                27.90123754917208
              ],
              [
                86.91398431789828,
                27.90096672666126
              ],
              [
                86.91367947819987,
                27.900966536065706
              ],
              [
                86.91367969311283,
                27.9006957135459
              ],
              [
                86.91307001523417,
                27.900695330342568
              ],
              [
                86.91306979880306,
                27.90096615286237
              ],
              [
                86.91246011942422,
                27.90096576696409
              ],
              [
                86.9124603373645,
                27.900694944444286
              ],
              [
                86.91185065951278,
                27.90069455585106
              ],
              [
                86.91185087897121,
                27.90042373333126
              ],
              [
                86.91215571714248,
                27.90042392796923
              ],
              [
                86.91215593583733,
                27.90015310543146
              ],
              [
                86.91154626102193,
                27.900152715499743
              ],
              [
                86.91154648123494,
                27.89988189296197
              ],
              [
                86.91276582783843,
                27.899882670121475
              ],
              [
                86.91276626218284,
                27.899341024992033
              ],
              [
                86.91246142704789,
                27.8993408317195
              ]
            ],
            [
              [
                86.9209991719318,
                27.896096116239523
              ],
              [
                86.92130399804768,
                27.896096290611503
              ],
              [
                86.92130380216103,
                27.89636711336487
              ],
              [
                86.92099897529057,
                27.89636693899289
              ],
              [
                86.9209991719318,
                27.896096116239523
              ]
            ],
            [
              [
                86.92496116444413,
                27.897181621564233
              ],
              [
                86.92496135123082,
                27.89691079881985
              ],
              [
                86.92526617965538,
                27.896910964433257
              ],
              [
                86.92526599362326,
                27.89718178717764
              ],
              [
                86.92496116444413,
                27.897181621564233
              ]
            ]
          ]
        ]
      },
      "id": "+4431+1824",
      "properties": {
        "area_m2": 666661.5021347243,
        "count": 739,
        "water": 1
      }
    }
  ]
}
