{
  "type": "FeatureCollection",
  "features": [
    {
      "type": "Feature",
      "geometry": {
        "geodesic": false,
        "type": "Polygon",
        "coordinates": [
          [
            [
              86.91612091055879,
              27.897447348076177
            ],
            [
              86.91612111936318,
              27.89717652540366
            ],
            [
              86.91642594846147,
              27.897176710564406
            ],
            [
              86.91642615650231,
              27.89690588787392
            ],
            [
              86.9173406415424,
              27.89690643933171
            ],
            [
              86.9173408473015,
              27.896635616623257
            ],
            [
              86.91856015770288,
              27.89663634244404
            ],
            [
              86.91856036042569,
              27.896365519717623
            ],
            [
              86.92038932155863,
              27.89636658821874
            ],
            [
              86.92038971788635,
              27.895824942712004
            ],
            [
              86.9213041939343,
              27.895825467849154
            ],
            [
              86.92130438981195,
              27.895554645068838
            ],
            [
              86.9219140390074,
              27.895554991782607
            ],
            [
              86.92191423337587,
              27.895284168993307
            ],
            [
              86.92282870491428,
              27.89528468400644
            ],
            [
              86.92282889700104,
              27.895013861199175
            ],
            [
              86.9231337200896,
              27.895014031519754
            ],
            [
              86.9231335287664,
              27.89528485432702
            ],
            [
              86.92343835261853,
              27.895285023982844
            ],
            [
              86.92343854318713,
              27.895014201166596
            ],
            [
              86.92374336628467,
              27.8950143701397
            ],
            [
              86.92374298666562,
              27.89555601575423
            ],
            [
              86.92465746052167,
              27.89555651864011
            ],
            [
              86.92465783559526,
              27.895014873016596
            ],
            [
              86.92496265870177,
              27.895015039294755
            ],
            [
              86.92496247192406,
              27.895285862111002
            ],
            [
              86.92557211967322,
              27.89528619264611
            ],
            [
              86.9255717491541,
              27.89582783826963
            ],
            [
              86.92587657454234,
              27.895828002526578
            ],
            [
              86.92587620553239,
              27.896369648105175
            ],
            [
              86.9270955131939,
              27.896370298413576
            ],
            [
              86.92709424281439,
              27.89826605766019
            ],
            [
              86.9273990750478,
              27.898266218566427
            ],
            [
              86.92739835210162,
              27.89934950933735
            ],
            [
              86.92709351683192,
              27.89934934842213
            ],
            [
              86.92709333532731,
              27.899620171085665
            ],
            [
              86.92404497518318,
              27.899618524851043
            ],
            [
              86.9240447860878,
              27.899889347487626
            ],
            [
              86.92191092882429,
              27.899888155001037
            ],
            [
              86.92191015117072,
              27.9009714453767
            ],
            [
              86.92099563185093,
              27.90097092417417
            ],
            [
              86.92099602524115,
              27.900429279017782
            ],
            [
              86.91886215754819,
              27.900428039297775
            ],
            [
              86.91886235955235,
              27.900157216715087
            ],
            [
              86.91977687198207,
              27.900157752066082
            ],
            [
              86.9197786693762,
              27.897720348318845
            ],
            [
              86.91703519362166,
              27.897718724236675
            ],
            [
              86.91703498709897,
              27.89798954690021
            ],
            [
              86.91642532432998,
              27.897989178572978
            ],
            [
              86.91642574042064,
              27.89744753324591
            ],
            [
              86.91612091055879,
              27.897447348076177
            ]
          ]
        ]
      },
      "id": "+4380+1877",
      "properties": {
        "area_m2": 396027.7365138194,
        "count": 439,
        "water": 1
      }
    }
  ]
}
