{
  "type": "FeatureCollection",
  "features": [
    {
      "type": "Feature",
      "geometry": {
        "geodesic": false,
        "type": "MultiPolygon",
        "coordinates": [
          [
            [
              [
                86.91825187051296,
                27.901240146686657
              ],
              [
                86.91855671101985,
                27.90124032716718
              ],
              [
                86.91855650824314,
                27.90151114970495
              ],
              [
                86.91825166698167,
                27.90151096922443
              ],
              [
                86.91825187051296,
                27.901240146686657
              ]
            ]
          ],
          [
            [
              [
                86.91825187051296,
                27.901240146686657
              ],
              [
                86.91764218951715,
                27.9012397837044
              ],
              [
                86.9176419844677,
                27.901510606233188
              ],
              [
                86.91672746071023,
                27.901510056697795
              ],
              [
                86.91672725337907,
                27.90178087920862
              ],
              [
                86.91703209538615,
                27.901781063066807
              ],
              [
                86.91703188881854,
                27.902051885568646
              ],
              [
                86.91642220328623,
                27.90205151717853
              ],
              [
                86.916422411372,
                27.901780694685677
              ],
              [
                86.9161175693739,
                27.901780509480012
              ],
              [
                86.91611715166627,
                27.90232215445674
              ],
              [
                86.914592934112,
                27.902321218304415
              ],
              [
                86.91459335940141,
                27.901779573345657
              ],
              [
                86.91489820139051,
                27.90177976192
              ],
              [
                86.91489841326715,
                27.90150893941816
              ],
              [
                86.91459357204161,
                27.901508750843817
              ],
              [
                86.91459399731305,
                27.900967105822176
              ],
              [
                86.91428915760567,
                27.900966916583076
              ],
              [
                86.91428958438628,
                27.900425271516518
              ],
              [
                86.91367990801679,
                27.900424891017114
              ],
              [
                86.9136805527197,
                27.8996124233499
              ],
              [
                86.91398538862721,
                27.899612613927488
              ],
              [
                86.91398624514389,
                27.89852932356081
              ],
              [
                86.91429107802408,
                27.898529513455678
              ],
              [
                86.91429150475079,
                27.897987868200474
              ],
              [
                86.91459633610384,
                27.897988057421603
              ],
              [
                86.91459654870812,
                27.897717234767054
              ],
              [
                86.91520620992303,
                27.89771761117912
              ],
              [
                86.91520642100018,
                27.897446788524572
              ],
              [
                86.91642574042064,
                27.89744753324591
              ],
              [
                86.91642594846147,
                27.897176710564406
              ],
              [
                86.91795009401578,
                27.897177626298024
              ],
              [
                86.91795029825674,
                27.896906803589573
              ],
              [
                86.9182551266184,
                27.896906984716885
              ],
              [
                86.91825492313203,
                27.89717780741635
              ],
              [
                86.91855975225727,
                27.897177987869927
              ],
              [
                86.91855954952547,
                27.89744881056041
              ],
              [
                86.91886437940529,
                27.897448990340248
              ],
              [
                86.9188645813825,
                27.89717816764078
              ],
              [
                86.91916941050773,
                27.8971783467379
              ],
              [
                86.91916981291705,
                27.896636701312012
              ],
              [
                86.92038912339028,
                27.89663741095414
              ],
              [
                86.92038932155863,
                27.89636658821874
              ],
              [
                86.92130380216103,
                27.89636711336487
              ],
              [
                86.9213041939343,
                27.895825467849154
              ],
              [
                86.92282832073178,
                27.895826329594023
              ],
              [
                86.92282851282752,
                27.895555506804723
              ],
              [
                86.92465746052167,
                27.89555651864011
              ],
              [
                86.92465764806295,
                27.895285695832843
              ],
              [
                86.92770588684469,
                27.895287328287313
              ],
              [
                86.92770462716412,
                27.89718308784834
              ],
              [
                86.9280094563702,
                27.897183247398118
              ],
              [
                86.92800909795139,
                27.897724892895866
              ],
              [
                86.9273994365119,
                27.897724573113592
              ],
              [
                86.92739925577985,
                27.89799539584899
              ],
              [
                86.92709442431001,
                27.89799523494276
              ],
              [
                86.92709387983214,
                27.898807703059127
              ],
              [
                86.92678904608059,
                27.898807541479158
              ],
              [
                86.9267879524985,
                27.900432477415453
              ],
              [
                86.92434924616715,
                27.900431160386432
              ],
              [
                86.92434905782638,
                27.90070198299607
              ],
              [
                86.92373937975009,
                27.900701646990218
              ],
              [
                86.92373918989115,
                27.900972469581887
              ],
              [
                86.9213004716212,
                27.900971098582083
              ],
              [
                86.92130027568965,
                27.901241921146806
              ],
              [
                86.91977607306536,
                27.901241042342928
              ],
              [
                86.9197762727968,
                27.90097021978719
              ],
              [
                86.91947143304449,
                27.900970042010595
              ],
              [
                86.9194712325495,
                27.901240864566333
              ],
              [
                86.91886155152675,
                27.90124050697397
              ],
              [
                86.91886175353989,
                27.900969684427213
              ],
              [
                86.91825207404426,
                27.900969324148885
              ],
              [
                86.91825187051296,
                27.901240146686657
              ]
            ],
            [
              [
                86.91825248108887,
                27.90042767902843
              ],
              [
                86.91825268461119,
                27.900156856454725
              ],
              [
                86.91855752207279,
                27.900157036926267
              ],
              [
                86.91855731931405,
                27.90042785949997
              ],
              [
                86.91825248108887,
                27.90042767902843
              ]
            ],
            [
              [
                86.92008290319689,
                27.898532993412307
              ],
              [
                86.92008310214678,
                27.898262170757757
              ],
              [
                86.92038793431729,
                27.89826234716891
              ],
              [
                86.92038773613098,
                27.898533169832447
              ],
              [
                86.92008290319689,
                27.898532993412307
              ]
            ],
            [
              [
                86.91916759949514,
                27.89961575064683
              ],
              [
                86.91916739826353,
                27.899886573247485
              ],
              [
                86.91886256154753,
                27.899886394132402
              ],
              [
                86.9188627635427,
                27.899615571531747
              ],
              [
                86.91916759949514,
                27.89961575064683
              ]
            ],
            [
              [
                86.91947263593357,
                27.899345106478545
              ],
              [
                86.91947303687863,
                27.898803461214357
              ],
              [
                86.91977787055832,
                27.898803638981967
              ],
              [
                86.91977747114039,
                27.899345284246156
              ],
              [
                86.91947263593357,
                27.899345106478545
              ]
            ],
            [
              [
                86.91916759949514,
                27.89961575064683
              ],
              [
                86.91916780073572,
                27.899344928037195
              ],
              [
                86.91947263593357,
                27.899345106478545
              ],
              [
                86.91947243545654,
                27.89961592908818
              ],
              [
                86.91916759949514,
                27.89961575064683
              ]
            ]
          ]
        ]
      },
      "id": "+4239+2166",
      "properties": {
        "area_m2": 683801.7198146553,
        "count": 758,
        "water": 1
      }
    }
  ]
}
