{
  "type": "FeatureCollection",
  "features": [
    {
      "type": "Feature",
      "geometry": {
        "geodesic": false,
        "type": "Polygon",
        "coordinates": [
          [
            [
              86.9142900111579,
              27.899883626405042
            ],
            [
              86.91429022453472,
              27.899612803840323
            ],
            [
              86.91520473228422,
              27.899613369509456
            ],
            [
              86.91520536556955,
              27.89880090171648
            ],
            [
              86.91581503286605,
              27.89880127545157
            ],
            [
              86.915815242443,
              27.898530452832954
            ],
            [
              86.91612007533219,
              27.898530638685404
            ],
            [
              86.91612028414556,
              27.898259816048817
            ],
            [
              86.91733961271088,
              27.898260552712266
            ],
            [
              86.91733981847898,
              27.897989730057713
            ],
            [
              86.91855914406189,
              27.897990455914428
            ],
            [
              86.91855934679367,
              27.897719633241913
            ],
            [
              86.92008350002858,
              27.897720525394753
            ],
            [
              86.92008369896948,
              27.897449702704268
            ],
            [
              86.92160784848535,
              27.89745057799573
            ],
            [
              86.92160804362638,
              27.897179755278298
            ],
            [
              86.92191287277856,
              27.897179928311786
            ],
            [
              86.92191306715603,
              27.896909105585372
            ],
            [
              86.92282755234882,
              27.89690962063444
            ],
            [
              86.92282774445354,
              27.896638797890056
            ],
            [
              86.92404705504357,
              27.896639475174865
            ],
            [
              86.92404724411199,
              27.896368652412516
            ],
            [
              86.92587620553239,
              27.896369648105175
            ],
            [
              86.92587639003736,
              27.896098825315875
            ],
            [
              86.92922947786897,
              27.896100587702666
            ],
            [
              86.9292284208663,
              27.897725524375577
            ],
            [
              86.92892359013308,
              27.897725367511764
            ],
            [
              86.92892252848611,
              27.89935030378942
            ],
            [
              86.92709351683192,
              27.89934934842213
            ],
            [
              86.92709333532731,
              27.899620171085665
            ],
            [
              86.92465464718684,
              27.89961885949145
            ],
            [
              86.92465445960963,
              27.89988968213702
            ],
            [
              86.92252060231917,
              27.899888499082742
            ],
            [
              86.92252040942392,
              27.900159321692378
            ],
            [
              86.91977687198207,
              27.900157752066082
            ],
            [
              86.91977667225963,
              27.900428574648767
            ],
            [
              86.91733796642235,
              27.900427133562406
            ],
            [
              86.9173377606273,
              27.900697956118144
            ],
            [
              86.91642324370602,
              27.900697404579507
            ],
            [
              86.91642303562925,
              27.90096822711728
            ],
            [
              86.91581335617855,
              27.900967856050183
            ],
            [
              86.91581356577346,
              27.90069703351241
            ],
            [
              86.91550872681168,
              27.900696846968263
            ],
            [
              86.91550893717016,
              27.900426024421506
            ],
            [
              86.91520409896296,
              27.90042583720362
            ],
            [
              86.91520452118013,
              27.899884192092145
            ],
            [
              86.9142900111579,
              27.899883626405042
            ]
          ],
          [
            [
              86.91642345178279,
              27.90042658202377
            ],
            [
              86.91642407598614,
              27.89961411430266
            ],
            [
              86.91703374786405,
              27.89961448265684
            ],
            [
              86.91703354131442,
              27.89988530524851
            ],
            [
              86.91733837801246,
              27.899885488415
            ],
            [
              86.9173381722174,
              27.900156310988702
            ],
            [
              86.9170333347558,
              27.900156127822214
            ],
            [
              86.91703312820617,
              27.900426950386937
            ],
            [
              86.91642345178279,
              27.90042658202377
            ]
          ],
          [
            [
              86.91977727141796,
              27.899616106864773
            ],
            [
              86.91977767085385,
              27.899074461618554
            ],
            [
              86.9206921742016,
              27.899074990869988
            ],
            [
              86.92069177932915,
              27.89961663612519
            ],
            [
              86.91977727141796,
              27.899616106864773
            ]
          ]
        ]
      },
      "id": "+4534+1823",
      "properties": {
        "area_m2": 434818.55385523423,
        "count": 482,
        "water": 1
      }
    }
  ]
}
