{
  "type": "FeatureCollection",
  "features": [
    {
      "type": "Feature",
      "geometry": {
        "geodesic": false,
        "type": "MultiPolygon",
        "coordinates": [
          [
            [
              [
                86.9203881325036,
                27.89799152448741
              ],
              [
                86.92099779534446,
                27.89799187528851
              ],
              [
                86.92099799200365,
                27.897721052598026
              ],
              [
                86.9206931613423,
                27.89772087754333
              ],
              [
                86.92069335876505,
                27.89745005484386
              ],
              [
                86.92038852886726,
                27.89744987910644
              ],
              [
                86.92038892521295,
                27.896908233680556
              ],
              [
                86.9209985819812,
                27.89690858446369
              ],
              [
                86.920998385331,
                27.89717940719011
              ],
              [
                86.9213032144742,
                27.89717958157107
              ],
              [
                86.9213030185696,
                27.89745040427952
              ],
              [
                86.92252233822363,
                27.89745109507499
              ],
              [
                86.92252214535533,
                27.897721917783443
              ],
              [
                86.92313180671397,
                27.89772225914325
              ],
              [
                86.92313046719113,
                27.899618017841895
              ],
              [
                86.92404497518318,
                27.899618524851043
              ],
              [
                86.9240447860878,
                27.899889347487626
              ],
              [
                86.92130125534737,
                27.899887808215404
              ],
              [
                86.92130105942482,
                27.90015863082504
              ],
              [
                86.92038654695018,
                27.900158105589078
              ],
              [
                86.9203881325036,
                27.89799152448741
              ]
            ]
          ],
          [
            [
              [
                86.9203881325036,
                27.89799152448741
              ],
              [
                86.92008330108767,
                27.897991348085238
              ],
              [
                86.92008350002858,
                27.897720525394753
              ],
              [
                86.92038833068993,
                27.89772070180591
              ],
              [
                86.9203881325036,
                27.89799152448741
              ]
            ]
          ]
        ]
      },
      "id": "+4047+1760",
      "properties": {
        "area_m2": 79385.95287564515,
        "count": 88,
        "water": 1
      }
    }
  ]
}
