{
  "type": "FeatureCollection",
  "features": [
    {
      "type": "Feature",
      "geometry": {
        "geodesic": false,
        "type": "Polygon",
        "coordinates": [
          [
            [
              86.92130105942482,
              27.90015863082504
            ],
            [
              86.92130184311507,
              27.899075340332598
            ],
            [
              86.92160667757629,
              27.89907551405779
            ],
            [
              86.9216072630443,
              27.898263046076167
            ],
            [
              86.92191209523278,
              27.89826321910966
            ],
            [
              86.92191228961923,
              27.897992396428158
            ],
            [
              86.92252195248705,
              27.89799274048291
            ],
            [
              86.92252118097794,
              27.899076031172985
            ],
            [
              86.92282601544815,
              27.89907620220323
            ],
            [
              86.92282582332547,
              27.8993470248488
            ],
            [
              86.92495967001581,
              27.899348203150993
            ],
            [
              86.92495985682945,
              27.899077380487455
            ],
            [
              86.92617919480911,
              27.899078038970526
            ],
            [
              86.92617882725442,
              27.899619684297598
            ],
            [
              86.92434981118052,
              27.899618692512608
            ],
            [
              86.92434962284872,
              27.89988951514919
            ],
            [
              86.92221576556724,
              27.899888327378758
            ],
            [
              86.9222155719174,
              27.900159149988394
            ],
            [
              86.92130105942482,
              27.90015863082504
            ]
          ]
        ]
      },
      "id": "+4152+2156",
      "properties": {
        "area_m2": 44203.53906760733,
        "count": 49,
        "water": 1
      }
    }
  ]
}
