{
  "type": "FeatureCollection",
  "features": [
    {
      "type": "Feature",
      "geometry": {
        "geodesic": false,
        "type": "Polygon",
        "coordinates": [
          [
            [
              86.91398538862721,
              27.899612613927488
            ],
            [
              86.91398624514389,
              27.89852932356081
            ],
            [
              86.91459591090427,
              27.89852970267681
            ],
            [
              86.91459612350855,
              27.898258880049205
            ],
            [
              86.91490095562517,
              27.8982590685966
            ],
            [
              86.91490116747487,
              27.897988245960015
            ],
            [
              86.91520599883691,
              27.897988433833675
            ],
            [
              86.91520620992303,
              27.89771761117912
            ],
            [
              86.91581587114692,
              27.897717984896246
            ],
            [
              86.91581608070591,
              27.897447162232712
            ],
            [
              86.91734023002417,
              27.89744808471268
            ],
            [
              86.91734043578327,
              27.897177262022193
            ],
            [
              86.91825492313203,
              27.89717780741635
            ],
            [
              86.9182551266184,
              27.896906984716885
            ],
            [
              86.91947444008304,
              27.89690770245283
            ],
            [
              86.91947464053311,
              27.896636879735397
            ],
            [
              86.92099877864038,
              27.896637761737274
            ],
            [
              86.92099897529057,
              27.89636693899289
            ],
            [
              86.92282793654928,
              27.896367975136688
            ],
            [
              86.92282774445354,
              27.896638797890056
            ],
            [
              86.92313257209656,
              27.896638968219616
            ],
            [
              86.92313218940527,
              27.8971806136994
            ],
            [
              86.92587565199051,
              27.897182116392223
            ],
            [
              86.92587620553239,
              27.896369648105175
            ],
            [
              86.92618103243879,
              27.896369811697372
            ],
            [
              86.92618084868839,
              27.896640634468703
            ],
            [
              86.92831464245899,
              27.89664176073149
            ],
            [
              86.92831428557629,
              27.89718340627416
            ],
            [
              86.92892394398845,
              27.897183722005032
            ],
            [
              86.92892376706526,
              27.89745454476738
            ],
            [
              86.9292285970349,
              27.897454701622213
            ],
            [
              86.92922771614694,
              27.898808815272265
            ],
            [
              86.92892288237742,
              27.89880865840845
            ],
            [
              86.92892305931858,
              27.898537835699997
            ],
            [
              86.92800856030969,
              27.898537361066136
            ],
            [
              86.9280083810958,
              27.898808183765603
            ],
            [
              86.9273987135837,
              27.898807863974344
            ],
            [
              86.92739853284266,
              27.899078686655844
            ],
            [
              86.92678886382139,
              27.89907836416066
            ],
            [
              86.9267886815622,
              27.899349186833177
            ],
            [
              86.92617901103176,
              27.89934886163406
            ],
            [
              86.92617882725442,
              27.899619684297598
            ],
            [
              86.92465464718684,
              27.89961885949145
            ],
            [
              86.92465445960963,
              27.89988968213702
            ],
            [
              86.92038674515447,
              27.899887282988423
            ],
            [
              86.92038654695018,
              27.900158105589078
            ],
            [
              86.9194720345025,
              27.900157574289487
            ],
            [
              86.91947183401649,
              27.900428396872172
            ],
            [
              86.91703312820617,
              27.900426950386937
            ],
            [
              86.91703292164756,
              27.900697772942674
            ],
            [
              86.91672808267678,
              27.90069758910245
            ],
            [
              86.91672870461639,
              27.89988512140829
            ],
            [
              86.91581419454924,
              27.899884565836217
            ],
            [
              86.91581440413519,
              27.899613743253532
            ],
            [
              86.91398538862721,
              27.899612613927488
            ]
          ]
        ]
      },
      "id": "+4164+2162",
      "properties": {
        "area_m2": 449252.34740529634,
        "count": 498,
        "water": 1
      }
    }
  ]
}
