{
  "type": "FeatureCollection",
  "features": [
    {
      "type": "Feature",
      "geometry": {
        "geodesic": false,
        "type": "Polygon",
        "coordinates": [
          [
            [
              86.91886155152675,
              27.90124050697397
            ],
            [
              86.91886215754819,
              27.900428039297775
            ],
            [
              86.91947183401649,
              27.900428396872172
            ],
            [
              86.91947323734666,
              27.89853263856879
            ],
            [
              86.91916840442155,
              27.898532460127438
            ],
            [
              86.91916920929408,
              27.897449169437365
            ],
            [
              86.92008369896948,
              27.897449702704268
            ],
            [
              86.92008389790139,
              27.897178879995817
            ],
            [
              86.92221770193075,
              27.89718010067154
            ],
            [
              86.9222184763953,
              27.896096809685023
            ],
            [
              86.92496191159091,
              27.896098330514835
            ],
            [
              86.9249628454705,
              27.89474421646054
            ],
            [
              86.92526766782244,
              27.89474438205598
            ],
            [
              86.92526785383659,
              27.89447355921278
            ],
            [
              86.92648714023498,
              27.894474214866158
            ],
            [
              86.92648732320383,
              27.894203392004993
            ],
            [
              86.92679214405558,
              27.89420355423175
            ],
            [
              86.92679177962704,
              27.89474519995408
            ],
            [
              86.92587731253529,
              27.894744711234633
            ],
            [
              86.9258771280393,
              27.89501553407783
            ],
            [
              86.92679159740378,
              27.89501602279728
            ],
            [
              86.92679105073402,
              27.89582849126399
            ],
            [
              86.92770552695265,
              27.895828973928793
            ],
            [
              86.92770498708312,
              27.896641442314657
            ],
            [
              86.92800981477106,
              27.896641601864435
            ],
            [
              86.92800963556614,
              27.896912424635765
            ],
            [
              86.93014343475357,
              27.896913522601622
            ],
            [
              86.93014395641424,
              27.896101054197793
            ],
            [
              86.93044878260199,
              27.896101208348696
            ],
            [
              86.9304489557253,
              27.895830385532445
            ],
            [
              86.93105860659162,
              27.89583069180406
            ],
            [
              86.93105843498645,
              27.89610151462929
            ],
            [
              86.93136326118318,
              27.896101666758984
            ],
            [
              86.93136257777186,
              27.897184957961098
            ],
            [
              86.93197223623793,
              27.897185260208257
            ],
            [
              86.93197189755509,
              27.897726905750922
            ],
            [
              86.93227672830628,
              27.89772705586839
            ],
            [
              86.93227655971945,
              27.89799787862176
            ],
            [
              86.9319717282047,
              27.89799772850429
            ],
            [
              86.9319712201535,
              27.898810196710492
            ],
            [
              86.93166638636602,
              27.898810045910306
            ],
            [
              86.93166604613808,
              27.899351691327205
            ],
            [
              86.92709351683192,
              27.89934934842213
            ],
            [
              86.92709333532731,
              27.899620171085665
            ],
            [
              86.92374013917684,
              27.899618356524723
            ],
            [
              86.92373994932689,
              27.899889179152325
            ],
            [
              86.92130125534737,
              27.899887808215404
            ],
            [
              86.92130105942482,
              27.90015863082504
            ],
            [
              86.92099622192728,
              27.900158456417127
            ],
            [
              86.92099563185093,
              27.90097092417417
            ],
            [
              86.92008111255808,
              27.900970396899034
            ],
            [
              86.92008091358124,
              27.90124121945477
            ],
            [
              86.91886155152675,
              27.90124050697397
            ]
          ]
        ]
      },
      "id": "+4326+1830",
      "properties": {
        "area_m2": 479924.29745564354,
        "count": 532,
        "water": 1
      }
    }
  ]
}
