{
  "type": "FeatureCollection",
  "features": [
    {
      "type": "Feature",
      "geometry": {
        "geodesic": false,
        "type": "Polygon",
        "coordinates": [
          [
            [
              86.91703560667601,
              27.897177078882656
            ],
            [
              86.9170358131987,
              27.89690625618319
            ],
            [
              86.91795029825674,
              27.896906803589573
            ],
            [
              86.9179505024977,
              27.896635980881122
            ],
            [
              86.91856015770288,
              27.89663634244404
            ],
            [
              86.91856036042569,
              27.896365519717623
            ],
            [
              86.92038932155863,
              27.89636658821874
            ],
            [
              86.920389519718,
              27.896095765465372
            ],
            [
              86.9206943458249,
              27.896095941193806
            ],
            [
              86.92069454322969,
              27.895825118431457
            ],
            [
              86.9213041939343,
              27.895825467849154
            ],
            [
              86.92130380216103,
              27.89636711336487
            ],
            [
              86.92343759032615,
              27.896368315122075
            ],
            [
              86.92343835261853,
              27.895285023982844
            ],
            [
              86.92435282419287,
              27.89528552888095
            ],
            [
              86.92435301248874,
              27.8950147060647
            ],
            [
              86.92496265870177,
              27.895015039294755
            ],
            [
              86.9249628454705,
              27.89474421646054
            ],
            [
              86.92526766782244,
              27.89474438205598
            ],
            [
              86.92526785383659,
              27.89447355921278
            ],
            [
              86.92557267543394,
              27.894473724143467
            ],
            [
              86.9255708228024,
              27.897181952126292
            ],
            [
              86.92526599362326,
              27.89718178717764
            ],
            [
              86.92526469131762,
              27.89907754611883
            ],
            [
              86.92739853284266,
              27.899078686655844
            ],
            [
              86.92739889431574,
              27.898537041274878
            ],
            [
              86.92800856030969,
              27.898537361066136
            ],
            [
              86.9280092771563,
              27.897454070151483
            ],
            [
              86.92892376706526,
              27.89745454476738
            ],
            [
              86.92892518243285,
              27.895287962390103
            ],
            [
              86.92953483023591,
              27.895288275399082
            ],
            [
              86.9295337778326,
              27.896913212269624
            ],
            [
              86.92983860629309,
              27.896913367768
            ],
            [
              86.92983825699217,
              27.897455013310665
            ],
            [
              86.93075274693706,
              27.897455475781342
            ],
            [
              86.93075171262582,
              27.89908041218476
            ],
            [
              86.93227588534518,
              27.899081169545394
            ],
            [
              86.93227554814457,
              27.899622814944326
            ],
            [
              86.93044653177422,
              27.899621904070596
            ],
            [
              86.93044670493347,
              27.89935108138011
            ],
            [
              86.92739835210162,
              27.89934950933735
            ],
            [
              86.92739817135161,
              27.899620332000882
            ],
            [
              86.92374013917684,
              27.899618356524723
            ],
            [
              86.92373994932689,
              27.899889179152325
            ],
            [
              86.92160609209033,
              27.899887981949583
            ],
            [
              86.92160589692234,
              27.900158804550234
            ],
            [
              86.91977687198207,
              27.900157752066082
            ],
            [
              86.91977807027178,
              27.898532816327414
            ],
            [
              86.91855873858033,
              27.898532101232515
            ],
            [
              86.91855934679367,
              27.897719633241913
            ],
            [
              86.91764485488149,
              27.89771908985998
            ],
            [
              86.917645059895,
              27.89744826718746
            ],
            [
              86.91734023002417,
              27.89744808471268
            ],
            [
              86.91734043578327,
              27.897177262022193
            ],
            [
              86.91703560667601,
              27.897177078882656
            ]
          ]
        ]
      },
      "id": "+4442+1849",
      "properties": {
        "area_m2": 393321.40614986286,
        "count": 436,
        "water": 1
      }
    }
  ]
}
