{
  "type": "FeatureCollection",
  "features": [
    {
      "type": "Feature",
      "geometry": {
        "geodesic": false,
        "type": "Polygon",
        "coordinates": [
          [
            [
              86.91612111936318,
              27.89717652540366
            ],
            [
              86.91612132815861,
              27.896905702713177
            ],
            [
              86.91642615650231,
              27.89690588787392
            ],
            [
              86.91642636453416,
              27.896635065174454
            ],
            [
              86.9173408473015,
              27.896635616623257
            ],
            [
              86.91734105306062,
              27.896364793905825
            ],
            [
              86.91795070673867,
              27.896365158154705
            ],
            [
              86.9179505024977,
              27.896635980881122
            ],
            [
              86.91825533010478,
              27.89663616199945
            ],
            [
              86.91825553358218,
              27.896365339273032
            ],
            [
              86.9188651872692,
              27.896365699488477
            ],
            [
              86.91886538922844,
              27.896094876744094
            ],
            [
              86.9206943458249,
              27.896095941193806
            ],
            [
              86.92069474063446,
              27.89555429565114
            ],
            [
              86.92099956522321,
              27.895554470696858
            ],
            [
              86.92099936858199,
              27.895825293477174
            ],
            [
              86.9222186700092,
              27.895825986913692
            ],
            [
              86.92221905721902,
              27.895284341344077
            ],
            [
              86.92282870491428,
              27.89528468400644
            ],
            [
              86.92282755234882,
              27.89690962063444
            ],
            [
              86.92374203756857,
              27.896910129610895
            ],
            [
              86.92374184774556,
              27.897180952355278
            ],
            [
              86.92435150608587,
              27.89718128830723
            ],
            [
              86.92435094114437,
              27.897993756468512
            ],
            [
              86.92465577259624,
              27.897993923438374
            ],
            [
              86.92465558503699,
              27.898264746146825
            ],
            [
              86.9255700816833,
              27.898265243022976
            ],
            [
              86.9255698963968,
              27.89853606571346
            ],
            [
              86.92526506341778,
              27.89853590076481
            ],
            [
              86.92526469131762,
              27.89907754611883
            ],
            [
              86.92495985682945,
              27.899077380487455
            ],
            [
              86.92495967001581,
              27.899348203150993
            ],
            [
              86.9243499995213,
              27.89934786986704
            ],
            [
              86.92434981118052,
              27.899618692512608
            ],
            [
              86.92404497518318,
              27.899618524851043
            ],
            [
              86.9240447860878,
              27.899889347487626
            ],
            [
              86.92373994932689,
              27.899889179152325
            ],
            [
              86.92373918989115,
              27.900972469581887
            ],
            [
              86.9231295103057,
              27.90097213087211
            ],
            [
              86.92312970169176,
              27.900701308289424
            ],
            [
              86.92221518460877,
              27.900700795180715
            ],
            [
              86.92221499094997,
              27.900971617763403
            ],
            [
              86.92099563185093,
              27.90097092417417
            ],
            [
              86.92099602524115,
              27.900429279017782
            ],
            [
              86.91733796642235,
              27.900427133562406
            ],
            [
              86.9173377606273,
              27.900697956118144
            ],
            [
              86.91703292164756,
              27.900697772942674
            ],
            [
              86.91703519362166,
              27.897718724236675
            ],
            [
              86.91673036299623,
              27.89771854041442
            ],
            [
              86.91673057028248,
              27.8974477177419
            ],
            [
              86.91642574042064,
              27.89744753324591
            ],
            [
              86.91642594846147,
              27.897176710564406
            ],
            [
              86.91612111936318,
              27.89717652540366
            ]
          ]
        ]
      },
      "id": "+4313+1796",
      "properties": {
        "area_m2": 363551.5921606001,
        "count": 403,
        "water": 1
      }
    }
  ]
}
