{
  "type": "FeatureCollection",
  "features": [
    {
      "type": "Feature",
      "geometry": {
        "geodesic": false,
        "type": "MultiPolygon",
        "coordinates": [
          [
            [
              [
                86.92435263590598,
                27.895556351688214
              ],
              [
                86.92435282419287,
                27.89528552888095
              ],
              [
                86.92557211967322,
                27.89528619264611
              ],
              [
                86.92557193441365,
                27.895557015462362
              ],
              [
                86.92435263590598,
                27.895556351688214
              ]
            ]
          ],
          [
            [
              [
                86.92435263590598,
                27.895556351688214
              ],
              [
                86.92435188270454,
                27.89663964280948
              ],
              [
                86.92374222739157,
                27.89663930686651
              ],
              [
                86.92374146808159,
                27.89772259779913
              ],
              [
                86.92282697603466,
                27.897722088795724
              ],
              [
                86.92282563119379,
                27.899617847485384
              ],
              [
                86.92404497518318,
                27.899618524851043
              ],
              [
                86.9240447860878,
                27.899889347487626
              ],
              [
                86.92434962284872,
                27.89988951514919
              ],
              [
                86.92434924616715,
                27.900431160386432
              ],
              [
                86.92373956960903,
                27.900430824389566
              ],
              [
                86.92373937975009,
                27.900701646990218
              ],
              [
                86.92404421878373,
                27.90070181532552
              ],
              [
                86.9240440296794,
                27.90097263791719
              ],
              [
                86.92251983073821,
                27.90097178947637
              ],
              [
                86.92252002363344,
                27.900700966893684
              ],
              [
                86.92221518460877,
                27.900700795180715
              ],
              [
                86.92221537826758,
                27.900429972589045
              ],
              [
                86.92252021652868,
                27.900430144302014
              ],
              [
                86.92252040942392,
                27.900159321692378
              ],
              [
                86.92160589692234,
                27.900158804550234
              ],
              [
                86.92160609209033,
                27.899887981949583
              ],
              [
                86.92099641861341,
                27.899887633816476
              ],
              [
                86.92099622192728,
                27.900158456417127
              ],
              [
                86.92069138443874,
                27.900158281344464
              ],
              [
                86.92069118698903,
                27.900429103936133
              ],
              [
                86.92099602524115,
                27.900429279017782
              ],
              [
                86.92099582854604,
                27.900700101600467
              ],
              [
                86.92130066756172,
                27.90070027600838
              ],
              [
                86.92130027568965,
                27.901241921146806
              ],
              [
                86.9209954351558,
                27.90124174672991
              ],
              [
                86.92099563185093,
                27.90097092417417
              ],
              [
                86.9191665932832,
                27.900969863551282
              ],
              [
                86.91916639203363,
                27.90124068610702
              ],
              [
                86.91764218951715,
                27.9012397837044
              ],
              [
                86.91764239455762,
                27.90096896116663
              ],
              [
                86.91733755482328,
                27.900968778664897
              ],
              [
                86.91733714320623,
                27.901510423731455
              ],
              [
                86.91672746071023,
                27.901510056697795
              ],
              [
                86.91672725337907,
                27.90178087920862
              ],
              [
                86.9161175693739,
                27.901780509480012
              ],
              [
                86.91611715166627,
                27.90232215445674
              ],
              [
                86.914592934112,
                27.902321218304415
              ],
              [
                86.91459335940141,
                27.901779573345657
              ],
              [
                86.91489820139051,
                27.90177976192
              ],
              [
                86.91489883702943,
                27.900967294387534
              ],
              [
                86.91428915760567,
                27.900966916583076
              ],
              [
                86.91428937100046,
                27.90069609405429
              ],
              [
                86.91398453205665,
                27.900695904132473
              ],
              [
                86.91398474619704,
                27.900425081603682
              ],
              [
                86.91367990801679,
                27.900424891017114
              ],
              [
                86.91368033781573,
                27.899883245914623
              ],
              [
                86.9142900111579,
                27.899883626405042
              ],
              [
                86.91429022453472,
                27.899612803840323
              ],
              [
                86.91489989636773,
                27.899613181626815
              ],
              [
                86.9149001082264,
                27.89934235904413
              ],
              [
                86.91550977855023,
                27.899342734135676
              ],
              [
                86.91550998888177,
                27.899071911535025
              ],
              [
                86.91916800196734,
                27.899074105409593
              ],
              [
                86.91916840442155,
                27.898532460127438
              ],
              [
                86.91947323734666,
                27.89853263856879
              ],
              [
                86.91947343780572,
                27.89826181590525
              ],
              [
                86.9206927664968,
                27.89826252290633
              ],
              [
                86.92069296391955,
                27.89799170022483
              ],
              [
                86.92130262676041,
                27.897992049678457
              ],
              [
                86.9213032144742,
                27.89717958157107
              ],
              [
                86.92160804362638,
                27.897179755278298
              ],
              [
                86.92160823875842,
                27.89690893255188
              ],
              [
                86.92221789555363,
                27.896909277936143
              ],
              [
                86.9222186700092,
                27.895825986913692
              ],
              [
                86.92282832073178,
                27.895826329594023
              ],
              [
                86.92282851282752,
                27.895555506804723
              ],
              [
                86.92435263590598,
                27.895556351688214
              ]
            ],
            [
              [
                86.91764259959808,
                27.900698138619877
              ],
              [
                86.91764280463855,
                27.900427316055154
              ],
              [
                86.91794764286371,
                27.90042749787417
              ],
              [
                86.91794743857783,
                27.900698320438888
              ],
              [
                86.91764259959808,
                27.900698138619877
              ]
            ],
            [
              [
                86.91916679453277,
                27.900699040995544
              ],
              [
                86.91916719702294,
                27.900157395839155
              ],
              [
                86.9194720345025,
                27.900157574289487
              ],
              [
                86.91947163353049,
                27.900699219445876
              ],
              [
                86.91916679453277,
                27.900699040995544
              ]
            ]
          ]
        ]
      },
      "id": "+4152+2166",
      "properties": {
        "area_m2": 306718.3915123789,
        "count": 340,
        "water": 1
      }
    }
  ]
}
