{
  "type": "FeatureCollection",
  "features": [
    {
      "type": "Feature",
      "geometry": {
        "geodesic": false,
        "type": "MultiPolygon",
        "coordinates": [
          [
            [
              [
                86.92038773613098,
                27.898533169832447
              ],
              [
                86.92252156673248,
                27.898534385854898
              ],
              [
                86.92252060231917,
                27.899888499082742
              ],
              [
                86.92221576556724,
                27.899888327378758
              ],
              [
                86.92221634650774,
                27.899075859477982
              ],
              [
                86.92038733974935,
                27.899074815123583
              ],
              [
                86.92038773613098,
                27.898533169832447
              ]
            ]
          ],
          [
            [
              [
                86.92038773613098,
                27.898533169832447
              ],
              [
                86.92008290319689,
                27.898532993412307
              ],
              [
                86.92008310214678,
                27.898262170757757
              ],
              [
                86.92038793431729,
                27.89826234716891
              ],
              [
                86.92038773613098,
                27.898533169832447
              ]
            ]
          ]
        ]
      },
      "id": "+4145+2155",
      "properties": {
        "area_m2": 16238.035225428777,
        "count": 18,
        "water": 1
      }
    }
  ]
}
