{
  "type": "FeatureCollection",
  "features": [
    {
      "type": "Feature",
      "geometry": {
        "geodesic": false,
        "type": "MultiPolygon",
        "coordinates": [
          [
            [
              [
                86.91429022453472,
                27.899612803840323
              ],
              [
                86.91398538862721,
                27.899612613927488
              ],
              [
                86.91398560275863,
                27.899341791353784
              ],
              [
                86.91429043791156,
                27.89934198125764
              ],
              [
                86.91429022453472,
                27.899612803840323
              ]
            ]
          ],
          [
            [
              [
                86.91733920115672,
                27.898802197985436
              ],
              [
                86.9173408473015,
                27.896635616623257
              ],
              [
                86.9176456748996,
                27.896635799089058
              ],
              [
                86.91764587989515,
                27.896364976371625
              ],
              [
                86.9191700141217,
                27.8963658785856
              ],
              [
                86.91917021532636,
                27.89609505584121
              ],
              [
                86.9206943458249,
                27.896095941193806
              ],
              [
                86.92069454322969,
                27.895825118431457
              ],
              [
                86.9213041939343,
                27.895825467849154
              ],
              [
                86.92130438981195,
                27.895554645068838
              ],
              [
                86.92252368822082,
                27.89555533581041
              ],
              [
                86.92252388106216,
                27.895284513012125
              ],
              [
                86.92404800033175,
                27.89528536125532
              ],
              [
                86.9240481893822,
                27.895014538439067
              ],
              [
                86.9261819511638,
                27.895015697661044
              ],
              [
                86.92618213489622,
                27.894744874817846
              ],
              [
                86.92679177962704,
                27.89474519995408
              ],
              [
                86.92679086850178,
                27.896099314062273
              ],
              [
                86.92770534699315,
                27.896099796736056
              ],
              [
                86.92770516704263,
                27.896370619525356
              ],
              [
                86.9270955131939,
                27.896370298413576
              ],
              [
                86.9270951502386,
                27.896911943965225
              ],
              [
                86.92648549337153,
                27.896911620149513
              ],
              [
                86.9264843953428,
                27.898536556525983
              ],
              [
                86.92709406132775,
                27.898536880368642
              ],
              [
                86.92709460579665,
                27.89772441221634
              ],
              [
                86.9267897750814,
                27.897724250636372
              ],
              [
                86.92679013956385,
                27.897182605156587
              ],
              [
                86.92739979795805,
                27.897182927624826
              ],
              [
                86.92739997868111,
                27.896912104862476
              ],
              [
                86.92861929246914,
                27.89691274171411
              ],
              [
                86.92861769320741,
                27.899350146242885
              ],
              [
                86.92770318737134,
                27.89934966957883
              ],
              [
                86.92770300738488,
                27.899620492242363
              ],
              [
                86.92709333532731,
                27.899620171085665
              ],
              [
                86.92709315382271,
                27.899890993740218
              ],
              [
                86.9258738066982,
                27.899890343333002
              ],
              [
                86.92587343760741,
                27.900431988588206
              ],
              [
                86.92373956960903,
                27.900430824389566
              ],
              [
                86.92373937975009,
                27.900701646990218
              ],
              [
                86.92130066756172,
                27.90070027600838
              ],
              [
                86.9213004716212,
                27.900971098582083
              ],
              [
                86.92069079208963,
                27.90097074908354
              ],
              [
                86.92069098953934,
                27.90069992651882
              ],
              [
                86.92099582854604,
                27.900700101600467
              ],
              [
                86.92099622192728,
                27.900158456417127
              ],
              [
                86.91977687198207,
                27.900157752066082
              ],
              [
                86.91977727141796,
                27.899616106864773
              ],
              [
                86.9188627635427,
                27.899615571531747
              ],
              [
                86.91886316752407,
                27.89907392629451
              ],
              [
                86.91855833308979,
                27.89907374650569
              ],
              [
                86.91855873858033,
                27.898532101232515
              ],
              [
                86.91764423984094,
                27.89853155783262
              ],
              [
                86.91764403481844,
                27.898802380469203
              ],
              [
                86.91733920115672,
                27.898802197985436
              ]
            ],
            [
              [
                86.9255691552238,
                27.899619356394552
              ],
              [
                86.9255695258148,
                27.899077711076465
              ],
              [
                86.92709369832754,
                27.899078525749612
              ],
              [
                86.92709351683192,
                27.89934934842213
              ],
              [
                86.92617901103176,
                27.89934886163406
              ],
              [
                86.92617882725442,
                27.899619684297598
              ],
              [
                86.9255691552238,
                27.899619356394552
              ]
            ],
            [
              [
                86.92770354733526,
                27.89880802420684
              ],
              [
                86.92770390729018,
                27.898266378798922
              ],
              [
                86.92800873952359,
                27.898266538357685
              ],
              [
                86.9280083810958,
                27.898808183765603
              ],
              [
                86.92770354733526,
                27.89880802420684
              ]
            ],
            [
              [
                86.91947283641059,
                27.89907428385094
              ],
              [
                86.91947263593357,
                27.899345106478545
              ],
              [
                86.91916780073572,
                27.899344928037195
              ],
              [
                86.91916800196734,
                27.899074105409593
              ],
              [
                86.91947283641059,
                27.89907428385094
              ]
            ],
            [
              [
                86.91947283641059,
                27.89907428385094
              ],
              [
                86.91947323734666,
                27.89853263856879
              ],
              [
                86.91977807027178,
                27.898532816327414
              ],
              [
                86.91977767085385,
                27.899074461618554
              ],
              [
                86.91947283641059,
                27.89907428385094
              ]
            ]
          ],
          [
            [
              [
                86.91429022453472,
                27.899612803840323
              ],
              [
                86.91459506045123,
                27.899612993070438
              ],
              [
                86.91459527306449,
                27.899342170487753
              ],
              [
                86.9149001082264,
                27.89934235904413
              ],
              [
                86.9149003200761,
                27.89907153645246
              ],
              [
                86.91611965770541,
                27.899072283922642
              ],
              [
                86.9161198665188,
                27.89880146130402
              ],
              [
                86.91733920115672,
                27.898802197985436
              ],
              [
                86.91733899537066,
                27.899073020604057
              ],
              [
                86.91764382979595,
                27.899073203096805
              ],
              [
                86.91764362477345,
                27.89934402570644
              ],
              [
                86.91733878958459,
                27.899343843222674
              ],
              [
                86.91733837801246,
                27.899885488415
              ],
              [
                86.91703354131442,
                27.89988530524851
              ],
              [
                86.9170333347558,
                27.900156127822214
              ],
              [
                86.91642365985058,
                27.90015575945905
              ],
              [
                86.91642345178279,
                27.90042658202377
              ],
              [
                86.91550893717016,
                27.900426024421506
              ],
              [
                86.91550872681168,
                27.900696846968263
              ],
              [
                86.91520388785887,
                27.900696659750373
              ],
              [
                86.91520367673681,
                27.900967482288145
              ],
              [
                86.91550851646217,
                27.90096766950603
              ],
              [
                86.91550830610367,
                27.901238492025836
              ],
              [
                86.91581314657464,
                27.901238678578974
              ],
              [
                86.9158129369797,
                27.901509501089794
              ],
              [
                86.91642261945775,
                27.901509872174856
              ],
              [
                86.916422411372,
                27.901780694685677
              ],
              [
                86.9161175693739,
                27.901780509480012
              ],
              [
                86.91611736052458,
                27.902051331972867
              ],
              [
                86.91520283225756,
                27.902050772313462
              ],
              [
                86.91520325450168,
                27.90150912731877
              ],
              [
                86.91489841326715,
                27.90150893941816
              ],
              [
                86.91489862515279,
                27.90123811690734
              ],
              [
                86.91459378468183,
                27.901237928341978
              ],
              [
                86.91459484782898,
                27.89988381564414
              ],
              [
                86.9142900111579,
                27.899883626405042
              ],
              [
                86.91429022453472,
                27.899612803840323
              ]
            ],
            [
              [
                86.91611965770541,
                27.899072283922642
              ],
              [
                86.91672932652905,
                27.899072653615313
              ],
              [
                86.91672891192061,
                27.89961429881662
              ],
              [
                86.91642407598614,
                27.89961411430266
              ],
              [
                86.91642428405393,
                27.89934329171099
              ],
              [
                86.91611944888304,
                27.899343106523293
              ],
              [
                86.91611965770541,
                27.899072283922642
              ]
            ]
          ]
        ]
      },
      "id": "+4666+1848",
      "properties": {
        "area_m2": 553897.5245832269,
        "count": 614,
        "water": 1
      }
    }
  ]
}
