{
  "type": "FeatureCollection",
  "features": [
    {
      "type": "Feature",
      "geometry": {
        "geodesic": false,
        "type": "MultiPolygon",
        "coordinates": [
          [
            [
              [
                86.92008449469715,
                27.896366411816565
              ],
              [
                86.91977966783568,
                27.89636623474964
              ],
              [
                86.9197798675132,
                27.896095412005256
              ],
              [
                86.9200846936201,
                27.896095589072182
              ],
              [
                86.92008449469715,
                27.896366411816565
              ]
            ]
          ],
          [
            [
              [
                86.94264454436235,
                27.89096118490875
              ],
              [
                86.94294935622196,
                27.890961311391543
              ],
              [
                86.94294921424323,
                27.89123213447729
              ],
              [
                86.94264440162004,
                27.89123200798551
              ],
              [
                86.94264454436235,
                27.89096118490875
              ]
            ]
          ],
          [
            [
              [
                86.9170358131987,
                27.89690625618319
              ],
              [
                86.91795029825674,
                27.896906803589573
              ],
              [
                86.9179505024977,
                27.896635980881122
              ],
              [
                86.9176456748996,
                27.896635799089058
              ],
              [
                86.91764587989515,
                27.896364976371625
              ],
              [
                86.91795070673867,
                27.896365158154705
              ],
              [
                86.91795091097065,
                27.896094335428288
              ],
              [
                86.91886538922844,
                27.896094876744094
              ],
              [
                86.91886498530997,
                27.896636522214894
              ],
              [
                86.92008429576524,
                27.89663723456095
              ],
              [
                86.92008449469715,
                27.896366411816565
              ],
              [
                86.92069414842011,
                27.89636676393819
              ],
              [
                86.9206943458249,
                27.896095941193806
              ],
              [
                86.920389519718,
                27.896095765465372
              ],
              [
                86.92038971788635,
                27.895824942712004
              ],
              [
                86.92099936858199,
                27.895825293477174
              ],
              [
                86.92099956522321,
                27.895554470696858
              ],
              [
                86.9222188636141,
                27.895555164133377
              ],
              [
                86.92221905721902,
                27.895284341344077
              ],
              [
                86.9231335287664,
                27.89528485432702
              ],
              [
                86.9231337200896,
                27.895014031519754
              ],
              [
                86.92343854318713,
                27.895014201166596
              ],
              [
                86.92343835261853,
                27.895285023982844
              ],
              [
                86.92374317647065,
                27.89528519295595
              ],
              [
                86.92374336628467,
                27.8950143701397
              ],
              [
                86.92435301248874,
                27.8950147060647
              ],
              [
                86.92435320077561,
                27.894743883239467
              ],
              [
                86.92465802311857,
                27.894744050182382
              ],
              [
                86.92465821065086,
                27.894473227348165
              ],
              [
                86.92496303223923,
                27.894473393617343
              ],
              [
                86.9249628454705,
                27.89474421646054
              ],
              [
                86.92526766782244,
                27.89474438205598
              ],
              [
                86.92526785383659,
                27.89447355921278
              ],
              [
                86.92618231862865,
                27.894474051965666
              ],
              [
                86.92618250236107,
                27.8942032291045
              ],
              [
                86.92770660661084,
                27.894204036869603
              ],
              [
                86.92770678654338,
                27.893933213990472
              ],
              [
                86.92923088706515,
                27.893934004885214
              ],
              [
                86.9292310632068,
                27.893663181988117
              ],
              [
                86.92953588255837,
                27.893663338142265
              ],
              [
                86.92953605793646,
                27.893392515236183
              ],
              [
                86.92984087653345,
                27.893392670716594
              ],
              [
                86.92984070190994,
                27.893663493631657
              ],
              [
                86.93105997936111,
                27.89366410881593
              ],
              [
                86.93106015094831,
                27.893393285891882
              ],
              [
                86.93136496955427,
                27.89339343800361
              ],
              [
                86.93136479873063,
                27.893664260927657
              ],
              [
                86.93166961810016,
                27.89366441236565
              ],
              [
                86.93166995822928,
                27.893122766508572
              ],
              [
                86.93227959394102,
                27.89312306735436
              ],
              [
                86.93227942539012,
                27.89339389028739
              ],
              [
                86.93288906262899,
                27.893394188447214
              ],
              [
                86.93288889559625,
                27.893665011380246
              ],
              [
                86.93319371498374,
                27.89366515944057
              ],
              [
                86.93319354870559,
                27.893935982364617
              ],
              [
                86.93288872856351,
                27.89393583429531
              ],
              [
                86.93288839448904,
                27.89447748010747
              ],
              [
                86.93319321614028,
                27.894477628176777
              ],
              [
                86.93319338242743,
                27.89420680527968
              ],
              [
                86.93349820332409,
                27.89420695267525
              ],
              [
                86.93349803780052,
                27.894477775581333
              ],
              [
                86.93380285946076,
                27.894477922303167
              ],
              [
                86.93380335374975,
                27.893665453557976
              ],
              [
                86.93410817313725,
                27.893665599606077
              ],
              [
                86.9341083371337,
                27.893394776664064
              ],
              [
                86.93502279304141,
                27.893395210747975
              ],
              [
                86.93502311647084,
                27.892853564828016
              ],
              [
                86.93471829935608,
                27.89285342081011
              ],
              [
                86.93471846183436,
                27.892582597841148
              ],
              [
                86.93349919641165,
                27.892582015032158
              ],
              [
                86.93349936191724,
                27.892311192054212
              ],
              [
                86.93319454632963,
                27.892311044667625
              ],
              [
                86.93319438006046,
                27.89258186764557
              ],
              [
                86.93288956371825,
                27.892581719585245
              ],
              [
                86.932889730742,
                27.8923108966073
              ],
              [
                86.93228009956675,
                27.892310598474424
              ],
              [
                86.93227993102485,
                27.892581421443385
              ],
              [
                86.93167029834942,
                27.89258112060658
              ],
              [
                86.93167046840948,
                27.892310297637618
              ],
              [
                86.93136565283083,
                27.892310146208608
              ],
              [
                86.93136548201619,
                27.892580969168588
              ],
              [
                86.93106066568296,
                27.892580817065845
              ],
              [
                86.93106083726119,
                27.892309994105865
              ],
              [
                86.93045120612187,
                27.892309687870185
              ],
              [
                86.9304510330255,
                27.892580510830165
              ],
              [
                86.92953658405277,
                27.89258004642811
              ],
              [
                86.92953623331455,
                27.89312169231214
              ],
              [
                86.92892659764773,
                27.893121379330108
              ],
              [
                86.92892712830952,
                27.89230891050407
              ],
              [
                86.92953675942188,
                27.892309223477117
              ],
              [
                86.92953693479099,
                27.892038400508152
              ],
              [
                86.9286224903907,
                27.892037930051455
              ],
              [
                86.92862266803255,
                27.891767107082494
              ],
              [
                86.93014673824514,
                27.891767887799325
              ],
              [
                86.93014691208712,
                27.891497064812395
              ],
              [
                86.93045172538403,
                27.891497218927366
              ],
              [
                86.93045189846244,
                27.89122639592247
              ],
              [
                86.92984227340473,
                27.891226087018794
              ],
              [
                86.92984209879918,
                27.891496910014705
              ],
              [
                86.9286228456744,
                27.891496284095567
              ],
              [
                86.92862320094012,
                27.890954638103743
              ],
              [
                86.92892801270092,
                27.890954795587394
              ],
              [
                86.92892783582263,
                27.89122561859229
              ],
              [
                86.92953746087137,
                27.891225931547368
              ],
              [
                86.9295376362315,
                27.890955108542475
              ],
              [
                86.93075688331962,
                27.89095572635881
              ],
              [
                86.93075705564344,
                27.890684903326967
              ],
              [
                86.93228111076434,
                27.89068566042709
              ],
              [
                86.93228077370746,
                27.89122730648179
              ],
              [
                86.93258558625878,
                27.891227455880607
              ],
              [
                86.93258608955789,
                27.89041498677609
              ],
              [
                86.93441495124732,
                27.890415868993564
              ],
              [
                86.93441511446223,
                27.890145045925788
              ],
              [
                86.936548781229,
                27.890146044502043
              ],
              [
                86.93654893912588,
                27.889875221416297
              ],
              [
                86.93837779188607,
                27.889876051046397
              ],
              [
                86.93837794523748,
                27.889605227933703
              ],
              [
                86.94051160157481,
                27.889606165164004
              ],
              [
                86.94051174960818,
                27.889335342033345
              ],
              [
                86.94234059343013,
                27.889336119076066
              ],
              [
                86.94234073691804,
                27.88906529592744
              ],
              [
                86.94538880252256,
                27.88906653706679
              ],
              [
                86.9453889384197,
                27.888795713891213
              ],
              [
                86.9459985500476,
                27.88879595403784
              ],
              [
                86.94599868442658,
                27.888525130844297
              ],
              [
                86.94752270974139,
                27.88852571939352
              ],
              [
                86.9475225791533,
                27.888796542587063
              ],
              [
                86.94782738497624,
                27.888796658281088
              ],
              [
                86.94782751480075,
                27.888525835078564
              ],
              [
                86.94813231987808,
                27.888525950098852
              ],
              [
                86.94813244893905,
                27.888255126887344
              ],
              [
                86.94996127483961,
                27.8882558028157
              ],
              [
                86.94995928240326,
                27.892588972996073
              ],
              [
                86.94874001657628,
                27.892588524997258
              ],
              [
                86.94874065443403,
                27.891234409631423
              ],
              [
                86.94721659116541,
                27.891233834494045
              ],
              [
                86.94721672252605,
                27.89096301139932
              ],
              [
                86.9469119106305,
                27.89096289434884
              ],
              [
                86.94691177851527,
                27.891233717443566
              ],
              [
                86.94660696586514,
                27.891233599719346
              ],
              [
                86.94660683298635,
                27.89150442280509
              ],
              [
                86.94508276598972,
                27.891503824077954
              ],
              [
                86.94508290265941,
                27.89123300099221
              ],
              [
                86.94477809001826,
                27.891232879225573
              ],
              [
                86.94477781516073,
                27.89177452537011
              ],
              [
                86.94447300101041,
                27.891774402929737
              ],
              [
                86.94447383011949,
                27.890149464379345
              ],
              [
                86.94416902052363,
                27.890149341274217
              ],
              [
                86.9441692983905,
                27.889607695003917
              ],
              [
                86.9438644903128,
                27.889607571225053
              ],
              [
                86.94386407123076,
                27.890420040599064
              ],
              [
                86.9441688815812,
                27.89042016438691
              ],
              [
                86.94416874263878,
                27.890690987490622
              ],
              [
                86.94386393153374,
                27.890690863711757
              ],
              [
                86.94386379182775,
                27.8909616867975
              ],
              [
                86.94416860369635,
                27.890961810585345
              ],
              [
                86.9441681868601,
                27.891774279806643
              ],
              [
                86.94355855856844,
                27.891774031557215
              ],
              [
                86.94355897995915,
                27.890961562335917
              ],
              [
                86.94325416809056,
                27.8909614372006
              ],
              [
                86.94325430930571,
                27.890690614114856
              ],
              [
                86.94355912041974,
                27.890690739250175
              ],
              [
                86.9435592608803,
                27.890419916146467
              ],
              [
                86.94264482982898,
                27.89041953872828
              ],
              [
                86.94264454436235,
                27.89096118490875
              ],
              [
                86.94233973250273,
                27.89096105775222
              ],
              [
                86.94233944549998,
                27.89150270389676
              ],
              [
                86.94325388565125,
                27.89150308335412
              ],
              [
                86.94325360319398,
                27.892044729462725
              ],
              [
                86.94264397340214,
                27.892044477161893
              ],
              [
                86.94264383065085,
                27.892315300193737
              ],
              [
                86.94294864631034,
                27.892315426685514
              ],
              [
                86.94294779434813,
                27.89394036467895
              ],
              [
                86.94355743476703,
                27.893940615650273
              ],
              [
                86.9435572942885,
                27.894211438619237
              ],
              [
                86.94599586212657,
                27.89421241557304
              ],
              [
                86.94599572771166,
                27.894483238542
              ],
              [
                86.94630054946172,
                27.894483357622676
              ],
              [
                86.94630041580139,
                27.894754180582655
              ],
              [
                86.94691006081968,
                27.89475441674076
              ],
              [
                86.9469099286775,
                27.895025239682774
              ],
              [
                86.94934851488613,
                27.89502615734777
              ],
              [
                86.94934864096467,
                27.894755334396773
              ],
              [
                86.9499582860099,
                27.894755557062183
              ],
              [
                86.9499580368981,
                27.89529720298214
              ],
              [
                86.94812909265347,
                27.895296526856157
              ],
              [
                86.9481289635476,
                27.89556734978919
              ],
              [
                86.94630001481141,
                27.895566649381745
              ],
              [
                86.9462998811421,
                27.895837472296808
              ],
              [
                86.94416610240033,
                27.895836624484808
              ],
              [
                86.94416596342197,
                27.896107447372923
              ],
              [
                86.94233700572957,
                27.8961066943781
              ],
              [
                86.94233686219675,
                27.896377517257232
              ],
              [
                86.94020307300757,
                27.896376608072334
              ],
              [
                86.94020292415672,
                27.896647430924514
              ],
              [
                86.9383739575261,
                27.89664662532435
              ],
              [
                86.9383738041208,
                27.896917448158565
              ],
              [
                86.93624000449319,
                27.89691647760975
              ],
              [
                86.93623984577884,
                27.897187300425998
              ],
              [
                86.93441087020997,
                27.89718644222049
              ],
              [
                86.93441070694116,
                27.897457265018772
              ],
              [
                86.9322768968931,
                27.897456233097056
              ],
              [
                86.93227672830628,
                27.89772705586839
              ],
              [
                86.93044774381714,
                27.89772614505754
              ],
              [
                86.93044757067585,
                27.897996967810908
              ],
              [
                86.9283137502253,
                27.89799587451629
              ],
              [
                86.92831357176598,
                27.898266697242708
              ],
              [
                86.92648457835656,
                27.898265733826516
              ],
              [
                86.9264843953428,
                27.898536556525983
              ],
              [
                86.92435056449874,
                27.898535401858467
              ],
              [
                86.92435037617592,
                27.898806224539968
              ],
              [
                86.92252137385522,
                27.898805208518432
              ],
              [
                86.92252118097794,
                27.899076031172985
              ],
              [
                86.92038733974935,
                27.899074815123583
              ],
              [
                86.92038714155406,
                27.89934563776017
              ],
              [
                86.91855813034003,
                27.899344569124306
              ],
              [
                86.91855792759027,
                27.899615391733942
              ],
              [
                86.91642407598614,
                27.89961411430266
              ],
              [
                86.91642386792734,
                27.899884936885346
              ],
              [
                86.91459484782898,
                27.89988381564414
              ],
              [
                86.91459463520674,
                27.90015463819988
              ],
              [
                86.91398496034643,
                27.90015425905693
              ],
              [
                86.91398517448681,
                27.89988343650119
              ],
              [
                86.9142900111579,
                27.899883626405042
              ],
              [
                86.91429022453472,
                27.899612803840323
              ],
              [
                86.91459506045123,
                27.899612993070438
              ],
              [
                86.91459548567775,
                27.899071347896083
              ],
              [
                86.91520515448342,
                27.899071724326117
              ],
              [
                86.91520557666466,
                27.898530079106845
              ],
              [
                86.915815242443,
                27.898530452832954
              ],
              [
                86.9158162902649,
                27.897176339560193
              ],
              [
                86.91612111936318,
                27.89717652540366
              ],
              [
                86.91612153695404,
                27.896634880013707
              ],
              [
                86.9170360197124,
                27.89663543348372
              ],
              [
                86.9170358131987,
                27.89690625618319
              ]
            ],
            [
              [
                86.9170358131987,
                27.89690625618319
              ],
              [
                86.91703560667601,
                27.897177078882656
              ],
              [
                86.91642594846147,
                27.897176710564406
              ],
              [
                86.91642615650231,
                27.89690588787392
              ],
              [
                86.9170358131987,
                27.89690625618319
              ]
            ],
            [
              [
                86.93045120612187,
                27.892309687870185
              ],
              [
                86.93014639055221,
                27.892309533746232
              ],
              [
                86.93014656440317,
                27.89203871077727
              ],
              [
                86.93045137920926,
                27.892038864901224
              ],
              [
                86.93045120612187,
                27.892309687870185
              ]
            ],
            [
              [
                86.94447383011949,
                27.890149464379345
              ],
              [
                86.94447424464707,
                27.88933699496042
              ],
              [
                86.94477905197918,
                27.889337117391808
              ],
              [
                86.94477863972433,
                27.890149586819717
              ],
              [
                86.94447383011949,
                27.890149464379345
              ]
            ],
            [
              [
                86.92770606679521,
                27.895016505444115
              ],
              [
                86.92770624673675,
                27.894745682600917
              ],
              [
                86.92801106910665,
                27.89474584213273
              ],
              [
                86.92801088992869,
                27.895016664984908
              ],
              [
                86.92770606679521,
                27.895016505444115
              ]
            ],
            [
              [
                86.9289255362523,
                27.89474631668574
              ],
              [
                86.92892589005376,
                27.894204670945445
              ],
              [
                86.92923071092349,
                27.894204827782314
              ],
              [
                86.92923035863117,
                27.89474647352261
              ],
              [
                86.9289255362523,
                27.89474631668574
              ]
            ],
            [
              [
                86.93044982131497,
                27.89447627126256
              ],
              [
                86.93045016752568,
                27.893934625477346
              ],
              [
                86.93075498764979,
                27.893934778936547
              ],
              [
                86.93075464294824,
                27.894476424721756
              ],
              [
                86.93044982131497,
                27.89447627126256
              ]
            ],
            [
              [
                86.93136582364549,
                27.892039323230666
              ],
              [
                86.93136599446014,
                27.891768500243735
              ],
              [
                86.9322804366416,
                27.891768952500566
              ],
              [
                86.93228026810867,
                27.892039775487493
              ],
              [
                86.93136582364549,
                27.892039323230666
              ]
            ],
            [
              [
                86.93319521136141,
                27.891227752657027
              ],
              [
                86.93319537761262,
                27.890956929634168
              ],
              [
                86.93350018940936,
                27.890957077011773
              ],
              [
                86.93350002392171,
                27.891227900043617
              ],
              [
                86.93319521136141,
                27.891227752657027
              ]
            ],
            [
              [
                86.93380500121508,
                27.890957223715642
              ],
              [
                86.93380516594813,
                27.89068640066583
              ],
              [
                86.93410997699027,
                27.890686546695964
              ],
              [
                86.9341098130118,
                27.89095736973679
              ],
              [
                86.93380500121508,
                27.890957223715642
              ]
            ],
            [
              [
                86.93868168511051,
                27.891501125404094
              ],
              [
                86.93868183771632,
                27.89123030235428
              ],
              [
                86.93898665031254,
                27.89123043759565
              ],
              [
                86.93898649847031,
                27.89150126064546
              ],
              [
                86.93868168511051,
                27.891501125404094
              ]
            ],
            [
              [
                86.93898604292565,
                27.89231372973201
              ],
              [
                86.93898619477686,
                27.89204290671813
              ],
              [
                86.93929100965481,
                27.892043041294745
              ],
              [
                86.93929085855818,
                27.892313864308623
              ],
              [
                86.93898604292565,
                27.89231372973201
              ]
            ],
            [
              [
                86.93929191614477,
                27.890418102959945
              ],
              [
                86.93929206722343,
                27.89014727986522
              ],
              [
                86.93959687679235,
                27.890147413759113
              ],
              [
                86.93959672646827,
                27.89041823685384
              ],
              [
                86.93929191614477,
                27.890418102959945
              ]
            ],
            [
              [
                86.93959477216539,
                27.893938936115102
              ],
              [
                86.93959492250744,
                27.893668113155123
              ],
              [
                86.93989974193087,
                27.893668246393247
              ],
              [
                86.93989959235239,
                27.893939069353227
              ],
              [
                86.93959477216539,
                27.893938936115102
              ]
            ],
            [
              [
                86.93959582452379,
                27.89204317519762
              ],
              [
                86.93959612518093,
                27.891501529124948
              ],
              [
                86.93990093854073,
                27.891501662345103
              ],
              [
                86.93990078897123,
                27.891772485394913
              ],
              [
                86.9402056030946,
                27.89177261795032
              ],
              [
                86.94020545428867,
                27.892043440982164
              ],
              [
                86.93959582452379,
                27.89204317519762
              ]
            ],
            [
              [
                86.94050982499463,
                27.892856041905464
              ],
              [
                86.9405101211063,
                27.89231439588669
              ],
              [
                86.94081493675681,
                27.89231452709462
              ],
              [
                86.94081464215431,
                27.892856173113394
              ],
              [
                86.94050982499463,
                27.892856041905464
              ]
            ],
            [
              [
                86.94051026916662,
                27.89204357286383
              ],
              [
                86.940510861372,
                27.890960280655605
              ],
              [
                86.94081567322263,
                27.89096041185455
              ],
              [
                86.94081523135033,
                27.89177288103093
              ],
              [
                86.94142485960604,
                27.891773141425585
              ],
              [
                86.94142471382744,
                27.89204396445743
              ],
              [
                86.94051026916662,
                27.89204357286383
              ]
            ],
            [
              [
                86.94111960585616,
                27.892585480642694
              ],
              [
                86.94111975239834,
                27.892314657628816
              ],
              [
                86.94142456804883,
                27.892314787489273
              ],
              [
                86.94142442226125,
                27.892585610512132
              ],
              [
                86.94111960585616,
                27.892585480642694
              ]
            ],
            [
              [
                86.94112019200688,
                27.891502188515314
              ],
              [
                86.94112033854007,
                27.891231365456523
              ],
              [
                86.94142515115426,
                27.891231495307995
              ],
              [
                86.94142500537566,
                27.89150231836679
              ],
              [
                86.94112019200688,
                27.891502188515314
              ]
            ],
            [
              [
                86.94112048507326,
                27.890960542388743
              ],
              [
                86.94112063159747,
                27.890689719303
              ],
              [
                86.94142544269351,
                27.890689849154477
              ],
              [
                86.9414252969239,
                27.89096067224022
              ],
              [
                86.94112048507326,
                27.890960542388743
              ]
            ],
            [
              [
                86.94172996376847,
                27.89123162449472
              ],
              [
                86.94173025378956,
                27.890689978332215
              ],
              [
                86.94203506489458,
                27.890690106836214
              ],
              [
                86.94203477638267,
                27.891231752998717
              ],
              [
                86.94172996376847,
                27.89123162449472
              ]
            ],
            [
              [
                86.94294978214917,
                27.89014884209838
              ],
              [
                86.94294992411892,
                27.889878018976706
              ],
              [
                86.9432547329512,
                27.889878144776777
              ],
              [
                86.94325459173605,
                27.890148967898455
              ],
              [
                86.94294978214917,
                27.89014884209838
              ]
            ],
            [
              [
                86.94295006608867,
                27.889607195837062
              ],
              [
                86.9429502080584,
                27.88933637269742
              ],
              [
                86.94325501537256,
                27.889336498497492
              ],
              [
                86.94325487416637,
                27.889607321646118
              ],
              [
                86.94295006608867,
                27.889607195837062
              ]
            ],
            [
              [
                86.94569293338732,
                27.890420773202127
              ],
              [
                86.94569306852988,
                27.890149950080453
              ],
              [
                86.94630268774854,
                27.890150188879606
              ],
              [
                86.94630255412414,
                27.890421012010265
              ],
              [
                86.94569293338732,
                27.890420773202127
              ]
            ],
            [
              [
                86.94660789596283,
                27.889337837831683
              ],
              [
                86.94660802882366,
                27.88906701465611
              ],
              [
                86.94691283540118,
                27.889067132371345
              ],
              [
                86.94691270329493,
                27.889337955537936
              ],
              [
                86.94660789596283,
                27.889337837831683
              ]
            ],
            [
              [
                86.94691217486097,
                27.890421248123452
              ],
              [
                86.94691230697619,
                27.890150424992793
              ],
              [
                86.94721711659002,
                27.89015054203429
              ],
              [
                86.94721698523836,
                27.89042136516495
              ],
              [
                86.94691217486097,
                27.890421248123452
              ]
            ],
            [
              [
                86.9478271253182,
                27.88933830464122
              ],
              [
                86.94782725515171,
                27.889067481465645
              ],
              [
                86.9481320617382,
                27.889067596476952
              ],
              [
                86.94813193266826,
                27.88933841966151
              ],
              [
                86.9478271253182,
                27.88933830464122
              ]
            ],
            [
              [
                86.94233901500034,
                27.892315173028226
              ],
              [
                86.94203419934087,
                27.892315045188976
              ],
              [
                86.9420343436103,
                27.892044222157132
              ],
              [
                86.94172952871438,
                27.89204409364415
              ],
              [
                86.94172981875343,
                27.89150244755351
              ],
              [
                86.9420346321312,
                27.891502576057512
              ],
              [
                86.94203448787074,
                27.891773399116307
              ],
              [
                86.9423393020031,
                27.891773526946572
              ],
              [
                86.94233901500034,
                27.892315173028226
              ]
            ],
            [
              [
                86.94081626235575,
                27.889877119475646
              ],
              [
                86.94081640963455,
                27.889606296353968
              ],
              [
                86.94112121769429,
                27.8896064268702
              ],
              [
                86.94112107117009,
                27.889877250000858
              ],
              [
                86.94081626235575,
                27.889877119475646
              ]
            ],
            [
              [
                86.94081626235575,
                27.889877119475646
              ],
              [
                86.94081611507697,
                27.89014794258834
              ],
              [
                86.94051130549907,
                27.89014781138939
              ],
              [
                86.94051145354143,
                27.889876988276697
              ],
              [
                86.94081626235575,
                27.889877119475646
              ]
            ],
            [
              [
                86.93837656503892,
                27.89204263553471
              ],
              [
                86.93837671839931,
                27.891771812511852
              ],
              [
                86.9386815325137,
                27.891771948435938
              ],
              [
                86.93868137990789,
                27.892042771467782
              ],
              [
                86.93837656503892,
                27.89204263553471
              ]
            ],
            [
              [
                86.93837656503892,
                27.89204263553471
              ],
              [
                86.93837641166955,
                27.89231345854859
              ],
              [
                86.938071596046,
                27.89231332195077
              ],
              [
                86.93807175016995,
                27.892042498936892
              ],
              [
                86.93837656503892,
                27.89204263553471
              ]
            ],
            [
              [
                86.94264383065085,
                27.892315300193737
              ],
              [
                86.94264368790856,
                27.8925861232166
              ],
              [
                86.94233887149448,
                27.892585996051086
              ],
              [
                86.94233901500034,
                27.892315173028226
              ],
              [
                86.94264383065085,
                27.892315300193737
              ]
            ]
          ],
          [
            [
              [
                86.9286228456744,
                27.891496284095567
              ],
              [
                86.92862266803255,
                27.891767107082494
              ],
              [
                86.928317853999,
                27.89176694891612
              ],
              [
                86.92831767560257,
                27.892037771885086
              ],
              [
                86.92801286081445,
                27.892037613044977
              ],
              [
                86.92801303996546,
                27.891766790076012
              ],
              [
                86.92770822594092,
                27.89176663056217
              ],
              [
                86.92770804602632,
                27.892037453522146
              ],
              [
                86.9274032312382,
                27.892037293334567
              ],
              [
                86.92740377324571,
                27.89122482440971
              ],
              [
                86.92831821078289,
                27.891225302942264
              ],
              [
                86.92831803239544,
                27.891496125938176
              ],
              [
                86.9286228456744,
                27.891496284095567
              ]
            ]
          ]
        ]
      },
      "id": "+3132+1922",
      "properties": {
        "area_m2": 1772654.4473392088,
        "count": 1965,
        "water": 1
      }
    }
  ]
}
