{
  "type": "FeatureCollection",
  "features": [
    {
      "type": "Feature",
      "geometry": {
        "geodesic": false,
        "type": "MultiPolygon",
        "coordinates": [
          [
            [
              [
                86.91672808267678,
                27.90069758910245
              ],
              [
                86.91672828998999,
                27.900426766546712
              ],
              [
                86.91703312820617,
                27.900426950386937
              ],
              [
                86.9170333347558,
                27.900156127822214
              ],
              [
                86.9173381722174,
                27.900156310988702
              ],
              [
                86.91733837801246,
                27.899885488415
              ],
              [
                86.91764321471048,
                27.899885670898765
              ],
              [
                86.91764403481844,
                27.898802380469203
              ],
              [
                86.91855853583955,
                27.898802923878087
              ],
              [
                86.91855954952547,
                27.89744881056041
              ],
              [
                86.92008369896948,
                27.897449702704268
              ],
              [
                86.92008330108767,
                27.897991348085238
              ],
              [
                86.9203881325036,
                27.89799152448741
              ],
              [
                86.92038793431729,
                27.89826234716891
              ],
              [
                86.92282659180724,
                27.89826373419466
              ],
              [
                86.92282678392094,
                27.897992911504176
              ],
              [
                86.92313161535485,
                27.897993081842717
              ],
              [
                86.92313180671397,
                27.89772225914325
              ],
              [
                86.9234366373933,
                27.89772242880806
              ],
              [
                86.92343682798884,
                27.897451606090623
              ],
              [
                86.92404648783831,
                27.89745194339903
              ],
              [
                86.92404686598414,
                27.89691029792823
              ],
              [
                86.92435169439071,
                27.896910465562847
              ],
              [
                86.92435094114437,
                27.897993756468512
              ],
              [
                86.92465577259624,
                27.897993923438374
              ],
              [
                86.92465558503699,
                27.898264746146825
              ],
              [
                86.92526524946787,
                27.89826507806534
              ],
              [
                86.92526469131762,
                27.89907754611883
              ],
              [
                86.92495985682945,
                27.899077380487455
              ],
              [
                86.92495967001581,
                27.899348203150993
              ],
              [
                86.92465483476406,
                27.899348036845883
              ],
              [
                86.92465464718684,
                27.89961885949145
              ],
              [
                86.92404497518318,
                27.899618524851043
              ],
              [
                86.9240447860878,
                27.899889347487626
              ],
              [
                86.92313027581405,
                27.899888840469497
              ],
              [
                86.92313008444594,
                27.900159663088118
              ],
              [
                86.91977687198207,
                27.900157752066082
              ],
              [
                86.91977667225963,
                27.900428574648767
              ],
              [
                86.91733796642235,
                27.900427133562406
              ],
              [
                86.9173377606273,
                27.900697956118144
              ],
              [
                86.91672808267678,
                27.90069758910245
              ]
            ]
          ],
          [
            [
              [
                86.91672808267678,
                27.90069758910245
              ],
              [
                86.91672746071023,
                27.901510056697795
              ],
              [
                86.91611777821424,
                27.90150968696919
              ],
              [
                86.9161175693739,
                27.901780509480012
              ],
              [
                86.91550788537772,
                27.90178013704748
              ],
              [
                86.91550746463379,
                27.902321782024206
              ],
              [
                86.91520262112653,
                27.90232159478835
              ],
              [
                86.91520367673681,
                27.900967482288145
              ],
              [
                86.91550851646217,
                27.90096766950603
              ],
              [
                86.91550872681168,
                27.900696846968263
              ],
              [
                86.91672808267678,
                27.90069758910245
              ]
            ]
          ]
        ]
      },
      "id": "+4258+1900",
      "properties": {
        "area_m2": 195758.51509637077,
        "count": 217,
        "water": 1
      }
    }
  ]
}
