{
  "type": "FeatureCollection",
  "features": [
    {
      "type": "Feature",
      "geometry": {
        "geodesic": false,
        "type": "MultiPolygon",
        "coordinates": [
          [
            [
              [
                86.90575388166046,
                27.900690521562037
              ],
              [
                86.90575364702052,
                27.90096134402794
              ],
              [
                86.90544880740296,
                27.90096113523252
              ],
              [
                86.90544904280648,
                27.900690312766613
              ],
              [
                86.90575388166046,
                27.900690521562037
              ]
            ]
          ],
          [
            [
              [
                86.90880431375982,
                27.898255169557924
              ],
              [
                86.90849948169709,
                27.898254967526817
              ],
              [
                86.90849970947392,
                27.897984144935148
              ],
              [
                86.90880454078206,
                27.897984346966258
              ],
              [
                86.90880431375982,
                27.898255169557924
              ]
            ]
          ],
          [
            [
              [
                86.91886599509719,
                27.89528240846603
              ],
              [
                86.91795152366659,
                27.895281867159206
              ],
              [
                86.91795172788959,
                27.89501104438787
              ],
              [
                86.91886619703847,
                27.89501158568571
              ],
              [
                86.91886599509719,
                27.89528240846603
              ]
            ]
          ],
          [
            [
              [
                86.90880431375982,
                27.898255169557924
              ],
              [
                86.90941397789426,
                27.89825557159893
              ],
              [
                86.90941375238118,
                27.8985263941906
              ],
              [
                86.90971858521647,
                27.898526594200497
              ],
              [
                86.90971903470648,
                27.897984949008176
              ],
              [
                86.91002386602361,
                27.897985148335355
              ],
              [
                86.91002409000056,
                27.89771432572572
              ],
              [
                86.909719259447,
                27.89771412639854
              ],
              [
                86.90971948418752,
                27.89744330377992
              ],
              [
                86.90941465438854,
                27.897443103770023
              ],
              [
                86.90941442889344,
                27.897713926388644
              ],
              [
                86.9091095983399,
                27.89771372571399
              ],
              [
                86.90911005084824,
                27.89717208046777
              ],
              [
                86.90880522182182,
                27.89717187911938
              ],
              [
                86.9088054488261,
                27.896901056482797
              ],
              [
                86.90850062056325,
                27.896900854469653
              ],
              [
                86.90850016502756,
                27.89744249972486
              ],
              [
                86.90880499480858,
                27.897442701746982
              ],
              [
                86.90880476779532,
                27.897713524365603
              ],
              [
                86.90819510671516,
                27.897713119638635
              ],
              [
                86.90819602082283,
                27.896629829128226
              ],
              [
                86.90850084833109,
                27.896630031824085
              ],
              [
                86.90850107608995,
                27.896359209169535
              ],
              [
                86.91033003663,
                27.896360411142332
              ],
              [
                86.9103302598344,
                27.896089588469817
              ],
              [
                86.91063508584249,
                27.896089786431553
              ],
              [
                86.91063486340165,
                27.896360609113056
              ],
              [
                86.91124451694495,
                27.89636100303329
              ],
              [
                86.9112447378766,
                27.89609018035179
              ],
              [
                86.91276886799785,
                27.89609115333504
              ],
              [
                86.91276908512964,
                27.895820330626588
              ],
              [
                86.91307391040111,
                27.895820523198438
              ],
              [
                86.91307369403289,
                27.89609134590689
              ],
              [
                86.91368334610294,
                27.896091729038357
              ],
              [
                86.91368356096199,
                27.89582090632092
              ],
              [
                86.91429321153187,
                27.89582128674846
              ],
              [
                86.91429342486377,
                27.895550464022044
              ],
              [
                86.91612237209978,
                27.895551589108038
              ],
              [
                86.91612258087724,
                27.895280766354674
              ],
              [
                86.91642740466648,
                27.895280951506436
              ],
              [
                86.91642719665259,
                27.895551774259804
              ],
              [
                86.91673202119642,
                27.89555195874681
              ],
              [
                86.91673222846471,
                27.89528113598446
              ],
              [
                86.91734187606116,
                27.895281502919307
              ],
              [
                86.91734146456089,
                27.895823148435024
              ],
              [
                86.91764628988625,
                27.89582333089184
              ],
              [
                86.91764649487281,
                27.895552508138476
              ],
              [
                86.91795131943461,
                27.89555268993054
              ],
              [
                86.91795111520263,
                27.895823512683904
              ],
              [
                86.91856076586232,
                27.895823874228856
              ],
              [
                86.91856096856718,
                27.895553051475492
              ],
              [
                86.91886579313795,
                27.89555323123736
              ],
              [
                86.91886599509719,
                27.89528240846603
              ],
              [
                86.91917081891339,
                27.895282587554163
              ],
              [
                86.91917102010007,
                27.895011764764863
              ],
              [
                86.91947584316168,
                27.895011943179263
              ],
              [
                86.91947564272957,
                27.895282765968563
              ],
              [
                86.92069493803027,
                27.895283472870826
              ],
              [
                86.92069513542607,
                27.895012650081526
              ],
              [
                86.92099995849665,
                27.89501282511826
              ],
              [
                86.9210001551289,
                27.894742002310995
              ],
              [
                86.92160979976988,
                27.894742350363252
              ],
              [
                86.92160999488397,
                27.894471527547
              ],
              [
                86.92404856747413,
                27.89447289277962
              ],
              [
                86.9240487565156,
                27.89420206992744
              ],
              [
                86.92526803984175,
                27.8942027363606
              ],
              [
                86.9252682258469,
                27.893931913499436
              ],
              [
                86.92709714635804,
                27.893932892905642
              ],
              [
                86.92709732780874,
                27.893662070017527
              ],
              [
                86.9292310632068,
                27.893663181988117
              ],
              [
                86.92923123933949,
                27.89339235908204
              ],
              [
                86.93106015094831,
                27.893393285891882
              ],
              [
                86.93106032252652,
                27.893122462958853
              ],
              [
                86.93166995822928,
                27.893122766508572
              ],
              [
                86.931668937806,
                27.894747703954035
              ],
              [
                86.93075447059748,
                27.894747247600886
              ],
              [
                86.93075326406124,
                27.896643007440392
              ],
              [
                86.93105809176713,
                27.896643160243823
              ],
              [
                86.93105792015298,
                27.896913983042104
              ],
              [
                86.93319171951109,
                27.896915033810476
              ],
              [
                86.93319288357499,
                27.895019273953004
              ],
              [
                86.93380252993175,
                27.895019568079395
              ],
              [
                86.93380335374975,
                27.893665453557976
              ],
              [
                86.93441299252474,
                27.893665744971454
              ],
              [
                86.93441282928289,
                27.893936567904486
              ],
              [
                86.935022469594,
                27.893936856623018
              ],
              [
                86.93502166093957,
                27.895290971126467
              ],
              [
                86.93715542863207,
                27.895291960486006
              ],
              [
                86.93715574147934,
                27.894750314691812
              ],
              [
                86.93837503128235,
                27.894750865197384
              ],
              [
                86.9383757981831,
                27.89339675050529
              ],
              [
                86.93868061684296,
                27.893396886438357
              ],
              [
                86.93868000636586,
                27.894480178215392
              ],
              [
                86.9392896497582,
                27.894480448078287
              ],
              [
                86.93928934753798,
                27.895022093908413
              ],
              [
                86.94111828689576,
                27.895022887318436
              ],
              [
                86.94111814033562,
                27.8952937102335
              ],
              [
                86.94325190832457,
                27.895294605216034
              ],
              [
                86.94325317950357,
                27.89285719854029
              ],
              [
                86.94294836232594,
                27.89285707272225
              ],
              [
                86.94294850432263,
                27.892586249708373
              ],
              [
                86.94264368790856,
                27.8925861232166
              ],
              [
                86.94264354515727,
                27.892856946230477
              ],
              [
                86.94142427648265,
                27.89285643351703
              ],
              [
                86.94142442226125,
                27.892585610512132
              ],
              [
                86.94111960585616,
                27.892585480642694
              ],
              [
                86.9411200454737,
                27.891773011565125
              ],
              [
                86.94203448787074,
                27.891773399116307
              ],
              [
                86.9420346321312,
                27.891502576057512
              ],
              [
                86.94264425888673,
                27.891502831053288
              ],
              [
                86.94264397340214,
                27.892044477161893
              ],
              [
                86.94325360319398,
                27.892044729462725
              ],
              [
                86.9432533207367,
                27.892586375526413
              ],
              [
                86.94416777000586,
                27.89258674893811
              ],
              [
                86.94416763104547,
                27.89285757196097
              ],
              [
                86.94630135136981,
                27.89285841966517
              ],
              [
                86.94630188594826,
                27.891775127483896
              ],
              [
                86.94721632843513,
                27.89177548065655
              ],
              [
                86.94721672252605,
                27.89096301139932
              ],
              [
                86.94782634630816,
                27.89096324347009
              ],
              [
                86.94782647615065,
                27.890692420357396
              ],
              [
                86.94965534299642,
                27.89069310039105
              ],
              [
                86.94965546828446,
                27.890422277269376
              ],
              [
                86.94996027867982,
                27.890422388247245
              ],
              [
                86.9499581614585,
                27.895026380031144
              ],
              [
                86.94965333817231,
                27.895026269026324
              ],
              [
                86.94965321285733,
                27.89529709197732
              ],
              [
                86.9499580368981,
                27.89529720298214
              ],
              [
                86.9499579123377,
                27.89556802591517
              ],
              [
                86.94965308753336,
                27.895567914910348
              ],
              [
                86.94965296221838,
                27.89583873784338
              ],
              [
                86.94812883443275,
                27.895838172704252
              ],
              [
                86.9481287053179,
                27.896108995619315
              ],
              [
                86.94690940008184,
                27.896108531369975
              ],
              [
                86.946909532233,
                27.895837708463894
              ],
              [
                86.94660470669204,
                27.89583759072171
              ],
              [
                86.94660457377731,
                27.89610841361881
              ],
              [
                86.94629974747279,
                27.896108295202886
              ],
              [
                86.94629961380348,
                27.896379118091
              ],
              [
                86.94447065148475,
                27.896378393402095
              ],
              [
                86.94447051326098,
                27.896649216272245
              ],
              [
                86.94325120205112,
                27.896648719656604
              ],
              [
                86.9432514845623,
                27.896107073907327
              ],
              [
                86.94294665828473,
                27.89610694807132
              ],
              [
                86.9429463742464,
                27.8966485938206
              ],
              [
                86.94264154645069,
                27.896648467301876
              ],
              [
                86.94264140367245,
                27.896919290154056
              ],
              [
                86.94081243238854,
                27.89691851691121
              ],
              [
                86.94081228505586,
                27.897189339745424
              ],
              [
                86.93898330928936,
                27.897188542221116
              ],
              [
                86.9389831574022,
                27.897459365037363
              ],
              [
                86.93715417715312,
                27.897458543231593
              ],
              [
                86.9371540207115,
                27.89772936602089
              ],
              [
                86.93471537444152,
                27.897728232517682
              ],
              [
                86.93471521191832,
                27.897999055289016
              ],
              [
                86.93349588580541,
                27.89799847234528
              ],
              [
                86.9334957202459,
                27.898269295098643
              ],
              [
                86.93197155886328,
                27.898268551248673
              ],
              [
                86.93197138951288,
                27.898539373984075
              ],
              [
                86.93014239136934,
                27.898538459103857
              ],
              [
                86.93014221745551,
                27.89880928182129
              ],
              [
                86.92983738368599,
                27.898809126978684
              ],
              [
                86.92983930486797,
                27.895830076556905
              ],
              [
                86.92770552695265,
                27.895828973928793
              ],
              [
                86.92770498708312,
                27.896641442314657
              ],
              [
                86.92587602101842,
                27.89664047087651
              ],
              [
                86.92587472937579,
                27.89853622999736
              ],
              [
                86.9264843953428,
                27.898536556525983
              ],
              [
                86.92648421232902,
                27.89880737922545
              ],
              [
                86.92678904608059,
                27.898807541479158
              ],
              [
                86.92678886382139,
                27.89907836416066
              ],
              [
                86.92648402931525,
                27.899078201906953
              ],
              [
                86.92648384630148,
                27.899349024570487
              ],
              [
                86.92465483476406,
                27.899348036845883
              ],
              [
                86.92465464718684,
                27.89961885949145
              ],
              [
                86.92434981118052,
                27.899618692512608
              ],
              [
                86.9243499995213,
                27.89934786986704
              ],
              [
                86.92374032903578,
                27.899347533879155
              ],
              [
                86.92374051887674,
                27.899076711224602
              ],
              [
                86.92160667757629,
                27.89907551405779
              ],
              [
                86.92160609209033,
                27.899887981949583
              ],
              [
                86.92099641861341,
                27.899887633816476
              ],
              [
                86.92099622192728,
                27.900158456417127
              ],
              [
                86.91916719702294,
                27.900157395839155
              ],
              [
                86.91916699578235,
                27.90042821842184
              ],
              [
                86.91733796642235,
                27.900427133562406
              ],
              [
                86.9173377606273,
                27.900697956118144
              ],
              [
                86.91550872681168,
                27.900696846968263
              ],
              [
                86.91550851646217,
                27.90096766950603
              ],
              [
                86.91367947819987,
                27.900966536065706
              ],
              [
                86.91367926328692,
                27.90123735858551
              ],
              [
                86.91215506103096,
                27.901236395501694
              ],
              [
                86.9121552797348,
                27.900965572999855
              ],
              [
                86.91185044005437,
                27.90096537836188
              ],
              [
                86.91185000111955,
                27.901507023347595
              ],
              [
                86.91154515991197,
                27.901506828035885
              ],
              [
                86.91154538014295,
                27.90123600554303
              ],
              [
                86.91124053970792,
                27.901235809557583
              ],
              [
                86.91124031872236,
                27.901506632041457
              ],
              [
                86.91063063633416,
                27.901506238040373
              ],
              [
                86.91063085884686,
                27.9012354155565
              ],
              [
                86.91032601841184,
                27.901235217549846
              ],
              [
                86.91032579515354,
                27.901506040024735
              ],
              [
                86.91002095396394,
                27.90150584133536
              ],
              [
                86.9100211779858,
                27.901235018860472
              ],
              [
                86.90941149715168,
                27.901234619469495
              ],
              [
                86.90941127161166,
                27.901505441944384
              ],
              [
                86.90849674809674,
                27.901504837791425
              ],
              [
                86.90849697591848,
                27.901234015325517
              ],
              [
                86.90910665673462,
                27.901234418767896
              ],
              [
                86.90910710932383,
                27.900692773800152
              ],
              [
                86.90849743154399,
                27.900692370366755
              ],
              [
                86.90849788715154,
                27.90015072536308
              ],
              [
                86.90788821241698,
                27.900150319252706
              ],
              [
                86.90788752444222,
                27.90096278672229
              ],
              [
                86.90819236407775,
                27.90096299012782
              ],
              [
                86.90819190693408,
                27.90150463505963
              ],
              [
                86.90788706577142,
                27.9015044316541
              ],
              [
                86.90788660709164,
                27.902046076532013
              ],
              [
                86.907276921739,
                27.90204566769076
              ],
              [
                86.90727715259705,
                27.901774845251804
              ],
              [
                86.90697231068879,
                27.901774639825064
              ],
              [
                86.90697277391403,
                27.901232994929185
              ],
              [
                86.90636309314282,
                27.901232582054497
              ],
              [
                86.90636355939539,
                27.90069093713167
              ],
              [
                86.90575388166046,
                27.900690521562037
              ],
              [
                86.90575435094037,
                27.900148876603275
              ],
              [
                86.90514467625971,
                27.90014845834768
              ],
              [
                86.90514609310954,
                27.89852352324682
              ],
              [
                86.9054509258909,
                27.89852373269801
              ],
              [
                86.9054497489901,
                27.89987784532398
              ],
              [
                86.90575458557134,
                27.89987805411042
              ],
              [
                86.9057548202023,
                27.8996072315996
              ],
              [
                86.90605965602897,
                27.8996074397123
              ],
              [
                86.9060594221526,
                27.899878262223123
              ],
              [
                86.90636425874283,
                27.899878469662088
              ],
              [
                86.90636472495947,
                27.89933682463146
              ],
              [
                86.9057550548243,
                27.89933640908878
              ],
              [
                86.90575552406827,
                27.89879476402222
              ],
              [
                86.90667002472107,
                27.89879538630318
              ],
              [
                86.90667025706134,
                27.898524563747447
              ],
              [
                86.90697508986068,
                27.898524769829955
              ],
              [
                86.90697485828397,
                27.898795592385692
              ],
              [
                86.9072796918469,
                27.898795797794463
              ],
              [
                86.907279922669,
                27.89852497523873
              ],
              [
                86.90849925391129,
                27.898525790109506
              ],
              [
                86.90849902612548,
                27.89879661268321
              ],
              [
                86.90910869328724,
                27.898797016071686
              ],
              [
                86.9091089195549,
                27.898526193497982
              ],
              [
                86.90880408673759,
                27.898525992140613
              ],
              [
                86.90880431375982,
                27.898255169557924
              ]
            ],
            [
              [
                86.90697277391403,
                27.901232994929185
              ],
              [
                86.90697300552667,
                27.900962172472262
              ],
              [
                86.90758268479772,
                27.90096258264302
              ],
              [
                86.90758245470325,
                27.90123340510893
              ],
              [
                86.90697277391403,
                27.901232994929185
              ]
            ],
            [
              [
                86.90911005084824,
                27.89717208046777
              ],
              [
                86.90911027709794,
                27.896901257831182
              ],
              [
                86.90941510536977,
                27.896901458505834
              ],
              [
                86.90941487988366,
                27.89717228114242
              ],
              [
                86.90911005084824,
                27.89717208046777
              ]
            ],
            [
              [
                86.91429321153187,
                27.89582128674846
              ],
              [
                86.9149028621197,
                27.895821664481055
              ],
              [
                86.91490243847421,
                27.896363309915923
              ],
              [
                86.91459761166664,
                27.89636312137751
              ],
              [
                86.91459739908032,
                27.896633944076978
              ],
              [
                86.91429257150918,
                27.896633754873815
              ],
              [
                86.91429278485906,
                27.89636293217435
              ],
              [
                86.91398795805148,
                27.896362742297445
              ],
              [
                86.91398817214696,
                27.896091919588994
              ],
              [
                86.91429299819995,
                27.896092109465897
              ],
              [
                86.91429321153187,
                27.89582128674846
              ]
            ],
            [
              [
                86.9063637925082,
                27.900420114647797
              ],
              [
                86.90636402563001,
                27.900149292163928
              ],
              [
                86.9066688629838,
                27.900149498929157
              ],
              [
                86.90666863062557,
                27.90042032142201
              ],
              [
                86.9063637925082,
                27.900420114647797
              ]
            ],
            [
              [
                86.90697346873397,
                27.900420527513504
              ],
              [
                86.90697370033762,
                27.90014970502065
              ],
              [
                86.9075833750542,
                27.900150115182424
              ],
              [
                86.9075829148832,
                27.900691760168133
              ],
              [
                86.90727807601125,
                27.90069155541513
              ],
              [
                86.90727830685134,
                27.90042073293126
              ],
              [
                86.90697346873397,
                27.900420527513504
              ]
            ],
            [
              [
                86.90697393193227,
                27.899878882509825
              ],
              [
                86.90697416352694,
                27.899608059999004
              ],
              [
                86.90727899936259,
                27.899608265407778
              ],
              [
                86.9072787685315,
                27.899879087927584
              ],
              [
                86.90697393193227,
                27.899878882509825
              ]
            ],
            [
              [
                86.90971768619151,
                27.8996098844504
              ],
              [
                86.90971791095,
                27.899339061903643
              ],
              [
                86.910022746058,
                27.899339261248787
              ],
              [
                86.91002252206309,
                27.89961008379554
              ],
              [
                86.90971768619151,
                27.8996098844504
              ]
            ],
            [
              [
                86.9100229700619,
                27.89906843868407
              ],
              [
                86.91002319405682,
                27.898797616110365
              ],
              [
                86.91032802764668,
                27.898797814781773
              ],
              [
                86.91032780441533,
                27.899068637355477
              ],
              [
                86.9100229700619,
                27.89906843868407
              ]
            ],
            [
              [
                86.91093592101305,
                27.900964790405546
              ],
              [
                86.91093614275319,
                27.90069396790371
              ],
              [
                86.91124098167006,
                27.90069416456289
              ],
              [
                86.91124076069349,
                27.90096498706473
              ],
              [
                86.91093592101305,
                27.900964790405546
              ]
            ],
            [
              [
                86.91673160666883,
                27.896093604226596
              ],
              [
                86.91673181393712,
                27.895822781491194
              ],
              [
                86.91703663924451,
                27.895822965295487
              ],
              [
                86.91703643273979,
                27.89609378803987
              ],
              [
                86.91673160666883,
                27.896093604226596
              ]
            ],
            [
              [
                86.9475193139569,
                27.895567119011993
              ],
              [
                86.9475194445899,
                27.895296296087945
              ],
              [
                86.94782426862169,
                27.89529641180892
              ],
              [
                86.94782413875225,
                27.895567234732965
              ],
              [
                86.9475193139569,
                27.895567119011993
              ]
            ],
            [
              [
                86.9481289635476,
                27.89556734978919
              ],
              [
                86.94812909265347,
                27.895296526856157
              ],
              [
                86.94843391669426,
                27.89529664122966
              ],
              [
                86.94843378833397,
                27.89556746416269
              ],
              [
                86.9481289635476,
                27.89556734978919
              ]
            ],
            [
              [
                86.9161219545359,
                27.89609323457884
              ],
              [
                86.91612174574047,
                27.896364057305256
              ],
              [
                86.91551209209835,
                27.89636368495357
              ],
              [
                86.91551230241193,
                27.896092862236138
              ],
              [
                86.9161219545359,
                27.89609323457884
              ]
            ],
            [
              [
                86.91337808883166,
                27.896633183203935
              ],
              [
                86.91337830445428,
                27.89636236051345
              ],
              [
                86.91368313125288,
                27.896362551737823
              ],
              [
                86.91368291638484,
                27.89663337442831
              ],
              [
                86.91337808883166,
                27.896633183203935
              ]
            ],
            [
              [
                86.9161219545359,
                27.89609323457884
              ],
              [
                86.91612216331335,
                27.89582241185242
              ],
              [
                86.91642698862074,
                27.895822597004187
              ],
              [
                86.91642678059787,
                27.896093419739586
              ],
              [
                86.9161219545359,
                27.89609323457884
              ]
            ],
            [
              [
                86.91124385414098,
                27.897173471023898
              ],
              [
                86.91124407508163,
                27.896902648369345
              ],
              [
                86.91154890337143,
                27.89690284432784
              ],
              [
                86.9115491235485,
                27.89663202165532
              ],
              [
                86.9118539510927,
                27.8966322169311
              ],
              [
                86.9118537316702,
                27.896903039603618
              ],
              [
                86.91215855996899,
                27.896903234205656
              ],
              [
                86.91215834131008,
                27.897174056869193
              ],
              [
                86.91124385414098,
                27.897173471023898
              ]
            ],
            [
              [
                86.91154648123494,
                27.89988189296197
              ],
              [
                86.91185131787907,
                27.8998820882647
              ],
              [
                86.91185109842964,
                27.90015291080247
              ],
              [
                86.91154626102193,
                27.900152715499743
              ],
              [
                86.91154648123494,
                27.89988189296197
              ]
            ],
            [
              [
                86.91337787320904,
                27.896904005885435
              ],
              [
                86.91368270152579,
                27.896904197118793
              ],
              [
                86.91368248665776,
                27.897175019782328
              ],
              [
                86.91337765757744,
                27.89717482854897
              ],
              [
                86.91337787320904,
                27.896904005885435
              ]
            ],
            [
              [
                86.91154648123494,
                27.89988189296197
              ],
              [
                86.9112416445998,
                27.89988169698551
              ],
              [
                86.91124186556739,
                27.899610874429772
              ],
              [
                86.91154670144795,
                27.899611070406234
              ],
              [
                86.91154648123494,
                27.89988189296197
              ]
            ],
            [
              [
                86.91002409000056,
                27.89771432572572
              ],
              [
                86.91002453795446,
                27.897172680470515
              ],
              [
                86.91124385414098,
                27.897173471023898
              ],
              [
                86.91124363320033,
                27.897444293669466
              ],
              [
                86.91063397358442,
                27.897443899731265
              ],
              [
                86.91063352865785,
                27.897985544977484
              ],
              [
                86.91032869734073,
                27.89798534699778
              ],
              [
                86.91032892056309,
                27.89771452437916
              ],
              [
                86.91002409000056,
                27.89771432572572
              ]
            ],
            [
              [
                86.91337787320904,
                27.896904005885435
              ],
              [
                86.91307304489229,
                27.89690381397834
              ],
              [
                86.9130728285061,
                27.897174636641875
              ],
              [
                86.91276799944376,
                27.897174444061047
              ],
              [
                86.91276821658452,
                27.896903621388528
              ],
              [
                86.91246338827676,
                27.89690342813396
              ],
              [
                86.91246360617211,
                27.89663260546144
              ],
              [
                86.91337808883166,
                27.896633183203935
              ],
              [
                86.91337787320904,
                27.896904005885435
              ]
            ]
          ],
          [
            [
              [
                86.90941442889344,
                27.897713926388644
              ],
              [
                86.909719259447,
                27.89771412639854
              ],
              [
                86.90971903470648,
                27.897984949008176
              ],
              [
                86.90941420338936,
                27.89798474899828
              ],
              [
                86.90941442889344,
                27.897713926388644
              ]
            ]
          ]
        ]
      },
      "id": "+7392+1964",
      "properties": {
        "area_m2": 1835801.1584139166,
        "count": 2035,
        "water": 1
      }
    }
  ]
}
