{
  "type": "FeatureCollection",
  "features": [
    {
      "type": "Feature",
      "geometry": {
        "geodesic": false,
        "type": "Polygon",
        "coordinates": [
          [
            [
              86.91520473228422,
              27.899613369509456
            ],
            [
              86.91520536556955,
              27.89880090171648
            ],
            [
              86.9155101992223,
              27.89880108892539
            ],
            [
              86.91551040955383,
              27.898530266306768
            ],
            [
              86.915815242443,
              27.898530452832954
            ],
            [
              86.91581545201097,
              27.898259630196367
            ],
            [
              86.91642511628017,
              27.89826000122753
            ],
            [
              86.91642490823034,
              27.898530823864114
            ],
            [
              86.91672974112849,
              27.89853100836909
            ],
            [
              86.91672891192061,
              27.89961429881662
            ],
            [
              86.91794825568542,
              27.89961503012611
            ],
            [
              86.9179480514175,
              27.89988585271778
            ],
            [
              86.92008190842948,
              27.899887106568286
            ],
            [
              86.92008369896948,
              27.897449702704268
            ],
            [
              86.92221750830787,
              27.897450923388977
            ],
            [
              86.92221789555363,
              27.896909277936143
            ],
            [
              86.92252272395122,
              27.896909449622157
            ],
            [
              86.92252368822082,
              27.89555533581041
            ],
            [
              86.92282851282752,
              27.895555506804723
            ],
            [
              86.92282870491428,
              27.89528468400644
            ],
            [
              86.9231335287664,
              27.89528485432702
            ],
            [
              86.9231337200896,
              27.895014031519754
            ],
            [
              86.92343854318713,
              27.895014201166596
            ],
            [
              86.92343835261853,
              27.895285023982844
            ],
            [
              86.92404800033175,
              27.89528536125532
            ],
            [
              86.92404781128131,
              27.89555618406258
            ],
            [
              86.92343816204992,
              27.895555846781125
            ],
            [
              86.9234358750021,
              27.898805719561015
            ],
            [
              86.92252137385522,
              27.898805208518432
            ],
            [
              86.92252060231917,
              27.899888499082742
            ],
            [
              86.92221576556724,
              27.899888327378758
            ],
            [
              86.9222155719174,
              27.900159149988394
            ],
            [
              86.9194720345025,
              27.900157574289487
            ],
            [
              86.91947183401649,
              27.900428396872172
            ],
            [
              86.91733796642235,
              27.900427133562406
            ],
            [
              86.9173377606273,
              27.900697956118144
            ],
            [
              86.91642324370602,
              27.900697404579507
            ],
            [
              86.91642303562925,
              27.90096822711728
            ],
            [
              86.91581335617855,
              27.900967856050183
            ],
            [
              86.91581356577346,
              27.90069703351241
            ],
            [
              86.91550872681168,
              27.900696846968263
            ],
            [
              86.9155095682097,
              27.899613556718364
            ],
            [
              86.91520473228422,
              27.899613369509456
            ]
          ]
        ]
      },
      "id": "+4185+2167",
      "properties": {
        "area_m2": 168695.13921383754,
        "count": 187,
        "water": 1
      }
    }
  ]
}
