{
  "type": "FeatureCollection",
  "features": [
    {
      "type": "Feature",
      "geometry": {
        "geodesic": false,
        "type": "MultiPolygon",
        "coordinates": [
          [
            [
              [
                86.91459357204161,
                27.901508750843817
              ],
              [
                86.91428873081608,
                27.901508561604718
              ],
              [
                86.91428894421087,
                27.901237739093897
              ],
              [
                86.91459378468183,
                27.901237928341978
              ],
              [
                86.91459357204161,
                27.901508750843817
              ]
            ]
          ],
          [
            [
              [
                86.91703230195374,
                27.901510240555986
              ],
              [
                86.9176419844677,
                27.901510606233188
              ],
              [
                86.91764177940928,
                27.901781428752994
              ],
              [
                86.91703209538615,
                27.901781063066807
              ],
              [
                86.91703230195374,
                27.901510240555986
              ]
            ]
          ],
          [
            [
              [
                86.9213004716212,
                27.900971098582083
              ],
              [
                86.92130027568965,
                27.901241921146806
              ],
              [
                86.91886155152675,
                27.90124050697397
              ],
              [
                86.91886175353989,
                27.900969684427213
              ],
              [
                86.91825207404426,
                27.900969324148885
              ],
              [
                86.91825187051296,
                27.901240146686657
              ],
              [
                86.91855671101985,
                27.90124032716718
              ],
              [
                86.91855650824314,
                27.90151114970495
              ],
              [
                86.9179468257202,
                27.90151078807017
              ],
              [
                86.91794703001506,
                27.901239965532397
              ],
              [
                86.91733734901925,
                27.90123960120267
              ],
              [
                86.91733796642235,
                27.900427133562406
              ],
              [
                86.91672828998999,
                27.900426766546712
              ],
              [
                86.9167278753546,
                27.90096841164022
              ],
              [
                86.91642303562925,
                27.90096822711728
              ],
              [
                86.91642324370602,
                27.900697404579507
              ],
              [
                86.91611840473524,
                27.900697219382828
              ],
              [
                86.91611861357559,
                27.900426396836075
              ],
              [
                86.91550893717016,
                27.900426024421506
              ],
              [
                86.91550872681168,
                27.900696846968263
              ],
              [
                86.91581356577346,
                27.90069703351241
              ],
              [
                86.91581314657464,
                27.901238678578974
              ],
              [
                86.91611798706356,
                27.901238864449386
              ],
              [
                86.91611777821424,
                27.90150968696919
              ],
              [
                86.91672746071023,
                27.901510056697795
              ],
              [
                86.9167270460479,
                27.902051701710455
              ],
              [
                86.91611736052458,
                27.902051331972867
              ],
              [
                86.91611715166627,
                27.90232215445674
              ],
              [
                86.914592934112,
                27.902321218304415
              ],
              [
                86.91459357204161,
                27.901508750843817
              ],
              [
                86.91489841326715,
                27.90150893941816
              ],
              [
                86.91489883702943,
                27.900967294387534
              ],
              [
                86.91459399731305,
                27.900967105822176
              ],
              [
                86.91459420994428,
                27.900696283293385
              ],
              [
                86.91428937100046,
                27.90069609405429
              ],
              [
                86.91428958438628,
                27.900425271516518
              ],
              [
                86.91367990801679,
                27.900424891017114
              ],
              [
                86.91368012292075,
                27.90015406847036
              ],
              [
                86.91398496034643,
                27.90015425905693
              ],
              [
                86.91398538862721,
                27.899612613927488
              ],
              [
                86.91429022453472,
                27.899612803840323
              ],
              [
                86.9142906512794,
                27.89907115866597
              ],
              [
                86.91459548567775,
                27.899071347896083
              ],
              [
                86.91459569829101,
                27.898800525295428
              ],
              [
                86.91490053193478,
                27.898800713842824
              ],
              [
                86.91490074378447,
                27.898529891224204
              ],
              [
                86.91429107802408,
                27.898529513455678
              ],
              [
                86.91429150475079,
                27.897987868200474
              ],
              [
                86.91459633610384,
                27.897988057421603
              ],
              [
                86.91459654870812,
                27.897717234767054
              ],
              [
                86.91520620992303,
                27.89771761117912
              ],
              [
                86.91520578775078,
                27.89825925647026
              ],
              [
                86.91733961271088,
                27.898260552712266
              ],
              [
                86.91734043578327,
                27.897177262022193
              ],
              [
                86.91764526489952,
                27.897177444496975
              ],
              [
                86.91764464986797,
                27.8979899125325
              ],
              [
                86.91794948126594,
                27.897990094333544
              ],
              [
                86.91794927700701,
                27.89826091699708
              ],
              [
                86.91825410915956,
                27.89826109812439
              ],
              [
                86.9182539056642,
                27.89853192076996
              ],
              [
                86.92038773613098,
                27.898533169832447
              ],
              [
                86.92038793431729,
                27.89826234716891
              ],
              [
                86.9213024308558,
                27.898262872359957
              ],
              [
                86.92130262676041,
                27.897992049678457
              ],
              [
                86.92221712105314,
                27.897992568796894
              ],
              [
                86.92221731467602,
                27.897721746097425
              ],
              [
                86.9234366373933,
                27.89772242880806
              ],
              [
                86.92343682798884,
                27.897451606090623
              ],
              [
                86.92496097764845,
                27.897452444299635
              ],
              [
                86.92496116444413,
                27.897181621564233
              ],
              [
                86.92587565199051,
                27.897182116392223
              ],
              [
                86.92587546747656,
                27.897452939136606
              ],
              [
                86.92557063752487,
                27.89745277486169
              ],
              [
                86.92557045224734,
                27.897723597597093
              ],
              [
                86.92526562155005,
                27.89772343264844
              ],
              [
                86.92526543550896,
                27.897994255365873
              ],
              [
                86.92496060404811,
                27.897994089743484
              ],
              [
                86.92496041724344,
                27.89826491244295
              ],
              [
                86.92465558503699,
                27.898264746146825
              ],
              [
                86.92465539746875,
                27.89853556883731
              ],
              [
                86.92374089856767,
                27.89853506588855
              ],
              [
                86.92374032903578,
                27.899347533879155
              ],
              [
                86.92282582332547,
                27.8993470248488
              ],
              [
                86.92282563119379,
                27.899617847485384
              ],
              [
                86.92221595921707,
                27.899617504751156
              ],
              [
                86.92221499094997,
                27.900971617763403
              ],
              [
                86.9213004716212,
                27.900971098582083
              ]
            ],
            [
              [
                86.91459420994428,
                27.900696283293385
              ],
              [
                86.9145944225755,
                27.900425460755617
              ],
              [
                86.91520409896296,
                27.90042583720362
              ],
              [
                86.91520388785887,
                27.900696659750373
              ],
              [
                86.91459420994428,
                27.900696283293385
              ]
            ],
            [
              [
                86.9213004716212,
                27.900971098582083
              ],
              [
                86.92008111255808,
                27.900970396899034
              ],
              [
                86.92008131152593,
                27.90069957433431
              ],
              [
                86.91977647252821,
                27.90069939722247
              ],
              [
                86.91977667225963,
                27.900428574648767
              ],
              [
                86.9203863487459,
                27.900428928180748
              ],
              [
                86.92038654695018,
                27.900158105589078
              ],
              [
                86.92069138443874,
                27.900158281344464
              ],
              [
                86.92069118698903,
                27.900429103936133
              ],
              [
                86.92099602524115,
                27.900429279017782
              ],
              [
                86.92099582854604,
                27.900700101600467
              ],
              [
                86.92130066756172,
                27.90070027600838
              ],
              [
                86.9213004716212,
                27.900971098582083
              ]
            ],
            [
              [
                86.91489968450007,
                27.89988400420052
              ],
              [
                86.9149001082264,
                27.89934235904413
              ],
              [
                86.91520494337934,
                27.89934254692677
              ],
              [
                86.91520452118013,
                27.899884192092145
              ],
              [
                86.91489968450007,
                27.89988400420052
              ]
            ],
            [
              [
                86.91520304337962,
                27.901779949820607
              ],
              [
                86.91520325450168,
                27.90150912731877
              ],
              [
                86.9158129369797,
                27.901509501089794
              ],
              [
                86.91581272736683,
                27.901780323600615
              ],
              [
                86.91520304337962,
                27.901779949820607
              ]
            ],
            [
              [
                86.91886195554403,
                27.900698861871476
              ],
              [
                86.91886235955235,
                27.900157216715087
              ],
              [
                86.91916719702294,
                27.900157395839155
              ],
              [
                86.91916679453277,
                27.900699040995544
              ],
              [
                86.91886195554403,
                27.900698861871476
              ]
            ],
            [
              [
                86.92160589692234,
                27.900158804550234
              ],
              [
                86.92099622192728,
                27.900158456417127
              ],
              [
                86.92099641861341,
                27.899887633816476
              ],
              [
                86.92069158187945,
                27.89988745874381
              ],
              [
                86.92069177932915,
                27.89961663612519
              ],
              [
                86.92160628724932,
                27.899617159321977
              ],
              [
                86.92160589692234,
                27.900158804550234
              ]
            ],
            [
              [
                86.92160589692234,
                27.900158804550234
              ],
              [
                86.92191073441988,
                27.900158977610673
              ],
              [
                86.92191054000648,
                27.900429800211327
              ],
              [
                86.92160570174539,
                27.90042962715089
              ],
              [
                86.92160589692234,
                27.900158804550234
              ]
            ]
          ],
          [
            [
              [
                86.91703230195374,
                27.901510240555986
              ],
              [
                86.91672746071023,
                27.901510056697795
              ],
              [
                86.91672766803242,
                27.901239234177993
              ],
              [
                86.91703250852134,
                27.9012394180272
              ],
              [
                86.91703230195374,
                27.901510240555986
              ]
            ]
          ]
        ]
      },
      "id": "+4253+2159",
      "properties": {
        "area_m2": 299501.47012775997,
        "count": 332,
        "water": 1
      }
    }
  ]
}
