{
  "type": "FeatureCollection",
  "features": [
    {
      "type": "Feature",
      "geometry": {
        "geodesic": false,
        "type": "MultiPolygon",
        "coordinates": [
          [
            [
              [
                86.92160667757629,
                27.89907551405779
              ],
              [
                86.9216064824173,
                27.899346336694375
              ],
              [
                86.92130164719251,
                27.899346162978166
              ],
              [
                86.92130184311507,
                27.899075340332598
              ],
              [
                86.92160667757629,
                27.89907551405779
              ]
            ]
          ],
          [
            [
              [
                86.92252156673248,
                27.898534385854898
              ],
              [
                86.92252195248705,
                27.89799274048291
              ],
              [
                86.92282678392094,
                27.897992911504176
              ],
              [
                86.92282639969353,
                27.898534556867176
              ],
              [
                86.92252156673248,
                27.898534385854898
              ]
            ]
          ],
          [
            [
              [
                86.92252156673248,
                27.898534385854898
              ],
              [
                86.92252118097794,
                27.899076031172985
              ],
              [
                86.92404535336492,
                27.899076879550922
              ],
              [
                86.92404516426956,
                27.899347702214456
              ],
              [
                86.9243499995213,
                27.89934786986704
              ],
              [
                86.92434924616715,
                27.900431160386432
              ],
              [
                86.92404440788809,
                27.900430992724868
              ],
              [
                86.92404459699243,
                27.900160170115228
              ],
              [
                86.92313008444594,
                27.900159663088118
              ],
              [
                86.92313046719113,
                27.899618017841895
              ],
              [
                86.92221595921707,
                27.899617504751156
              ],
              [
                86.9222161528669,
                27.899346682123554
              ],
              [
                86.9219113176421,
                27.899346509745833
              ],
              [
                86.92191151203752,
                27.899075687100265
              ],
              [
                86.92160667757629,
                27.89907551405779
              ],
              [
                86.9216070678853,
                27.898533868739705
              ],
              [
                86.92191190083736,
                27.89853404179116
              ],
              [
                86.92191209523278,
                27.89826321910966
              ],
              [
                86.92221692742127,
                27.898263391478395
              ],
              [
                86.92221673378043,
                27.898534214159895
              ],
              [
                86.92252156673248,
                27.898534385854898
              ]
            ]
          ]
        ]
      },
      "id": "+4523+1836",
      "properties": {
        "area_m2": 29769.73059906552,
        "count": 33,
        "water": 1
      }
    }
  ]
}
