{
  "type": "FeatureCollection",
  "features": [
    {
      "type": "Feature",
      "geometry": {
        "geodesic": false,
        "type": "Polygon",
        "coordinates": [
          [
            [
              86.91977687198207,
              27.900157752066082
            ],
            [
              86.9197770717045,
              27.899886929465428
            ],
            [
              86.92008190842948,
              27.899887106568286
            ],
            [
              86.92008230634723,
              27.89934546134003
            ],
            [
              86.92069197676088,
              27.89934581350657
            ],
            [
              86.92069237163334,
              27.898804168224416
            ],
            [
              86.92130203902865,
              27.89880451768703
            ],
            [
              86.92130341036982,
              27.896908758844653
            ],
            [
              86.92191306715603,
              27.896909105585372
            ],
            [
              86.92191209523278,
              27.89826321910966
            ],
            [
              86.92282659180724,
              27.89826373419466
            ],
            [
              86.92282563119379,
              27.899617847485384
            ],
            [
              86.92404497518318,
              27.899618524851043
            ],
            [
              86.9240447860878,
              27.899889347487626
            ],
            [
              86.92191092882429,
              27.899888155001037
            ],
            [
              86.92191073441988,
              27.900158977610673
            ],
            [
              86.91977687198207,
              27.900157752066082
            ]
          ]
        ]
      },
      "id": "+4110+1780",
      "properties": {
        "area_m2": 56833.12149757603,
        "count": 63,
        "water": 1
      }
    }
  ]
}
