{
  "type": "FeatureCollection",
  "features": [
    {
      "type": "Feature",
      "geometry": {
        "geodesic": false,
        "type": "Polygon",
        "coordinates": [
          [
            [
              86.91977886907169,
              27.897449525619376
            ],
            [
              86.9197798675132,
              27.896095412005256
            ],
            [
              86.9206943458249,
              27.896095941193806
            ],
            [
              86.92069454322969,
              27.895825118431457
            ],
            [
              86.92099936858199,
              27.895825293477174
            ],
            [
              86.92099956522321,
              27.895554470696858
            ],
            [
              86.92130438981195,
              27.895554645068838
            ],
            [
              86.9213041939343,
              27.895825467849154
            ],
            [
              86.9216090192866,
              27.895825641547397
            ],
            [
              86.92160882416356,
              27.896096464309746
            ],
            [
              86.9222184763953,
              27.896096809685023
            ],
            [
              86.9222186700092,
              27.895825986913692
            ],
            [
              86.92282832073178,
              27.895826329594023
            ],
            [
              86.92282793654928,
              27.896367975136688
            ],
            [
              86.92587620553239,
              27.896369648105175
            ],
            [
              86.92587491390772,
              27.89826540729789
            ],
            [
              86.92648457835656,
              27.898265733826516
            ],
            [
              86.92648402931525,
              27.899078201906953
            ],
            [
              86.92617919480911,
              27.899078038970526
            ],
            [
              86.92617901103176,
              27.89934886163406
            ],
            [
              86.92495967001581,
              27.899348203150993
            ],
            [
              86.92495948320216,
              27.899619025805542
            ],
            [
              86.92404497518318,
              27.899618524851043
            ],
            [
              86.9240447860878,
              27.899889347487626
            ],
            [
              86.92130125534737,
              27.899887808215404
            ],
            [
              86.92130145127892,
              27.899616985605768
            ],
            [
              86.92191112323768,
              27.899617332373435
            ],
            [
              86.92191267839212,
              27.897450751029222
            ],
            [
              86.91977886907169,
              27.897449525619376
            ]
          ]
        ]
      },
      "id": "+4118+1785",
      "properties": {
        "area_m2": 192150.13709173896,
        "count": 213,
        "water": 1
      }
    }
  ]
}
