{
  "type": "FeatureCollection",
  "features": [
    {
      "type": "Feature",
      "geometry": {
        "geodesic": false,
        "type": "Polygon",
        "coordinates": [
          [
            [
              86.91825288812451,
              27.899886033863055
            ],
            [
              86.91825370215986,
              27.898802743415526
            ],
            [
              86.91855853583955,
              27.898802923878087
            ],
            [
              86.91855873858033,
              27.898532101232515
            ],
            [
              86.92008290319689,
              27.898532993412307
            ],
            [
              86.92008310214678,
              27.898262170757757
            ],
            [
              86.92038793431729,
              27.89826234716891
            ],
            [
              86.92038852886726,
              27.89744987910644
            ],
            [
              86.9213030185696,
              27.89745040427952
            ],
            [
              86.9213032144742,
              27.89717958157107
            ],
            [
              86.92191287277856,
              27.897179928311786
            ],
            [
              86.92191306715603,
              27.896909105585372
            ],
            [
              86.92282755234882,
              27.89690962063444
            ],
            [
              86.92282774445354,
              27.896638797890056
            ],
            [
              86.92557119334846,
              27.896640306610575
            ],
            [
              86.92557156388555,
              27.896098661058925
            ],
            [
              86.92801017316292,
              27.896099956276853
            ],
            [
              86.92800963556614,
              27.896912424635765
            ],
            [
              86.92831446401763,
              27.896912583511806
            ],
            [
              86.9283137502253,
              27.89799587451629
            ],
            [
              86.92770408725868,
              27.89799555608149
            ],
            [
              86.92770372731272,
              27.898537201507374
            ],
            [
              86.92739889431574,
              27.898537041274878
            ],
            [
              86.9273990750478,
              27.898266218566427
            ],
            [
              86.926789410581,
              27.898265896080222
            ],
            [
              86.9267895928312,
              27.89799507336279
            ],
            [
              86.92617992989152,
              27.897994748190623
            ],
            [
              86.92618011365988,
              27.897723925464206
            ],
            [
              86.9240462987699,
              27.897722766116466
            ],
            [
              86.92404554245131,
              27.898806056887388
            ],
            [
              86.91977787055832,
              27.898803638981967
            ],
            [
              86.91977667225963,
              27.900428574648767
            ],
            [
              86.91855731931405,
              27.90042785949997
            ],
            [
              86.91855772483153,
              27.899886214334597
            ],
            [
              86.91825288812451,
              27.899886033863055
            ]
          ]
        ]
      },
      "id": "+4210+2163",
      "properties": {
        "area_m2": 177716.32176944945,
        "count": 197,
        "water": 1
      }
    }
  ]
}
