{
  "type": "FeatureCollection",
  "features": [
    {
      "type": "Feature",
      "geometry": {
        "geodesic": false,
        "type": "MultiPolygon",
        "coordinates": [
          [
            [
              [
                86.92221828278142,
                27.896367632447376
              ],
              [
                86.92404724411199,
                27.896368652412516
              ],
              [
                86.92404705504357,
                27.896639475174865
              ],
              [
                86.9267905040373,
                27.89664095963189
              ],
              [
                86.92679068627852,
                27.896370136851573
              ],
              [
                86.9270955131939,
                27.896370298413576
              ],
              [
                86.92709587614023,
                27.895828652825994
              ],
              [
                86.9304489557253,
                27.895830385532445
              ],
              [
                86.93044878260199,
                27.896101208348696
              ],
              [
                86.93075360879871,
                27.896101361825863
              ],
              [
                86.93075343642997,
                27.89637218464211
              ],
              [
                86.93105826338129,
                27.89637233744554
              ],
              [
                86.93105774853882,
                27.89718480582242
              ],
              [
                86.93136257777186,
                27.897184957961098
              ],
              [
                86.93136240691229,
                27.89745578073243
              ],
              [
                86.93105757692467,
                27.897455628593754
              ],
              [
                86.93105706205527,
                27.89826809684487
              ],
              [
                86.93075222979492,
                27.898267944032458
              ],
              [
                86.93075171262582,
                27.89908041218476
              ],
              [
                86.93044687808374,
                27.899080258689626
              ],
              [
                86.93044670493347,
                27.89935108138011
              ],
              [
                86.92770318737134,
                27.89934966957883
              ],
              [
                86.92770300738488,
                27.899620492242363
              ],
              [
                86.92404497518318,
                27.899618524851043
              ],
              [
                86.9240447860878,
                27.899889347487626
              ],
              [
                86.92130125534737,
                27.899887808215404
              ],
              [
                86.92130145127892,
                27.899616985605768
              ],
              [
                86.92160628724932,
                27.899617159321977
              ],
              [
                86.9216068727353,
                27.89880469140324
              ],
              [
                86.92221654014857,
                27.898805036823433
              ],
              [
                86.92221828278142,
                27.896367632447376
              ]
            ]
          ],
          [
            [
              [
                86.92221828278142,
                27.896367632447376
              ],
              [
                86.9216086290315,
                27.896367287072096
              ],
              [
                86.9216090192866,
                27.895825641547397
              ],
              [
                86.9222186700092,
                27.895825986913692
              ],
              [
                86.92221828278142,
                27.896367632447376
              ]
            ]
          ]
        ]
      },
      "id": "+4378+1784",
      "properties": {
        "area_m2": 330173.5056921844,
        "count": 366,
        "water": 1
      }
    }
  ]
}
