{
  "type": "FeatureCollection",
  "features": [
    {
      "type": "Feature",
      "geometry": {
        "geodesic": false,
        "type": "Polygon",
        "coordinates": [
          [
            [
              86.9213004716212,
              27.900971098582083
            ],
            [
              86.9213024308558,
              27.898262872359957
            ],
            [
              86.92252175960977,
              27.898263563173394
            ],
            [
              86.92252195248705,
              27.89799274048291
            ],
            [
              86.92374127824961,
              27.897993420507582
            ],
            [
              86.92374089856767,
              27.89853506588855
            ],
            [
              86.92343606560662,
              27.898534896888496
            ],
            [
              86.92343568439756,
              27.89907654222455
            ],
            [
              86.92313084991837,
              27.89907637255076
            ],
            [
              86.92313027581405,
              27.899888840469497
            ],
            [
              86.92252060231917,
              27.899888499082742
            ],
            [
              86.92252040942392,
              27.900159321692378
            ],
            [
              86.92160589692234,
              27.900158804550234
            ],
            [
              86.92160531140044,
              27.90097127231626
            ],
            [
              86.9213004716212,
              27.900971098582083
            ]
          ]
        ]
      },
      "id": "+4226+2156",
      "properties": {
        "area_m2": 46007.766250142115,
        "count": 51,
        "water": 1
      }
    }
  ]
}
