{
  "type": "FeatureCollection",
  "features": [
    {
      "type": "Feature",
      "geometry": {
        "geodesic": false,
        "type": "Polygon",
        "coordinates": [
          [
            [
              86.91520431007604,
              27.900155014656864
            ],
            [
              86.91520452118013,
              27.899884192092145
            ],
            [
              86.91611903122931,
              27.899884751697652
            ],
            [
              86.91611924006067,
              27.899613929114963
            ],
            [
              86.91642407598614,
              27.89961411430266
            ],
            [
              86.91642449211274,
              27.899072469101355
            ],
            [
              86.91672932652905,
              27.899072653615313
            ],
            [
              86.91672953383326,
              27.898801830996693
            ],
            [
              86.91764403481844,
              27.898802380469203
            ],
            [
              86.91764485488149,
              27.89771908985998
            ],
            [
              86.91855934679367,
              27.897719633241913
            ],
            [
              86.91855954952547,
              27.89744881056041
            ],
            [
              86.91886437940529,
              27.897448990340248
            ],
            [
              86.91886478334173,
              27.89690734493233
            ],
            [
              86.92069375360157,
              27.89690840940899
            ],
            [
              86.92069395100634,
              27.896637586682573
            ],
            [
              86.92404705504357,
              27.896639475174865
            ],
            [
              86.92404724411199,
              27.896368652412516
            ],
            [
              86.92526655171062,
              27.896369318899573
            ],
            [
              86.92526543550896,
              27.897994255365873
            ],
            [
              86.92557026696981,
              27.897994420314525
            ],
            [
              86.9255700816833,
              27.898265243022976
            ],
            [
              86.92526524946787,
              27.89826507806534
            ],
            [
              86.92526376102232,
              27.900431659328707
            ],
            [
              86.92495892273428,
              27.90043149368835
            ],
            [
              86.92495873591164,
              27.900702316297988
            ],
            [
              86.92343454071643,
              27.90070147798118
            ],
            [
              86.92343435009393,
              27.90097230056387
            ],
            [
              86.92251983073821,
              27.90097178947637
            ],
            [
              86.92252002363344,
              27.900700966893684
            ],
            [
              86.92221518460877,
              27.900700795180715
            ],
            [
              86.92221499094997,
              27.900971617763403
            ],
            [
              86.92160531140044,
              27.90097127231626
            ],
            [
              86.92160511622349,
              27.90124209488098
            ],
            [
              86.92130027568965,
              27.901241921146806
            ],
            [
              86.9213004716212,
              27.900971098582083
            ],
            [
              86.92038595231936,
              27.900970573328156
            ],
            [
              86.92038575410609,
              27.901241395883893
            ],
            [
              86.92008091358124,
              27.90124121945477
            ],
            [
              86.92008071460441,
              27.901512042001524
            ],
            [
              86.91977587333395,
              27.90151186488968
            ],
            [
              86.91977607306536,
              27.901241042342928
            ],
            [
              86.91855671101985,
              27.90124032716718
            ],
            [
              86.91855650824314,
              27.90151114970495
            ],
            [
              86.91825166698167,
              27.90151096922443
            ],
            [
              86.91825187051296,
              27.901240146686657
            ],
            [
              86.91794703001506,
              27.901239965532397
            ],
            [
              86.9179468257202,
              27.90151078807017
            ],
            [
              86.91733714320623,
              27.901510423731455
            ],
            [
              86.9173369374022,
              27.90178124625126
            ],
            [
              86.916422411372,
              27.901780694685677
            ],
            [
              86.9164219951915,
              27.902322339671386
            ],
            [
              86.91611715166627,
              27.90232215445674
            ],
            [
              86.91611840473524,
              27.900697219382828
            ],
            [
              86.91581356577346,
              27.90069703351241
            ],
            [
              86.91581377536838,
              27.90042621096566
            ],
            [
              86.91550893717016,
              27.900426024421506
            ],
            [
              86.91550914751967,
              27.90015520186577
            ],
            [
              86.91520431007604,
              27.900155014656864
            ]
          ]
        ]
      },
      "id": "+4011+1732",
      "properties": {
        "area_m2": 403244.5163166016,
        "count": 447,
        "water": 1
      }
    }
  ]
}
