{
  "type": "FeatureCollection",
  "features": [
    {
      "type": "Feature",
      "geometry": {
        "geodesic": false,
        "type": "MultiPolygon",
        "coordinates": [
          [
            [
              [
                86.91276517629933,
                27.900695137734786
              ],
              [
                86.91307001523417,
                27.900695330342568
              ],
              [
                86.91306914950977,
                27.901778620358904
              ],
              [
                86.91245946556748,
                27.901778234442656
              ],
              [
                86.91245990147496,
                27.90123658946593
              ],
              [
                86.91276474191898,
                27.90123678275643
              ],
              [
                86.91276517629933,
                27.900695137734786
              ]
            ]
          ],
          [
            [
              [
                86.91429150475079,
                27.897987868200474
              ],
              [
                86.91398667338875,
                27.897987678305604
              ],
              [
                86.91398688751119,
                27.897716855660036
              ],
              [
                86.91429171810965,
                27.897717045554906
              ],
              [
                86.91429150475079,
                27.897987868200474
              ]
            ]
          ],
          [
            [
              [
                86.91550746463379,
                27.902321782024206
              ],
              [
                86.91581230815002,
                27.902321968577343
              ],
              [
                86.91581209853715,
                27.902592791052232
              ],
              [
                86.91550725426632,
                27.902592604490113
              ],
              [
                86.91550746463379,
                27.902321782024206
              ]
            ]
          ],
          [
            [
              [
                86.92800730573155,
                27.900433119755796
              ],
              [
                86.92831214403756,
                27.900433278649803
              ],
              [
                86.92831196556028,
                27.900704101277405
              ],
              [
                86.9280071264907,
                27.900703942383398
              ],
              [
                86.92800730573155,
                27.900433119755796
              ]
            ]
          ],
          [
            [
              [
                86.91429150475079,
                27.897987868200474
              ],
              [
                86.91459633610384,
                27.897988057421603
              ],
              [
                86.91459654870812,
                27.897717234767054
              ],
              [
                86.91520620992303,
                27.89771761117912
              ],
              [
                86.91520663207731,
                27.897175965852053
              ],
              [
                86.91551146116662,
                27.89717615304299
              ],
              [
                86.91551125085304,
                27.89744697571551
              ],
              [
                86.91581608070591,
                27.897447162232712
              ],
              [
                86.9158162902649,
                27.897176339560193
              ],
              [
                86.91612111936318,
                27.89717652540366
              ],
              [
                86.91612132815861,
                27.896905702713177
              ],
              [
                86.91642615650231,
                27.89690588787392
              ],
              [
                86.91642594846147,
                27.897176710564406
              ],
              [
                86.91703560667601,
                27.897177078882656
              ],
              [
                86.9170358131987,
                27.89690625618319
              ],
              [
                86.9182551266184,
                27.896906984716885
              ],
              [
                86.91825533010478,
                27.89663616199945
              ],
              [
                86.91977946814917,
                27.89663705748504
              ],
              [
                86.91977966783568,
                27.89636623474964
              ],
              [
                86.92069414842011,
                27.89636676393819
              ],
              [
                86.9206943458249,
                27.896095941193806
              ],
              [
                86.92160882416356,
                27.896096464309746
              ],
              [
                86.9216090192866,
                27.895825641547397
              ],
              [
                86.9222186700092,
                27.895825986913692
              ],
              [
                86.92221828278142,
                27.896367632447376
              ],
              [
                86.9243520710094,
                27.89636882004713
              ],
              [
                86.92435225930527,
                27.896097997266814
              ],
              [
                86.92587639003736,
                27.896098825315875
              ],
              [
                86.92587657454234,
                27.895828002526578
              ],
              [
                86.92862000318924,
                27.895829450529966
              ],
              [
                86.92861858170411,
                27.897996032718595
              ],
              [
                86.9283137502253,
                27.89799587451629
              ],
              [
                86.92831232251484,
                27.900162456013216
              ],
              [
                86.92800748496342,
                27.90016229711921
              ],
              [
                86.92800730573155,
                27.900433119755796
              ],
              [
                86.9246540844552,
                27.90043132737426
              ],
              [
                86.924653896869,
                27.900702149983896
              ],
              [
                86.92434905782638,
                27.90070198299607
              ],
              [
                86.9243488694766,
                27.900972805587738
              ],
              [
                86.9240440296794,
                27.90097263791719
              ],
              [
                86.92404421878373,
                27.90070181532552
              ],
              [
                86.92221518460877,
                27.900700795180715
              ],
              [
                86.92221499094997,
                27.900971617763403
              ],
              [
                86.92160531140044,
                27.90097127231626
              ],
              [
                86.92160511622349,
                27.90124209488098
              ],
              [
                86.92130027568965,
                27.901241921146806
              ],
              [
                86.9213004716212,
                27.900971098582083
              ],
              [
                86.92038595231936,
                27.900970573328156
              ],
              [
                86.92038575410609,
                27.901241395883893
              ],
              [
                86.91916639203363,
                27.90124068610702
              ],
              [
                86.91916619078405,
                27.90151150864479
              ],
              [
                86.91825166698167,
                27.90151096922443
              ],
              [
                86.91825187051296,
                27.901240146686657
              ],
              [
                86.91794703001506,
                27.901239965532397
              ],
              [
                86.9179468257202,
                27.90151078807017
              ],
              [
                86.91733714320623,
                27.901510423731455
              ],
              [
                86.9173369374022,
                27.90178124625126
              ],
              [
                86.916422411372,
                27.901780694685677
              ],
              [
                86.9164219951915,
                27.902322339671386
              ],
              [
                86.91611715166627,
                27.90232215445674
              ],
              [
                86.91611736052458,
                27.902051331972867
              ],
              [
                86.91550767501025,
                27.902050959540336
              ],
              [
                86.91550746463379,
                27.902321782024206
              ],
              [
                86.914592934112,
                27.902321218304415
              ],
              [
                86.91459357204161,
                27.901508750843817
              ],
              [
                86.91428873081608,
                27.901508561604718
              ],
              [
                86.91428894421087,
                27.901237739093897
              ],
              [
                86.9139841037489,
                27.90123754917208
              ],
              [
                86.91398431789828,
                27.90096672666126
              ],
              [
                86.91428915760567,
                27.900966916583076
              ],
              [
                86.91428937100046,
                27.90069609405429
              ],
              [
                86.91367969311283,
                27.9006957135459
              ],
              [
                86.91367990801679,
                27.900424891017114
              ],
              [
                86.91276539347604,
                27.900424315206
              ],
              [
                86.91276517629933,
                27.900695137734786
              ],
              [
                86.91215549843864,
                27.900694750489034
              ],
              [
                86.91215615453218,
                27.899882282884704
              ],
              [
                86.91276582783843,
                27.899882670121475
              ],
              [
                86.91276604501512,
                27.899611847565737
              ],
              [
                86.9124612091166,
                27.89961165428422
              ],
              [
                86.91246142704789,
                27.8993408317195
              ],
              [
                86.91276626218284,
                27.899341024992033
              ],
              [
                86.91276647935057,
                27.89907020241833
              ],
              [
                86.91307131373094,
                27.899070395017127
              ],
              [
                86.9130715301351,
                27.898799572425457
              ],
              [
                86.91368119738668,
                27.898799955592857
              ],
              [
                86.91368141227268,
                27.89852913298322
              ],
              [
                86.91429107802408,
                27.898529513455678
              ],
              [
                86.91429150475079,
                27.897987868200474
              ]
            ]
          ]
        ]
      },
      "id": "+4362+1824",
      "properties": {
        "area_m2": 761383.4132403276,
        "count": 844,
        "water": 1
      }
    }
  ]
}
