{
  "type": "FeatureCollection",
  "features": [
    {
      "type": "Feature",
      "geometry": {
        "geodesic": false,
        "type": "Polygon",
        "coordinates": [
          [
            [
              86.9191700141217,
              27.8963658785856
            ],
            [
              86.91917021532636,
              27.89609505584121
            ],
            [
              86.91947504141528,
              27.89609523425561
            ],
            [
              86.91947524185638,
              27.895824411502247
            ],
            [
              86.91978006719971,
              27.895824589242906
            ],
            [
              86.9197798675132,
              27.896095412005256
            ],
            [
              86.9200846936201,
              27.896095589072182
            ],
            [
              86.92008449469715,
              27.896366411816565
            ],
            [
              86.92038932155863,
              27.89636658821874
            ],
            [
              86.92038852886726,
              27.89744987910644
            ],
            [
              86.92069335876505,
              27.89745005484386
            ],
            [
              86.9206927664968,
              27.89826252290633
            ],
            [
              86.92282659180724,
              27.89826373419466
            ],
            [
              86.92282793654928,
              27.896367975136688
            ],
            [
              86.92252310966086,
              27.89636780412441
            ],
            [
              86.92252330252016,
              27.89609698136206
            ],
            [
              86.92374260703758,
              27.89609766133283
            ],
            [
              86.92374127824961,
              27.897993420507582
            ],
            [
              86.92435094114437,
              27.897993756468512
            ],
            [
              86.92435075282155,
              27.898264579167982
            ],
            [
              86.9240459206151,
              27.898264411524384
            ],
            [
              86.9240447860878,
              27.899889347487626
            ],
            [
              86.92252060231917,
              27.899888499082742
            ],
            [
              86.92252098809169,
              27.899346853818553
            ],
            [
              86.92038714155406,
              27.89934563776017
            ],
            [
              86.92038654695018,
              27.900158105589078
            ],
            [
              86.9194720345025,
              27.900157574289487
            ],
            [
              86.91947263593357,
              27.899345106478545
            ],
            [
              86.91916780073572,
              27.899344928037195
            ],
            [
              86.91916800196734,
              27.899074105409593
            ],
            [
              86.91855833308979,
              27.89907374650569
            ],
            [
              86.91855853583955,
              27.898802923878087
            ],
            [
              86.91794886848915,
              27.898802562279233
            ],
            [
              86.91794927700701,
              27.89826091699708
            ],
            [
              86.91733961271088,
              27.898260552712266
            ],
            [
              86.91733981847898,
              27.897989730057713
            ],
            [
              86.91673015570998,
              27.897989363077954
            ],
            [
              86.91673077756874,
              27.8971768950604
            ],
            [
              86.91764526489952,
              27.897177444496975
            ],
            [
              86.91764546990406,
              27.89690662179751
            ],
            [
              86.91795029825674,
              27.896906803589573
            ],
            [
              86.9179505024977,
              27.896635980881122
            ],
            [
              86.9176456748996,
              27.896635799089058
            ],
            [
              86.91764587989515,
              27.896364976371625
            ],
            [
              86.91795070673867,
              27.896365158154705
            ],
            [
              86.91795091097065,
              27.896094335428288
            ],
            [
              86.91886538922844,
              27.896094876744094
            ],
            [
              86.9188651872692,
              27.896365699488477
            ],
            [
              86.9191700141217,
              27.8963658785856
            ]
          ],
          [
            [
              86.9191700141217,
              27.8963658785856
            ],
            [
              86.91977966783568,
              27.89636623474964
            ],
            [
              86.91977946814917,
              27.89663705748504
            ],
            [
              86.91916981291705,
              27.896636701312012
            ],
            [
              86.9191700141217,
              27.8963658785856
            ]
          ]
        ]
      },
      "id": "+4273+2164",
      "properties": {
        "area_m2": 180422.63635021367,
        "count": 200,
        "water": 1
      }
    }
  ]
}
