{
  "type": "FeatureCollection",
  "features": [
    {
      "type": "Feature",
      "geometry": {
        "geodesic": false,
        "type": "MultiPolygon",
        "coordinates": [
          [
            [
              [
                86.92099563185093,
                27.90097092417417
              ],
              [
                86.92160531140044,
                27.90097127231626
              ],
              [
                86.92160511622349,
                27.90124209488098
              ],
              [
                86.9209954351558,
                27.90124174672991
              ],
              [
                86.92099563185093,
                27.90097092417417
              ]
            ]
          ],
          [
            [
              [
                86.9197798675132,
                27.896095412005256
              ],
              [
                86.91978006719971,
                27.895824589242906
              ],
              [
                86.92038971788635,
                27.895824942712004
              ],
              [
                86.92038991604572,
                27.895554119940673
              ],
              [
                86.92160921440967,
                27.89555481876708
              ],
              [
                86.92160940953273,
                27.89528399597778
              ],
              [
                86.92252388106216,
                27.895284513012125
              ],
              [
                86.9225240739035,
                27.895013690204863
              ],
              [
                86.92374336628467,
                27.8950143701397
              ],
              [
                86.9237435560897,
                27.89474354731447
              ],
              [
                86.92404837843266,
                27.89474371561384
              ],
              [
                86.9240481893822,
                27.895014538439067
              ],
              [
                86.92435301248874,
                27.8950147060647
              ],
              [
                86.92435320077561,
                27.894743883239467
              ],
              [
                86.92526766782244,
                27.89474438205598
              ],
              [
                86.92526785383659,
                27.89447355921278
              ],
              [
                86.92648714023498,
                27.894474214866158
              ],
              [
                86.92648640832361,
                27.895557506212
              ],
              [
                86.93014430417904,
                27.895559408547328
              ],
              [
                86.93014413030113,
                27.895830231381545
              ],
              [
                86.92770552695265,
                27.895828973928793
              ],
              [
                86.92770534699315,
                27.896099796736056
              ],
              [
                86.92740052083235,
                27.896099636512545
              ],
              [
                86.92739997868111,
                27.896912104862476
              ],
              [
                86.92496135123082,
                27.89691079881985
              ],
              [
                86.92496079085277,
                27.897723267026052
              ],
              [
                86.92465596015549,
                27.897723100729927
              ],
              [
                86.92465539746875,
                27.89853556883731
              ],
              [
                86.92587472937579,
                27.89853622999736
              ],
              [
                86.92587491390772,
                27.89826540729789
              ],
              [
                86.92617974613215,
                27.89826557089907
              ],
              [
                86.9261795623548,
                27.89853639359854
              ],
              [
                86.9264843953428,
                27.898536556525983
              ],
              [
                86.92648421232902,
                27.89880737922545
              ],
              [
                86.92617937858645,
                27.898807216289025
              ],
              [
                86.92617919480911,
                27.899078038970526
              ],
              [
                86.92648402931525,
                27.899078201906953
              ],
              [
                86.92648384630148,
                27.899349024570487
              ],
              [
                86.92739835210162,
                27.89934950933735
              ],
              [
                86.92739817135161,
                27.899620332000882
              ],
              [
                86.92770300738488,
                27.899620492242363
              ],
              [
                86.92770282739843,
                27.899891314896916
              ],
              [
                86.92831250098314,
                27.899891633358667
              ],
              [
                86.92831232251484,
                27.900162456013216
              ],
              [
                86.92800748496342,
                27.90016229711921
              ],
              [
                86.92800730573155,
                27.900433119755796
              ],
              [
                86.92709279080452,
                27.90043263901339
              ],
              [
                86.9270929723181,
                27.900161816385786
              ],
              [
                86.92617845969076,
                27.90016132957975
              ],
              [
                86.92617827590443,
                27.90043215220735
              ],
              [
                86.92556859931037,
                27.900431824295325
              ],
              [
                86.9255684140059,
                27.900702646913945
              ],
              [
                86.92526357495427,
                27.900702481947324
              ],
              [
                86.92526376102232,
                27.900431659328707
              ],
              [
                86.9246540844552,
                27.90043132737426
              ],
              [
                86.924653896869,
                27.900702149983896
              ],
              [
                86.92404421878373,
                27.90070181532552
              ],
              [
                86.9240440296794,
                27.90097263791719
              ],
              [
                86.92343435009393,
                27.90097230056387
              ],
              [
                86.92343454071643,
                27.90070147798118
              ],
              [
                86.92099582854604,
                27.900700101600467
              ],
              [
                86.92099563185093,
                27.90097092417417
              ],
              [
                86.91886175353989,
                27.900969684427213
              ],
              [
                86.91886155152675,
                27.90124050697397
              ],
              [
                86.91794703001506,
                27.901239965532397
              ],
              [
                86.9179480514175,
                27.89988585271778
              ],
              [
                86.91733837801246,
                27.899885488415
              ],
              [
                86.91733858379853,
                27.89961466582333
              ],
              [
                86.91703374786405,
                27.89961448265684
              ],
              [
                86.91703416095434,
                27.899072837446553
              ],
              [
                86.91611965770541,
                27.899072283922642
              ],
              [
                86.9161198665188,
                27.89880146130402
              ],
              [
                86.9155101992223,
                27.89880108892539
              ],
              [
                86.91551040955383,
                27.898530266306768
              ],
              [
                86.91855873858033,
                27.898532101232515
              ],
              [
                86.91856015770288,
                27.89663634244404
              ],
              [
                86.91825533010478,
                27.89663616199945
              ],
              [
                86.91825553358218,
                27.896365339273032
              ],
              [
                86.91795070673867,
                27.896365158154705
              ],
              [
                86.91795091097065,
                27.896094335428288
              ],
              [
                86.91856056313952,
                27.896094696982225
              ],
              [
                86.91856036042569,
                27.896365519717623
              ],
              [
                86.9188651872692,
                27.896365699488477
              ],
              [
                86.91886538922844,
                27.896094876744094
              ],
              [
                86.9197798675132,
                27.896095412005256
              ]
            ],
            [
              [
                86.9197798675132,
                27.896095412005256
              ],
              [
                86.9200846936201,
                27.896095589072182
              ],
              [
                86.92008449469715,
                27.896366411816565
              ],
              [
                86.91977966783568,
                27.89636623474964
              ],
              [
                86.9197798675132,
                27.896095412005256
              ]
            ],
            [
              [
                86.92038773613098,
                27.898533169832447
              ],
              [
                86.92038793431729,
                27.89826234716891
              ],
              [
                86.9206927664968,
                27.89826252290633
              ],
              [
                86.92069256906507,
                27.898533345569867
              ],
              [
                86.92038773613098,
                27.898533169832447
              ]
            ],
            [
              [
                86.92191365027942,
                27.896096637334253
              ],
              [
                86.9219138446479,
                27.895825814562922
              ],
              [
                86.9222186700092,
                27.895825986913692
              ],
              [
                86.9222184763953,
                27.896096809685023
              ],
              [
                86.92191365027942,
                27.896096637334253
              ]
            ],
            [
              [
                86.92526729579414,
                27.895286027715425
              ],
              [
                86.92526748180829,
                27.895015204890196
              ],
              [
                86.9255723049238,
                27.895015369820882
              ],
              [
                86.92557211967322,
                27.89528619264611
              ],
              [
                86.92526729579414,
                27.895286027715425
              ]
            ],
            [
              [
                86.92191228961923,
                27.897992396428158
              ],
              [
                86.92191209523278,
                27.89826321910966
              ],
              [
                86.92099759867631,
                27.89826269797001
              ],
              [
                86.92099779534446,
                27.89799187528851
              ],
              [
                86.92191228961923,
                27.897992396428158
              ]
            ],
            [
              [
                86.92282716813938,
                27.897451266087273
              ],
              [
                86.9228273602441,
                27.897180443360856
              ],
              [
                86.92435150608587,
                27.89718128830723
              ],
              [
                86.92435131777204,
                27.897452111033648
              ],
              [
                86.92282716813938,
                27.897451266087273
              ]
            ],
            [
              [
                86.92252214535533,
                27.897721917783443
              ],
              [
                86.92252233822363,
                27.89745109507499
              ],
              [
                86.92282716813938,
                27.897451266087273
              ],
              [
                86.92282697603466,
                27.897722088795724
              ],
              [
                86.92252214535533,
                27.897721917783443
              ]
            ],
            [
              [
                86.92191228961923,
                27.897992396428158
              ],
              [
                86.92191248400567,
                27.89772157372869
              ],
              [
                86.92252214535533,
                27.897721917783443
              ],
              [
                86.92252195248705,
                27.89799274048291
              ],
              [
                86.92191228961923,
                27.897992396428158
              ]
            ]
          ],
          [
            [
              [
                86.92617827590443,
                27.90043215220735
              ],
              [
                86.92709279080452,
                27.90043263901339
              ],
              [
                86.92709260929094,
                27.90070346163201
              ],
              [
                86.92617809210913,
                27.900702974825972
              ],
              [
                86.92617827590443,
                27.90043215220735
              ]
            ]
          ]
        ]
      },
      "id": "+4185+1789",
      "properties": {
        "area_m2": 516008.7717645516,
        "count": 572,
        "water": 1
      }
    }
  ]
}
