{
  "type": "FeatureCollection",
  "features": [
    {
      "type": "Feature",
      "geometry": {
        "geodesic": false,
        "type": "MultiPolygon",
        "coordinates": [
          [
            [
              [
                86.9173406415424,
                27.89690643933171
              ],
              [
                86.91673098484601,
                27.896906072369916
              ],
              [
                86.91673119212328,
                27.896635249661465
              ],
              [
                86.9173408473015,
                27.896635616623257
              ],
              [
                86.9173406415424,
                27.89690643933171
              ]
            ]
          ],
          [
            [
              [
                86.9173406415424,
                27.89690643933171
              ],
              [
                86.91764546990406,
                27.89690662179751
              ],
              [
                86.9176456748996,
                27.896635799089058
              ],
              [
                86.91825533010478,
                27.89663616199945
              ],
              [
                86.91825573705957,
                27.896094516537634
              ],
              [
                86.91856056313952,
                27.896094696982225
              ],
              [
                86.91856036042569,
                27.896365519717623
              ],
              [
                86.9188651872692,
                27.896365699488477
              ],
              [
                86.91886538922844,
                27.896094876744094
              ],
              [
                86.91917021532636,
                27.89609505584121
              ],
              [
                86.91917041652204,
                27.895824233087847
              ],
              [
                86.91947524185638,
                27.895824411502247
              ],
              [
                86.91947504141528,
                27.89609523425561
              ],
              [
                86.9197798675132,
                27.896095412005256
              ],
              [
                86.91978006719971,
                27.895824589242906
              ],
              [
                86.92038971788635,
                27.895824942712004
              ],
              [
                86.92038991604572,
                27.895554119940673
              ],
              [
                86.92069474063446,
                27.89555429565114
              ],
              [
                86.92069454322969,
                27.895825118431457
              ],
              [
                86.92099936858199,
                27.895825293477174
              ],
              [
                86.92099956522321,
                27.895554470696858
              ],
              [
                86.9222188636141,
                27.895555164133377
              ],
              [
                86.92221905721902,
                27.895284341344077
              ],
              [
                86.92252388106216,
                27.895284513012125
              ],
              [
                86.9225240739035,
                27.895013690204863
              ],
              [
                86.92343854318713,
                27.895014201166596
              ],
              [
                86.92343873374675,
                27.894743378341364
              ],
              [
                86.9237435560897,
                27.89474354731447
              ],
              [
                86.92374336628467,
                27.8950143701397
              ],
              [
                86.9240481893822,
                27.895014538439067
              ],
              [
                86.92404837843266,
                27.89474371561384
              ],
              [
                86.92465802311857,
                27.894744050182382
              ],
              [
                86.92465783559526,
                27.895014873016596
              ],
              [
                86.92435301248874,
                27.8950147060647
              ],
              [
                86.92435131777204,
                27.897452111033648
              ],
              [
                86.92465614770575,
                27.89745227800351
              ],
              [
                86.92465558503699,
                27.898264746146825
              ],
              [
                86.92435075282155,
                27.898264579167982
              ],
              [
                86.92435037617592,
                27.898806224539968
              ],
              [
                86.9237407087267,
                27.898805888561068
              ],
              [
                86.92374032903578,
                27.899347533879155
              ],
              [
                86.92252098809169,
                27.899346853818553
              ],
              [
                86.92252002363344,
                27.900700966893684
              ],
              [
                86.92130066756172,
                27.90070027600838
              ],
              [
                86.9213004716212,
                27.900971098582083
              ],
              [
                86.9197762727968,
                27.90097021978719
              ],
              [
                86.91977727141796,
                27.899616106864773
              ],
              [
                86.91947243545654,
                27.89961592908818
              ],
              [
                86.91947263593357,
                27.899345106478545
              ],
              [
                86.91916780073572,
                27.899344928037195
              ],
              [
                86.91916840442155,
                27.898532460127438
              ],
              [
                86.91886357149646,
                27.89853228102134
              ],
              [
                86.91886377348264,
                27.898261458366786
              ],
              [
                86.91855894132111,
                27.898261278577966
              ],
              [
                86.91855914406189,
                27.897990455914428
              ],
              [
                86.9182543126639,
                27.897990275460856
              ],
              [
                86.91825471964565,
                27.897448630106837
              ],
              [
                86.917645059895,
                27.89744826718746
              ],
              [
                86.91764526489952,
                27.897177444496975
              ],
              [
                86.91734043578327,
                27.897177262022193
              ],
              [
                86.9173406415424,
                27.89690643933171
              ]
            ],
            [
              [
                86.9188651872692,
                27.896365699488477
              ],
              [
                86.9191700141217,
                27.8963658785856
              ],
              [
                86.91916981291705,
                27.896636701312012
              ],
              [
                86.91886498530997,
                27.896636522214894
              ],
              [
                86.9188651872692,
                27.896365699488477
              ]
            ]
          ]
        ]
      },
      "id": "+4419+1828",
      "properties": {
        "area_m2": 296795.26421912765,
        "count": 329,
        "water": 1
      }
    }
  ]
}
