{
  "type": "FeatureCollection",
  "features": [
    {
      "type": "Feature",
      "geometry": {
        "geodesic": false,
        "type": "Polygon",
        "coordinates": [
          [
            [
              86.91733714320623,
              27.901510423731455
            ],
            [
              86.91733755482328,
              27.900968778664897
            ],
            [
              86.91886175353989,
              27.900969684427213
            ],
            [
              86.91886417743706,
              27.897719813021748
            ],
            [
              86.91764485488149,
              27.89771908985998
            ],
            [
              86.9176456748996,
              27.896635799089058
            ],
            [
              86.91856015770288,
              27.89663634244404
            ],
            [
              86.91856036042569,
              27.896365519717623
            ],
            [
              86.9188651872692,
              27.896365699488477
            ],
            [
              86.91886498530997,
              27.896636522214894
            ],
            [
              86.91916981291705,
              27.896636701312012
            ],
            [
              86.9191700141217,
              27.8963658785856
            ],
            [
              86.92069414842011,
              27.89636676393819
            ],
            [
              86.92069454322969,
              27.895825118431457
            ],
            [
              86.92099936858199,
              27.895825293477174
            ],
            [
              86.92099956522321,
              27.895554470696858
            ],
            [
              86.92160921440967,
              27.89555481876708
            ],
            [
              86.9216090192866,
              27.895825641547397
            ],
            [
              86.9219138446479,
              27.895825814562922
            ],
            [
              86.92191423337587,
              27.895284168993307
            ],
            [
              86.9231335287664,
              27.89528485432702
            ],
            [
              86.9231337200896,
              27.895014031519754
            ],
            [
              86.9240481893822,
              27.895014538439067
            ],
            [
              86.92404837843266,
              27.89474371561384
            ],
            [
              86.9249628454705,
              27.89474421646054
            ],
            [
              86.92496247192406,
              27.895285862111002
            ],
            [
              86.92526729579414,
              27.895286027715425
            ],
            [
              86.92526766782244,
              27.89474438205598
            ],
            [
              86.92557249018336,
              27.894744546986665
            ],
            [
              86.9255723049238,
              27.895015369820882
            ],
            [
              86.9258771280393,
              27.89501553407783
            ],
            [
              86.9258774970313,
              27.894473888391435
            ],
            [
              86.92679196184132,
              27.894474377101897
            ],
            [
              86.92679214405558,
              27.89420355423175
            ],
            [
              86.92709696490734,
              27.894203715784773
            ],
            [
              86.92709623906859,
              27.895287007184514
            ],
            [
              86.92740106295665,
              27.89528716807278
            ],
            [
              86.92740088225153,
              27.895557990898013
            ],
            [
              86.93014430417904,
              27.895559408547328
            ],
            [
              86.93014413030113,
              27.895830231381545
            ],
            [
              86.9304489557253,
              27.895830385532445
            ],
            [
              86.93044878260199,
              27.896101208348696
            ],
            [
              86.93075360879871,
              27.896101361825863
            ],
            [
              86.93075326406124,
              27.896643007440392
            ],
            [
              86.93044843635533,
              27.896642853963225
            ],
            [
              86.93044826322303,
              27.896913676752526
            ],
            [
              86.93014343475357,
              27.896913522601622
            ],
            [
              86.93014326086669,
              27.897184345372956
            ],
            [
              86.92983843164264,
              27.897184190548316
            ],
            [
              86.92983825699217,
              27.897455013310665
            ],
            [
              86.92953342701354,
              27.897454857803307
            ],
            [
              86.92953219906147,
              27.899350616852296
            ],
            [
              86.92831285791974,
              27.899349988031595
            ],
            [
              86.92831232251484,
              27.900162456013216
            ],
            [
              86.92770264741199,
              27.900162137542484
            ],
            [
              86.92770246741655,
              27.900432960179067
            ],
            [
              86.92739762911053,
              27.900432799937587
            ],
            [
              86.92739744835153,
              27.900703622556208
            ],
            [
              86.92648293116973,
              27.90070313777138
            ],
            [
              86.92648311420147,
              27.900432315152763
            ],
            [
              86.92556859931037,
              27.900431824295325
            ],
            [
              86.9255684140059,
              27.900702646913945
            ],
            [
              86.92495873591164,
              27.900702316297988
            ],
            [
              86.92495892273428,
              27.90043149368835
            ],
            [
              86.9246540844552,
              27.90043132737426
            ],
            [
              86.924653896869,
              27.900702149983896
            ],
            [
              86.92404421878373,
              27.90070181532552
            ],
            [
              86.9240440296794,
              27.90097263791719
            ],
            [
              86.9231295103057,
              27.90097213087211
            ],
            [
              86.92312970169176,
              27.900701308289424
            ],
            [
              86.92160550657741,
              27.90070044974256
            ],
            [
              86.92160531140044,
              27.90097127231626
            ],
            [
              86.9213004716212,
              27.900971098582083
            ],
            [
              86.92130027568965,
              27.901241921146806
            ],
            [
              86.9209954351558,
              27.90124174672991
            ],
            [
              86.92099563185093,
              27.90097092417417
            ],
            [
              86.92008111255808,
              27.900970396899034
            ],
            [
              86.92008091358124,
              27.90124121945477
            ],
            [
              86.91794703001506,
              27.901239965532397
            ],
            [
              86.9179468257202,
              27.90151078807017
            ],
            [
              86.91733714320623,
              27.901510423731455
            ]
          ]
        ]
      },
      "id": "+4127+1720",
      "properties": {
        "area_m2": 647717.3611610684,
        "count": 718,
        "water": 1
      }
    }
  ]
}
