{
  "type": "FeatureCollection",
  "features": [
    {
      "type": "Feature",
      "geometry": {
        "geodesic": false,
        "type": "Polygon",
        "coordinates": [
          [
            [
              86.91307023165628,
              27.900424507813778
            ],
            [
              86.9130715301351,
              27.898799572425457
            ],
            [
              86.91337636376089,
              27.898799764341536
            ],
            [
              86.91337657940147,
              27.89852894174088
            ],
            [
              86.91429107802408,
              27.898529513455678
            ],
            [
              86.91429171810965,
              27.897717045554906
            ],
            [
              86.91490137931558,
              27.897717423314447
            ],
            [
              86.91490159114731,
              27.897446600659894
            ],
            [
              86.91612091055879,
              27.897447348076177
            ],
            [
              86.91612111936318,
              27.89717652540366
            ],
            [
              86.91703560667601,
              27.897177078882656
            ],
            [
              86.9170358131987,
              27.89690625618319
            ],
            [
              86.9173406415424,
              27.89690643933171
            ],
            [
              86.91734002425606,
              27.897718907385197
            ],
            [
              86.91794968551588,
              27.89771927166103
            ],
            [
              86.91794927700701,
              27.89826091699708
            ],
            [
              86.91825410915956,
              27.89826109812439
            ],
            [
              86.9182539056642,
              27.89853192076996
            ],
            [
              86.91855873858033,
              27.898532101232515
            ],
            [
              86.91855853583955,
              27.898802923878087
            ],
            [
              86.91916820318995,
              27.89880328277301
            ],
            [
              86.91916800196734,
              27.899074105409593
            ],
            [
              86.92160667757629,
              27.89907551405779
            ],
            [
              86.92160804362638,
              27.897179755278298
            ],
            [
              86.9213032144742,
              27.89717958157107
            ],
            [
              86.92130360626543,
              27.896637936109254
            ],
            [
              86.92099877864038,
              27.896637761737274
            ],
            [
              86.9209991719318,
              27.896096116239523
            ],
            [
              86.9206943458249,
              27.896095941193806
            ],
            [
              86.92069454322969,
              27.895825118431457
            ],
            [
              86.9213041939343,
              27.895825467849154
            ],
            [
              86.92130438981195,
              27.895554645068838
            ],
            [
              86.9222188636141,
              27.895555164133377
            ],
            [
              86.92221905721902,
              27.895284341344077
            ],
            [
              86.92374317647065,
              27.89528519295595
            ],
            [
              86.92374336628467,
              27.8950143701397
            ],
            [
              86.92435301248874,
              27.8950147060647
            ],
            [
              86.92435320077561,
              27.894743883239467
            ],
            [
              86.92557249018336,
              27.894744546986665
            ],
            [
              86.92557267543394,
              27.894473724143467
            ],
            [
              86.92648714023498,
              27.894474214866158
            ],
            [
              86.92648695725714,
              27.89474503771834
            ],
            [
              86.92618213489622,
              27.894744874817846
            ],
            [
              86.9261819511638,
              27.895015697661044
            ],
            [
              86.92679159740378,
              27.89501602279728
            ],
            [
              86.92678922833079,
              27.898536718788673
            ],
            [
              86.92709406132775,
              27.898536880368642
            ],
            [
              86.92709387983214,
              27.898807703059127
            ],
            [
              86.9273987135837,
              27.898807863974344
            ],
            [
              86.92739853284266,
              27.899078686655844
            ],
            [
              86.92770336735778,
              27.899078846897325
            ],
            [
              86.92770228742111,
              27.900703782806673
            ],
            [
              86.92648293116973,
              27.90070313777138
            ],
            [
              86.92648311420147,
              27.900432315152763
            ],
            [
              86.92556859931037,
              27.900431824295325
            ],
            [
              86.9255684140059,
              27.900702646913945
            ],
            [
              86.92526357495427,
              27.900702481947324
            ],
            [
              86.92526376102232,
              27.900431659328707
            ],
            [
              86.9246540844552,
              27.90043132737426
            ],
            [
              86.924653896869,
              27.900702149983896
            ],
            [
              86.92404421878373,
              27.90070181532552
            ],
            [
              86.9240440296794,
              27.90097263791719
            ],
            [
              86.92343435009393,
              27.90097230056387
            ],
            [
              86.92343454071643,
              27.90070147798118
            ],
            [
              86.92191034559309,
              27.900700622794012
            ],
            [
              86.92191015117072,
              27.9009714453767
            ],
            [
              86.92160531140044,
              27.90097127231626
            ],
            [
              86.92160511622349,
              27.90124209488098
            ],
            [
              86.9209954351558,
              27.90124174672991
            ],
            [
              86.92099563185093,
              27.90097092417417
            ],
            [
              86.92008111255808,
              27.900970396899034
            ],
            [
              86.92008091358124,
              27.90124121945477
            ],
            [
              86.91855671101985,
              27.90124032716718
            ],
            [
              86.91855650824314,
              27.90151114970495
            ],
            [
              86.91825166698167,
              27.90151096922443
            ],
            [
              86.91825187051296,
              27.901240146686657
            ],
            [
              86.91794703001506,
              27.901239965532397
            ],
            [
              86.9179468257202,
              27.90151078807017
            ],
            [
              86.9176419844677,
              27.901510606233188
            ],
            [
              86.91764177940928,
              27.901781428752994
            ],
            [
              86.9173369374022,
              27.90178124625126
            ],
            [
              86.91733714320623,
              27.901510423731455
            ],
            [
              86.91703230195374,
              27.901510240555986
            ],
            [
              86.91703188881854,
              27.902051885568646
            ],
            [
              86.9167270460479,
              27.902051701710455
            ],
            [
              86.91672725337907,
              27.90178087920862
            ],
            [
              86.916422411372,
              27.901780694685677
            ],
            [
              86.91642220328623,
              27.90205151717853
            ],
            [
              86.9148979895049,
              27.902050584412855
            ],
            [
              86.91489841326715,
              27.90150893941816
            ],
            [
              86.91459357204161,
              27.901508750843817
            ],
            [
              86.91459378468183,
              27.901237928341978
            ],
            [
              86.91428894421087,
              27.901237739093897
            ],
            [
              86.91428937100046,
              27.90069609405429
            ],
            [
              86.91398453205665,
              27.900695904132473
            ],
            [
              86.91398431789828,
              27.90096672666126
            ],
            [
              86.91367947819987,
              27.900966536065706
            ],
            [
              86.91367990801679,
              27.900424891017114
            ],
            [
              86.91307023165628,
              27.900424507813778
            ]
          ]
        ]
      },
      "id": "+4365+1839",
      "properties": {
        "area_m2": 641402.3935651284,
        "count": 711,
        "water": 1
      }
    }
  ]
}
