{
  "type": "FeatureCollection",
  "features": [
    {
      "type": "Feature",
      "geometry": {
        "geodesic": false,
        "type": "MultiPolygon",
        "coordinates": [
          [
            [
              [
                86.9213041939343,
                27.895825467849154
              ],
              [
                86.92130438981195,
                27.895554645068838
              ],
              [
                86.92252368822082,
                27.89555533581041
              ],
              [
                86.92252388106216,
                27.895284513012125
              ],
              [
                86.92404800033175,
                27.89528536125532
              ],
              [
                86.92404762223086,
                27.89582700685188
              ],
              [
                86.9213041939343,
                27.895825467849154
              ]
            ]
          ],
          [
            [
              [
                86.9213041939343,
                27.895825467849154
              ],
              [
                86.921302822674,
                27.897721226987972
              ],
              [
                86.92313180671397,
                27.89772225914325
              ],
              [
                86.92313123264559,
                27.898534727214706
              ],
              [
                86.92404573152871,
                27.89853523421487
              ],
              [
                86.92404516426956,
                27.899347702214456
              ],
              [
                86.92465483476406,
                27.899348036845883
              ],
              [
                86.92465464718684,
                27.89961885949145
              ],
              [
                86.92404497518318,
                27.899618524851043
              ],
              [
                86.9240447860878,
                27.899889347487626
              ],
              [
                86.92160609209033,
                27.899887981949583
              ],
              [
                86.92160589692234,
                27.900158804550234
              ],
              [
                86.9194720345025,
                27.900157574289487
              ],
              [
                86.91947263593357,
                27.899345106478545
              ],
              [
                86.91916780073572,
                27.899344928037195
              ],
              [
                86.91916820318995,
                27.89880328277301
              ],
              [
                86.91825370215986,
                27.898802743415526
              ],
              [
                86.91825410915956,
                27.89826109812439
              ],
              [
                86.91794927700701,
                27.89826091699708
              ],
              [
                86.91794948126594,
                27.897990094333544
              ],
              [
                86.91612049294997,
                27.89798899340325
              ],
              [
                86.91612111936318,
                27.89717652540366
              ],
              [
                86.91673077756874,
                27.8971768950604
              ],
              [
                86.91673098484601,
                27.896906072369916
              ],
              [
                86.91886478334173,
                27.89690734493233
              ],
              [
                86.91886498530997,
                27.896636522214894
              ],
              [
                86.91977946814917,
                27.89663705748504
              ],
              [
                86.91977966783568,
                27.89636623474964
              ],
              [
                86.92069414842011,
                27.89636676393819
              ],
              [
                86.9206943458249,
                27.896095941193806
              ],
              [
                86.920389519718,
                27.896095765465372
              ],
              [
                86.92038971788635,
                27.895824942712004
              ],
              [
                86.9213041939343,
                27.895825467849154
              ]
            ]
          ]
        ]
      },
      "id": "+4087+2166",
      "properties": {
        "area_m2": 204779.68928991858,
        "count": 227,
        "water": 1
      }
    }
  ]
}
