{
  "type": "FeatureCollection",
  "features": [
    {
      "type": "Feature",
      "geometry": {
        "geodesic": false,
        "type": "Polygon",
        "coordinates": [
          [
            [
              86.92038615053264,
              27.900699750763433
            ],
            [
              86.92038654695018,
              27.900158105589078
            ],
            [
              86.92069138443874,
              27.900158281344464
            ],
            [
              86.92069177932915,
              27.89961663612519
            ],
            [
              86.92160628724932,
              27.899617159321977
            ],
            [
              86.92160667757629,
              27.89907551405779
            ],
            [
              86.92191151203752,
              27.899075687100265
            ],
            [
              86.92191306715603,
              27.896909105585372
            ],
            [
              86.92038892521295,
              27.896908233680556
            ],
            [
              86.92038932155863,
              27.89636658821874
            ],
            [
              86.92099897529057,
              27.89636693899289
            ],
            [
              86.9209991719318,
              27.896096116239523
            ],
            [
              86.92160882416356,
              27.896096464309746
            ],
            [
              86.9216090192866,
              27.895825641547397
            ],
            [
              86.9219138446479,
              27.895825814562922
            ],
            [
              86.92191365027942,
              27.896096637334253
            ],
            [
              86.9222184763953,
              27.896096809685023
            ],
            [
              86.9222186700092,
              27.895825986913692
            ],
            [
              86.92282832073178,
              27.895826329594023
            ],
            [
              86.92282870491428,
              27.89528468400644
            ],
            [
              86.92343835261853,
              27.895285023982844
            ],
            [
              86.92343778090373,
              27.89609749235074
            ],
            [
              86.92709569466257,
              27.896099475624275
            ],
            [
              86.92709587614023,
              27.895828652825994
            ],
            [
              86.9292296540286,
              27.8958297648954
            ],
            [
              86.92922947786897,
              27.896100587702666
            ],
            [
              86.92953430404773,
              27.89610074387478
            ],
            [
              86.92953395323765,
              27.896642389480327
            ],
            [
              86.92922912554074,
              27.896642233308214
            ],
            [
              86.9292282446887,
              27.89799634711098
            ],
            [
              86.92892341319191,
              27.897996190256148
            ],
            [
              86.92892305931858,
              27.898537835699997
            ],
            [
              86.92861822631262,
              27.898537678162448
            ],
            [
              86.92861804861687,
              27.8988085008709
            ],
            [
              86.92831321484735,
              27.89880834265961
            ],
            [
              86.92831285791974,
              27.899349988031595
            ],
            [
              86.92892252848611,
              27.89935030378942
            ],
            [
              86.92892217458582,
              27.89989194912547
            ],
            [
              86.92922701138266,
              27.89989210599827
            ],
            [
              86.92922665899155,
              27.90043375129839
            ],
            [
              86.92861698235257,
              27.900433436870074
            ],
            [
              86.92861716007526,
              27.900162614233487
            ],
            [
              86.92770264741199,
              27.900162137542484
            ],
            [
              86.92770246741655,
              27.900432960179067
            ],
            [
              86.92739762911053,
              27.900432799937587
            ],
            [
              86.92739744835153,
              27.900703622556208
            ],
            [
              86.92678777023033,
              27.900703300043055
            ],
            [
              86.9267879524985,
              27.900432477415453
            ],
            [
              86.9246540844552,
              27.90043132737426
            ],
            [
              86.924653896869,
              27.900702149983896
            ],
            [
              86.92191034559309,
              27.900700622794012
            ],
            [
              86.92191015117072,
              27.9009714453767
            ],
            [
              86.92160531140044,
              27.90097127231626
            ],
            [
              86.92160511622349,
              27.90124209488098
            ],
            [
              86.92130027568965,
              27.901241921146806
            ],
            [
              86.9213004716212,
              27.900971098582083
            ],
            [
              86.92069079208963,
              27.90097074908354
            ],
            [
              86.92069098953934,
              27.90069992651882
            ],
            [
              86.92038615053264,
              27.900699750763433
            ]
          ]
        ]
      },
      "id": "+4495+1826",
      "properties": {
        "area_m2": 393321.3982543312,
        "count": 436,
        "water": 1
      }
    }
  ]
}
