{
  "type": "FeatureCollection",
  "features": [
    {
      "type": "Feature",
      "geometry": {
        "geodesic": false,
        "type": "MultiPolygon",
        "coordinates": [
          [
            [
              [
                86.9194720345025,
                27.900157574289487
              ],
              [
                86.91947343780572,
                27.89826181590525
              ],
              [
                86.91764444485445,
                27.898260735187048
              ],
              [
                86.91764464986797,
                27.8979899125325
              ],
              [
                86.91733981847898,
                27.897989730057713
              ],
              [
                86.91734002425606,
                27.897718907385197
              ],
              [
                86.91703519362166,
                27.897718724236675
              ],
              [
                86.91703540015332,
                27.897447901564156
              ],
              [
                86.91673057028248,
                27.8974477177419
              ],
              [
                86.91673077756874,
                27.8971768950604
              ],
              [
                86.91642594846147,
                27.897176710564406
              ],
              [
                86.91642615650231,
                27.89690588787392
              ],
              [
                86.91795029825674,
                27.896906803589573
              ],
              [
                86.91795070673867,
                27.896365158154705
              ],
              [
                86.91825553358218,
                27.896365339273032
              ],
              [
                86.91825533010478,
                27.89663616199945
              ],
              [
                86.91977946814917,
                27.89663705748504
              ],
              [
                86.9197798675132,
                27.896095412005256
              ],
              [
                86.920389519718,
                27.896095765465372
              ],
              [
                86.92038971788635,
                27.895824942712004
              ],
              [
                86.92099936858199,
                27.895825293477174
              ],
              [
                86.92099956522321,
                27.895554470696858
              ],
              [
                86.92252368822082,
                27.89555533581041
              ],
              [
                86.9225240739035,
                27.895013690204863
              ],
              [
                86.92282889700104,
                27.895013861199175
              ],
              [
                86.92282870491428,
                27.89528468400644
              ],
              [
                86.9231335287664,
                27.89528485432702
              ],
              [
                86.9231337200896,
                27.895014031519754
              ],
              [
                86.92343854318713,
                27.895014201166596
              ],
              [
                86.92343759032615,
                27.896368315122075
              ],
              [
                86.9243520710094,
                27.89636882004713
              ],
              [
                86.92435169439071,
                27.896910465562847
              ],
              [
                86.92343720916199,
                27.896909960628808
              ],
              [
                86.9234358750021,
                27.898805719561015
              ],
              [
                86.92313104128647,
                27.89880554988722
              ],
              [
                86.92313027581405,
                27.899888840469497
              ],
              [
                86.92130125534737,
                27.899887808215404
              ],
              [
                86.92130105942482,
                27.90015863082504
              ],
              [
                86.9194720345025,
                27.900157574289487
              ]
            ]
          ],
          [
            [
              [
                86.9194720345025,
                27.900157574289487
              ],
              [
                86.91947183401649,
                27.900428396872172
              ],
              [
                86.91855731931405,
                27.90042785949997
              ],
              [
                86.91855671101985,
                27.90124032716718
              ],
              [
                86.91794703001506,
                27.901239965532397
              ],
              [
                86.9179468257202,
                27.90151078807017
              ],
              [
                86.91733714320623,
                27.901510423731455
              ],
              [
                86.9173369374022,
                27.90178124625126
              ],
              [
                86.91672725337907,
                27.90178087920862
              ],
              [
                86.91672808267678,
                27.90069758910245
              ],
              [
                86.91825227756657,
                27.900698501593148
              ],
              [
                86.91825268461119,
                27.900156856454725
              ],
              [
                86.9194720345025,
                27.900157574289487
              ]
            ]
          ]
        ]
      },
      "id": "+4385+1827",
      "properties": {
        "area_m2": 252591.69650464496,
        "count": 280,
        "water": 1
      }
    }
  ]
}
