{
  "type": "FeatureCollection",
  "features": [
    {
      "type": "Feature",
      "geometry": {
        "geodesic": false,
        "type": "Polygon",
        "coordinates": [
          [
            [
              86.91947504141528,
              27.89609523425561
            ],
            [
              86.91947524185638,
              27.895824411502247
            ],
            [
              86.92069454322969,
              27.895825118431457
            ],
            [
              86.92069474063446,
              27.89555429565114
            ],
            [
              86.9219140390074,
              27.895554991782607
            ],
            [
              86.92191423337587,
              27.895284168993307
            ],
            [
              86.92282870491428,
              27.89528468400644
            ],
            [
              86.92282889700104,
              27.895013861199175
            ],
            [
              86.92343854318713,
              27.895014201166596
            ],
            [
              86.92343835261853,
              27.895285023982844
            ],
            [
              86.92374317647065,
              27.89528519295595
            ],
            [
              86.9237435560897,
              27.89474354731447
            ],
            [
              86.9249628454705,
              27.89474421646054
            ],
            [
              86.92496228515533,
              27.895556684927254
            ],
            [
              86.92465746052167,
              27.89555651864011
            ],
            [
              86.92465539746875,
              27.89853556883731
            ],
            [
              86.92496023043878,
              27.898535735133436
            ],
            [
              86.92496004363412,
              27.89880655782392
            ],
            [
              86.92526487736771,
              27.89880672344631
            ],
            [
              86.92526469131762,
              27.89907754611883
            ],
            [
              86.92495985682945,
              27.899077380487455
            ],
            [
              86.92495873591164,
              27.900702316297988
            ],
            [
              86.92404421878373,
              27.90070181532552
            ],
            [
              86.9240440296794,
              27.90097263791719
            ],
            [
              86.92343435009393,
              27.90097230056387
            ],
            [
              86.92343454071643,
              27.90070147798118
            ],
            [
              86.92160550657741,
              27.90070044974256
            ],
            [
              86.92160511622349,
              27.90124209488098
            ],
            [
              86.92130027568965,
              27.901241921146806
            ],
            [
              86.9213004716212,
              27.900971098582083
            ],
            [
              86.92008111255808,
              27.900970396899034
            ],
            [
              86.92008091358124,
              27.90124121945477
            ],
            [
              86.9194712325495,
              27.901240864566333
            ],
            [
              86.91947183401649,
              27.900428396872172
            ],
            [
              86.91672828998999,
              27.900426766546712
            ],
            [
              86.91672849730318,
              27.900155943981993
            ],
            [
              86.91642365985058,
              27.90015575945905
            ],
            [
              86.91642407598614,
              27.89961411430266
            ],
            [
              86.91611924006067,
              27.899613929114963
            ],
            [
              86.91611944888304,
              27.899343106523293
            ],
            [
              86.91550977855023,
              27.899342734135676
            ],
            [
              86.91550998888177,
              27.899071911535025
            ],
            [
              86.91520515448342,
              27.899071724326117
            ],
            [
              86.91520557666466,
              27.898530079106845
            ],
            [
              86.915815242443,
              27.898530452832954
            ],
            [
              86.91581649981491,
              27.896905516869708
            ],
            [
              86.91612132815861,
              27.896905702713177
            ],
            [
              86.91612153695404,
              27.896634880013707
            ],
            [
              86.91642636453416,
              27.896635065174454
            ],
            [
              86.91642615650231,
              27.89690588787392
            ],
            [
              86.91673098484601,
              27.896906072369916
            ],
            [
              86.91673119212328,
              27.896635249661465
            ],
            [
              86.9179505024977,
              27.896635980881122
            ],
            [
              86.91795070673867,
              27.896365158154705
            ],
            [
              86.91825553358218,
              27.896365339273032
            ],
            [
              86.91825573705957,
              27.896094516537634
            ],
            [
              86.91947504141528,
              27.89609523425561
            ]
          ],
          [
            [
              86.91947504141528,
              27.89609523425561
            ],
            [
              86.9197798675132,
              27.896095412005256
            ],
            [
              86.91977966783568,
              27.89636623474964
            ],
            [
              86.9194748409742,
              27.896366056999994
            ],
            [
              86.91947504141528,
              27.89609523425561
            ]
          ]
        ]
      },
      "id": "+4160+1758",
      "properties": {
        "area_m2": 479022.08694182965,
        "count": 531,
        "water": 1
      }
    }
  ]
}
