{
  "type": "FeatureCollection",
  "features": [
    {
      "type": "Feature",
      "geometry": {
        "geodesic": false,
        "type": "Polygon",
        "coordinates": [
          [
            [
              86.91185087897121,
              27.90042373333126
            ],
            [
              86.9118515373375,
              27.899611265708963
            ],
            [
              86.91215637322705,
              27.89961146033795
            ],
            [
              86.91215615453218,
              27.899882282884704
            ],
            [
              86.91276582783843,
              27.899882670121475
            ],
            [
              86.91276604501512,
              27.899611847565737
            ],
            [
              86.9124612091166,
              27.89961165428422
            ],
            [
              86.91246164497018,
              27.899070009145795
            ],
            [
              86.91307131373094,
              27.899070395017127
            ],
            [
              86.9130715301351,
              27.898799572425457
            ],
            [
              86.91368119738668,
              27.898799955592857
            ],
            [
              86.91368141227268,
              27.89852913298322
            ],
            [
              86.91398624514389,
              27.89852932356081
            ],
            [
              86.91398603102145,
              27.898800146170444
            ],
            [
              86.91429086465624,
              27.898800336065314
            ],
            [
              86.91429129138294,
              27.898258690828076
            ],
            [
              86.91398645926633,
              27.898258500933206
            ],
            [
              86.91398667338875,
              27.897987678305604
            ],
            [
              86.91490116747487,
              27.897988245960015
            ],
            [
              86.91490159114731,
              27.897446600659894
            ],
            [
              86.91551125085304,
              27.89744697571551
            ],
            [
              86.91550977855023,
              27.899342734135676
            ],
            [
              86.9179484599623,
              27.899344207525456
            ],
            [
              86.91794866423022,
              27.899073384906835
            ],
            [
              86.92008250529712,
              27.899074638712428
            ],
            [
              86.920082704247,
              27.89880381606686
            ],
            [
              86.92069237163334,
              27.898804168224416
            ],
            [
              86.9206927664968,
              27.89826252290633
            ],
            [
              86.92099759867631,
              27.89826269797001
            ],
            [
              86.92099799200365,
              27.897721052598026
            ],
            [
              86.92160765333534,
              27.8977214006952
            ],
            [
              86.9216090192866,
              27.895825641547397
            ],
            [
              86.9222186700092,
              27.895825986913692
            ],
            [
              86.92221770193075,
              27.89718010067154
            ],
            [
              86.92252253108293,
              27.89718027235756
            ],
            [
              86.92252233822363,
              27.89745109507499
            ],
            [
              86.92282716813938,
              27.897451266087273
            ],
            [
              86.92282678392094,
              27.897992911504176
            ],
            [
              86.92313161535485,
              27.897993081842717
            ],
            [
              86.92313142400471,
              27.898263904533202
            ],
            [
              86.92252175960977,
              27.898263563173394
            ],
            [
              86.92252040942392,
              27.900159321692378
            ],
            [
              86.92282524693044,
              27.900159492731607
            ],
            [
              86.92282467051746,
              27.900971960515598
            ],
            [
              86.92160531140044,
              27.90097127231626
            ],
            [
              86.92160511622349,
              27.90124209488098
            ],
            [
              86.9194712325495,
              27.901240864566333
            ],
            [
              86.91947103205452,
              27.901511687104104
            ],
            [
              86.9176419844677,
              27.901510606233188
            ],
            [
              86.91764177940928,
              27.901781428752994
            ],
            [
              86.9173369374022,
              27.90178124625126
            ],
            [
              86.91733673158919,
              27.902052068753097
            ],
            [
              86.91642220328623,
              27.90205151717853
            ],
            [
              86.9164219951915,
              27.902322339671386
            ],
            [
              86.91520262112653,
              27.90232159478835
            ],
            [
              86.91520283225756,
              27.902050772313462
            ],
            [
              86.9148979895049,
              27.902050584412855
            ],
            [
              86.91489820139051,
              27.90177976192
            ],
            [
              86.91459335940141,
              27.901779573345657
            ],
            [
              86.91459357204161,
              27.901508750843817
            ],
            [
              86.91428873081608,
              27.901508561604718
            ],
            [
              86.91428894421087,
              27.901237739093897
            ],
            [
              86.9139841037489,
              27.90123754917208
            ],
            [
              86.91398431789828,
              27.90096672666126
            ],
            [
              86.91367947819987,
              27.900966536065706
            ],
            [
              86.91367969311283,
              27.9006957135459
            ],
            [
              86.91307001523417,
              27.900695330342568
            ],
            [
              86.91307023165628,
              27.900424507813778
            ],
            [
              86.91276539347604,
              27.900424315206
            ],
            [
              86.91276495911364,
              27.900965960245607
            ],
            [
              86.91246011942422,
              27.90096576696409
            ],
            [
              86.9124603373645,
              27.900694944444286
            ],
            [
              86.91215549843864,
              27.900694750489034
            ],
            [
              86.91215571714248,
              27.90042392796923
            ],
            [
              86.91185087897121,
              27.90042373333126
            ]
          ]
        ]
      },
      "id": "+4491+1824",
      "properties": {
        "area_m2": 331075.3846065935,
        "count": 367,
        "water": 1
      }
    }
  ]
}
