{
  "type": "FeatureCollection",
  "features": [
    {
      "type": "Feature",
      "geometry": {
        "geodesic": false,
        "type": "Polygon",
        "coordinates": [
          [
            [
              86.91794886848915,
              27.898802562279233
            ],
            [
              86.91795029825674,
              27.896906803589573
            ],
            [
              86.9182551266184,
              27.896906984716885
            ],
            [
              86.91825533010478,
              27.89663616199945
            ],
            [
              86.91856015770288,
              27.89663634244404
            ],
            [
              86.91856036042569,
              27.896365519717623
            ],
            [
              86.9191700141217,
              27.8963658785856
            ],
            [
              86.91916981291705,
              27.896636701312012
            ],
            [
              86.91947464053311,
              27.896636879735397
            ],
            [
              86.9194748409742,
              27.896366056999994
            ],
            [
              86.92069414842011,
              27.89636676393819
            ],
            [
              86.9206943458249,
              27.896095941193806
            ],
            [
              86.9209991719318,
              27.896096116239523
            ],
            [
              86.92099936858199,
              27.895825293477174
            ],
            [
              86.92282832073178,
              27.895826329594023
            ],
            [
              86.92282793654928,
              27.896367975136688
            ],
            [
              86.9243520710094,
              27.89636882004713
            ],
            [
              86.92435131777204,
              27.897452111033648
            ],
            [
              86.92465614770575,
              27.89745227800351
            ],
            [
              86.92465596015549,
              27.897723100729927
            ],
            [
              86.92618011365988,
              27.897723925464206
            ],
            [
              86.92617992989152,
              27.897994748190623
            ],
            [
              86.92709442431001,
              27.89799523494276
            ],
            [
              86.92709424281439,
              27.89826605766019
            ],
            [
              86.92800873952359,
              27.898266538357685
            ],
            [
              86.9280083810958,
              27.898808183765603
            ],
            [
              86.92648421232902,
              27.89880737922545
            ],
            [
              86.92648384630148,
              27.899349024570487
            ],
            [
              86.92556934051929,
              27.89934853374
            ],
            [
              86.9255691552238,
              27.899619356394552
            ],
            [
              86.92404497518318,
              27.899618524851043
            ],
            [
              86.9240447860878,
              27.899889347487626
            ],
            [
              86.92038674515447,
              27.899887282988423
            ],
            [
              86.92038654695018,
              27.900158105589078
            ],
            [
              86.91977687198207,
              27.900157752066082
            ],
            [
              86.91977667225963,
              27.900428574648767
            ],
            [
              86.91886215754819,
              27.900428039297775
            ],
            [
              86.91886296553788,
              27.89934474891313
            ],
            [
              86.91825329515117,
              27.89934438866175
            ],
            [
              86.91825370215986,
              27.898802743415526
            ],
            [
              86.91794886848915,
              27.898802562279233
            ]
          ]
        ]
      },
      "id": "+4393+1824",
      "properties": {
        "area_m2": 305816.3772716111,
        "count": 339,
        "water": 1
      }
    }
  ]
}
