{
  "type": "FeatureCollection",
  "features": [
    {
      "type": "Feature",
      "geometry": {
        "geodesic": false,
        "type": "Polygon",
        "coordinates": [
          [
            [
              86.92099622192728,
              27.900158456417127
            ],
            [
              86.92099681197669,
              27.89934598857924
            ],
            [
              86.92130164719251,
              27.899346162978166
            ],
            [
              86.92130341036982,
              27.896908758844653
            ],
            [
              86.9231323807554,
              27.896909790964
            ],
            [
              86.92313314610206,
              27.8958264999146
            ],
            [
              86.92465727298938,
              27.89582734143839
            ],
            [
              86.92465746052167,
              27.89555651864011
            ],
            [
              86.92557193441365,
              27.895557015462362
            ],
            [
              86.92557211967322,
              27.89528619264611
            ],
            [
              86.92770588684469,
              27.895287328287313
            ],
            [
              86.92770390729018,
              27.898266378798922
            ],
            [
              86.9273990750478,
              27.898266218566427
            ],
            [
              86.92739835210162,
              27.89934950933735
            ],
            [
              86.92709351683192,
              27.89934934842213
            ],
            [
              86.92709333532731,
              27.899620171085665
            ],
            [
              86.92434981118052,
              27.899618692512608
            ],
            [
              86.92434962284872,
              27.89988951514919
            ],
            [
              86.92191092882429,
              27.899888155001037
            ],
            [
              86.92191073441988,
              27.900158977610673
            ],
            [
              86.92099622192728,
              27.900158456417127
            ]
          ]
        ]
      },
      "id": "+4179+2166",
      "properties": {
        "area_m2": 267025.55502465874,
        "count": 296,
        "water": 1
      }
    }
  ]
}
