{
  "type": "FeatureCollection",
  "features": [
    {
      "type": "Feature",
      "geometry": {
        "geodesic": false,
        "type": "Polygon",
        "coordinates": [
          [
            [
              86.9213004716212,
              27.900971098582083
            ],
            [
              86.92130086349327,
              27.90042945341671
            ],
            [
              86.92160570174539,
              27.90042962715089
            ],
            [
              86.92160667757629,
              27.89907551405779
            ],
            [
              86.92191151203752,
              27.899075687100265
            ],
            [
              86.92191190083736,
              27.89853404179116
            ],
            [
              86.92221673378043,
              27.898534214159895
            ],
            [
              86.92221789555363,
              27.896909277936143
            ],
            [
              86.92282755234882,
              27.89690962063444
            ],
            [
              86.92282774445354,
              27.896638797890056
            ],
            [
              86.92404705504357,
              27.896639475174865
            ],
            [
              86.92404724411199,
              27.896368652412516
            ],
            [
              86.92587620553239,
              27.896369648105175
            ],
            [
              86.92587639003736,
              27.896098825315875
            ],
            [
              86.92740052083235,
              27.896099636512545
            ],
            [
              86.92739997868111,
              27.896912104862476
            ],
            [
              86.9270951502386,
              27.896911943965225
            ],
            [
              86.92709351683192,
              27.89934934842213
            ],
            [
              86.9267886815622,
              27.899349186833177
            ],
            [
              86.92678849930302,
              27.89962000949671
            ],
            [
              86.92404497518318,
              27.899618524851043
            ],
            [
              86.9240447860878,
              27.899889347487626
            ],
            [
              86.92252060231917,
              27.899888499082742
            ],
            [
              86.92252002363344,
              27.900700966893684
            ],
            [
              86.92160550657741,
              27.90070044974256
            ],
            [
              86.92160531140044,
              27.90097127231626
            ],
            [
              86.9213004716212,
              27.900971098582083
            ]
          ]
        ]
      },
      "id": "+4338+1863",
      "properties": {
        "area_m2": 193954.35596546056,
        "count": 215,
        "water": 1
      }
    }
  ]
}
