{
  "type": "FeatureCollection",
  "features": [
    {
      "type": "Feature",
      "geometry": {
        "geodesic": false,
        "type": "Polygon",
        "coordinates": [
          [
            [
              86.915815242443,
              27.898530452832954
            ],
            [
              86.9158162902649,
              27.897176339560193
            ],
            [
              86.91612111936318,
              27.89717652540366
            ],
            [
              86.91612153695404,
              27.896634880013707
            ],
            [
              86.9173408473015,
              27.896635616623257
            ],
            [
              86.91734105306062,
              27.896364793905825
            ],
            [
              86.91795070673867,
              27.896365158154705
            ],
            [
              86.91795091097065,
              27.896094335428288
            ],
            [
              86.91917021532636,
              27.89609505584121
            ],
            [
              86.91917041652204,
              27.895824233087847
            ],
            [
              86.92099936858199,
              27.895825293477174
            ],
            [
              86.92099956522321,
              27.895554470696858
            ],
            [
              86.9219140390074,
              27.895554991782607
            ],
            [
              86.92191423337587,
              27.895284168993307
            ],
            [
              86.92252388106216,
              27.895284513012125
            ],
            [
              86.9225240739035,
              27.895013690204863
            ],
            [
              86.9240481893822,
              27.895014538439067
            ],
            [
              86.92404762223086,
              27.89582700685188
            ],
            [
              86.9237427968516,
              27.895826838552512
            ],
            [
              86.92374146808159,
              27.89772259779913
            ],
            [
              86.9240462987699,
              27.897722766116466
            ],
            [
              86.92404535336492,
              27.899076879550922
            ],
            [
              86.92374051887674,
              27.899076711224602
            ],
            [
              86.92373994932689,
              27.899889179152325
            ],
            [
              86.92191092882429,
              27.899888155001037
            ],
            [
              86.92191034559309,
              27.900700622794012
            ],
            [
              86.92160550657741,
              27.90070044974256
            ],
            [
              86.92160531140044,
              27.90097127231626
            ],
            [
              86.92008111255808,
              27.900970396899034
            ],
            [
              86.92008091358124,
              27.90124121945477
            ],
            [
              86.91825187051296,
              27.901240146686657
            ],
            [
              86.91825268461119,
              27.900156856454725
            ],
            [
              86.91794784714061,
              27.90015667530945
            ],
            [
              86.9179480514175,
              27.89988585271778
            ],
            [
              86.91703354131442,
              27.89988530524851
            ],
            [
              86.91703416095434,
              27.899072837446553
            ],
            [
              86.91642449211274,
              27.899072469101355
            ],
            [
              86.91642490823034,
              27.898530823864114
            ],
            [
              86.915815242443,
              27.898530452832954
            ]
          ]
        ]
      },
      "id": "+4327+1827",
      "properties": {
        "area_m2": 387908.65922062285,
        "count": 430,
        "water": 1
      }
    }
  ]
}
